EVENT  15759818 TURKEY
   Date       Time        Err   RMS Latitude Longitude  Smaj  Smin  Az Depth   Err Ndef Nsta Gap  mdist  Mdist Qual   Author      OrigID
2018/05/03 02:32:41.67   0.88  0.81  40.9121    31.808  21.1   8.1  51   0.0f        14   11 103   1.83  73.46 m i uk IDC_REB   15781181

Magnitude  Err Nsta Author      OrigID
ML     3.9 0.2    2 IDC_REB   15781181
mb     3.6 0.1    8 IDC_REB   15781181
mbtmp  3.6 0.1   10 IDC_REB   15781181
Ms     2.8 0.2    7 IDC_REB   15781181

Sta     Dist  EvAz Phase        Time      TRes  Azim AzRes   Slow   SRes Def   SNR       Amp   Per Qual Magnitude    ArrID
BRTR    1.83 129.7 Pn       02:33:14.870  -0.8 303.3  -7.6   15.1    1.3 T__  31.4      59.8  0.33 a__            132073955
BRTR    1.83 129.7 Lg       02:33:42.050   2.1 298.4 -12.5   31.0   -1.4 T__  17.1      83.4  0.33 a__            132073957
BRTR    1.83 129.7 LR       02:34:19.174  24.4 280.0 -30.9   53.1   13.3 ___           160.6 20.47 a__            132225376
MLR     6.27 318.8 Pn       02:34:17.117   1.1 138.3   3.5    5.7   -8.0 T__   3.1       0.9  0.33 a__ ML     3.7 132074847
                                                                                        15.5  1.18     mbtmp  3.9 
MLR     6.27 318.8 Sn       02:35:27.190  -0.2 121.4 -13.5   18.7   -6.0 T__   1.6       0.4  0.33 ___            132181567
MLR     6.27 318.8 LR       02:37:17.216  35.7 121.5 -13.3   44.0    5.7 ___            92.0 20.95 a__ Ms     2.8 132225388
MMAI    8.39 158.8 LR       02:38:52.527  44.1 298.0 -43.0   44.2    5.3 ___            48.5 21.40 a__ Ms     2.7 132225389
KBZ     8.69  67.5 LR       02:39:25.750  14.7 267.0  12.1   46.5    1.7 ___            66.6 18.45 a__ Ms     2.9 132225386
AKASG   9.95 350.5 Pn       02:35:02.792  -1.0 165.9  -2.7   13.1   -0.6 T__   7.1       2.3  0.33 a__ ML     4.2 132074050
                                                                                         2.0  0.55     mbtmp  3.8 
AKASG   9.95 350.5 Sn       02:36:52.609   0.3 156.9 -11.7   22.8   -1.7 T__   2.6       1.2  0.33 ___            132181575
AKASG   9.95 350.5 LR       02:38:44.834 -19.4 240.5  71.9   36.5   -1.9 ___            27.4 20.23 a__ Ms     2.5 132225375
VRAC   13.62 313.1 LR       02:41:57.027   8.8 167.5  45.2   40.8    0.6 ___            21.2 20.10 a__ Ms     2.5 132225404
GERES  15.06 307.8 LR       02:43:26.132  34.8 114.0  -1.0   42.8    2.3 ___            32.1 19.71 a__ Ms     2.8 132225406
FINES  20.85 352.3 P        02:37:26.005   1.2 153.4 -14.3   12.6    1.7 T__   2.5       1.6  0.76 ___ mbtmp  3.6 132181404
                                                                                         1.6  0.76     mb     3.4 
HFS    22.28 335.8 P        02:37:40.180  -0.0 145.0   3.4    5.3   -5.4 T__   2.6       1.6  0.68 ___ mbtmp  3.7 132199055
                                                                                         1.6  0.68     mb     3.5 
KURK   33.50  57.2 P        02:39:22.466  -0.1 279.3   7.7    9.0    0.3 T__   4.3       0.2  0.28 a__ mbtmp  3.5 132074882
                                                                                         0.2  0.28     mb     3.5 
MKAR   36.35  63.4 P        02:39:47.382   0.2 270.0  -9.5    8.6    0.1 T__   2.2       0.2  0.48 ___ mbtmp  3.3 132181408
                                                                                         0.2  0.48     mb     3.3 
TORD   38.18 232.2 P        02:40:02.747  -0.1  35.2  -2.8    9.8    1.3 T__   5.7       0.6  0.63 a__ mbtmp  3.6 132074008
                                                                                         0.6  0.63     mb     3.6 
SONM   51.84  55.7 P        02:41:51.400  -0.1 281.5 -10.2    7.2   -0.3 T__   1.6       0.4  0.46 ___ mbtmp  3.6 132199102
                                                                                         0.4  0.46     mb     3.6 
PALK   54.80 113.8 LR       03:06:13.975 -30.0 121.7 166.0   36.7   -0.5 ___            82.0 18.39 a__ Ms     3.8 132225390
CMAR   61.00  90.1 P        02:42:57.473   0.4 307.6   3.1    8.9    1.7 T__   1.6       1.0  0.31 ___ mbtmp  4.2 132199111
                                                                                         1.0  0.31     mb     4.2 
YKA    73.46 344.5 P        02:44:15.923   0.4  21.2  -2.9    6.3    0.0 T__   1.8       0.2  0.61 ___ mbtmp  3.3 132181494
                                                                                         0.2  0.61     mb     3.3 



EVENT  15759870 QINGHAI, CHINA
   Date       Time        Err   RMS Latitude Longitude  Smaj  Smin  Az Depth   Err Ndef Nsta Gap  mdist  Mdist Qual   Author      OrigID
2018/05/03 02:47:22.97   1.06  0.56  34.5265   96.5213  30.3  20.5  45   0.0f        13   13 112  15.21  86.57 m i uk IDC_REB   15781220

Magnitude  Err Nsta Author      OrigID
ML     4.1 0.3    3 IDC_REB   15781220
mb     3.7 0.1   10 IDC_REB   15781220
mbtmp  3.8 0.1   13 IDC_REB   15781220
Ms     3.5 0.0   33 IDC_REB   15781220

Sta     Dist  EvAz Phase        Time      TRes  Azim AzRes   Slow   SRes Def   SNR       Amp   Per Qual Magnitude    ArrID
SONM   15.21  26.1 Pn       02:50:59.613   0.4 211.5  -1.2   11.5   -1.8 T__  16.1       0.3  0.33 a__ ML     3.7 132074154
                                                                                         4.2  0.92     mbtmp  4.1 
SONM   15.21  26.1 LR       02:57:16.134  16.4 216.5   3.8   39.0    1.1 ___           166.4 21.54 a__ Ms     3.4 132225452
CMAR   16.15 171.7 Pn       02:51:11.913   0.5 343.4  -2.1   12.3   -1.1 T__  31.9       0.7  0.33 a__ ML     4.5 132074281
                                                                                         8.8  0.75     mbtmp  4.5 
CMAR   16.15 171.7 LR       02:58:27.034  55.2 345.0  -7.8   41.1    3.4 ___            22.3 20.64 a__ Ms     2.6 132225451
MKAR   16.30 323.0 Pn       02:51:10.020   0.3 128.1  -5.6   11.8   -1.1 T__  20.6       0.5  0.33 a__ ML     4.0 132074308
                                                                                         1.8  0.53     mbtmp  4.0 
MKAR   16.30 323.0 LR       02:58:34.606  38.1 143.5   9.8   41.2    2.3 ___           234.9 19.75 a__ Ms     3.6 132225437
AAK    18.99 301.8 LR       03:00:37.128  43.5  88.0 -19.9   41.8    2.3 ___            61.3 19.49 a__ Ms     3.1 132225417
KURK   20.75 326.3 P        02:52:05.509   0.4 133.1  -0.8   11.2    0.4 T__  61.2       8.2  0.63 a__ mbtmp  4.4 132075105
                                                                                         8.2  0.63     mb     4.2 
KURK   20.75 326.3 LR       03:01:16.235  34.8 157.0  23.0   40.2    1.7 ___           282.3 18.77 a__ Ms     3.9 132225435
ZALV   21.10 340.5 P        02:52:08.446  -0.4 156.6   4.3   10.9    0.1 T__  22.1       5.6  0.72 a__ mbtmp  4.2 132074329
                                                                                         5.6  0.72     mb     4.0 
ZALV   21.10 340.5 LR       03:00:37.910  15.2 202.5  50.2   37.7    0.7 ___            49.1 19.58 a__ Ms     3.1 132225445
KSRS   25.49  74.3 P        02:52:54.033   1.2 272.1  -0.9    8.7   -0.4 T__   2.3       2.2  0.97 ___ mbtmp  3.8 132181929
                                                                                         2.2  0.97     mb     3.8 
BVAR   26.18 322.9 P        02:52:59.575   0.5 127.0   2.5    9.6    0.5 T__   6.2       1.2  0.58 a__ mbtmp  3.9 132075098
                                                                                         1.2  0.58     mb     3.9 
BVAR   26.18 322.9 LR       03:04:17.413  15.3 122.2  -2.3   38.7    0.6 ___           208.6 20.55 a__ Ms     3.8 132225424
AKTO   32.12 311.5 LR       03:07:57.530  13.5 179.0  74.2   38.4    0.4 ___           127.0 18.37 a__ Ms     3.7 132225419
MJAR   33.79  74.3 LR       03:09:18.288  54.4 206.5 -72.7   38.9    1.6 ___            30.1 18.56 a__ Ms     3.1 132225449
ARU    33.82 322.1 LR       03:08:58.340  15.6 115.5   1.3   38.3    0.5 ___           150.4 19.66 a__ Ms     3.8 132225421
BELG   38.88 312.6 LR       03:12:08.888   9.8 114.9  17.3   38.2    0.3 ___            53.0 20.44 a__ Ms     3.4 132225423
KIRV   39.22 322.6 LR       03:12:26.599  15.3 109.4   2.6   38.3    0.4 ___           119.1 20.03 a__ Ms     3.8 132225434
GNI    41.07 293.6 LR       03:15:16.516  10.3  71.5  -9.4   40.7    0.3 ___            31.8 18.43 a__ Ms     3.2 132225430
KBZ    41.96 299.2 LR       03:14:49.112 -36.0  72.5 -11.3   39.2   -0.9 ___            32.5 20.92 a__ Ms     3.2 132225432
BRTR   49.50 295.5 P        02:56:15.846   0.5  88.3  13.2    4.9   -2.7 T__   4.6       0.5  0.62 a__ mbtmp  3.5 132074275
                                                                                         0.5  0.62     mb     3.5 
AKASG  50.35 310.4 LR       03:20:41.435  79.6  86.0   4.4   39.7    1.6 ___            35.6 18.14 a__ Ms     3.4 132225418
FINES  51.13 324.4 LR       03:19:25.637  -2.2  75.5 -12.4   37.6   -0.0 ___            88.7 18.85 a__ Ms     3.8 132225428
ARCES  51.49 334.8 LR       03:21:23.985  54.1 165.0  71.1   39.6    1.1 ___            37.0 18.33 a__ Ms     3.4 132225420
EIL    51.69 282.7 LR       03:20:28.018 -64.8  86.5  18.8   38.4   -1.3 ___            25.9 19.29 a__ Ms     3.3 132225426
MLR    53.55 304.4 LR       03:22:35.694 -10.6 136.0  60.5   39.5   -0.2 ___            43.1 18.22 a__ Ms     3.5 132225438
SHEM   56.23  45.6 LR       03:23:11.431  22.8   6.0  81.9   38.2    0.4 ___            30.0 18.66 a__ Ms     3.4 132225442
HFS    57.31 323.8 LR       03:23:06.901  -0.3  80.0   3.3   37.4   -0.0 ___           103.6 18.18 a__ Ms     3.9 132225448
NOA    58.28 325.2 P        02:57:18.385  -0.7  73.3  -2.0    8.8    1.8 T__   1.6       0.8  1.01 ___ mbtmp  3.6 132199118
                                                                                         0.8  1.01     mb     3.6 
NOA    58.28 325.2 LR       03:23:48.335   5.9  70.0  -5.3   37.5    0.1 ___            61.6 19.87 a__ Ms     3.7 132225439
VRAC   58.60 311.0 LR       03:24:52.939  29.8  80.0   7.7   38.4    0.5 ___            31.4 18.80 a__ Ms     3.4 132225443
GERES  60.54 311.2 LR       03:24:14.384 -73.0  80.5  10.3   36.5   -1.2 ___            35.6 19.43 a__ Ms     3.5 132225447
DAVOX  63.70 310.1 LR       03:28:19.270  17.9  84.0  17.2   38.6    0.3 ___            38.1 19.38 a__ Ms     3.5 132225446
ASAR   67.89 143.1 P        02:58:22.994  -0.5 326.6  -2.6    5.9   -0.4 T__   2.2       0.4  0.62 ___ mbtmp  3.6 132182131
                                                                                         0.4  0.62     mb     3.6 
ASAR   67.89 143.1 LR       03:31:58.732  88.1 215.5  -112   39.4    1.3 ___            46.6 19.01 a__ Ms     3.7 132225422
ILAR   69.43  24.2 P        02:58:31.917  -0.6 288.7  -6.8    5.6    0.2 T__   4.4       0.5  0.98 a__ mbtmp  3.4 132074298
                                                                                         0.5  0.98     mb     3.4 
ILAR   69.43  24.2 LR       03:31:04.516 -25.7 342.0  34.1   37.8   -0.4 ___            19.0 18.77 a__ Ms     3.3 132225431
KDAK   71.42  31.9 LR       03:31:52.648 -26.7 259.9 -45.6   37.4   -0.4 ___            41.9 18.40 a__ Ms     3.7 132225433
SFJD   75.75 347.3 LR       03:36:05.753 -34.8  16.5 -11.0   38.6   -0.5 ___            30.3 18.48 a__ Ms     3.6 132225441
ESDC   75.95 308.5 LR       03:36:27.939 -39.1 123.0  66.2   38.8   -0.5 ___            28.8 18.63 a__ Ms     3.5 132225427
YKA    80.12  14.1 P        02:59:34.203  -0.3 330.3  -2.1    4.5   -0.9 T__   2.7       0.4  0.99 ___ mbtmp  3.4 132182133
                                                                                         0.4  0.99     mb     3.4 
FRB    81.34 353.3 LR       03:38:30.253  26.1 241.0  -131   37.7    0.3 ___            17.0 18.50 a__ Ms     3.3 132225429
TORD   86.57 283.5 P        03:00:08.545   0.0  57.7   2.2    4.3   -0.6 T__   1.6       0.4  0.80 ___ mbtmp  3.6 132182232
                                                                                         0.4  0.80     mb     3.6 
YBH    96.00  28.4 LR       03:43:31.342  -112 347.0  18.7   35.1   -1.2 ___            13.1 18.79 a__ Ms     3.3 132225450
PDAR   99.46  19.2 LR       03:51:12.426 -79.4 107.0 128.6   38.5   -0.8 ___            23.0 18.10 a__ Ms     3.6 132225440



EVENT  15775694 POLAND
   Date       Time        Err   RMS Latitude Longitude  Smaj  Smin  Az Depth   Err Ndef Nsta Gap  mdist  Mdist Qual   Author      OrigID
2018/05/03 03:52:20.77   0.98  0.51  51.5283   15.9034  20.9   9.5 118   0.0f         6    4 138   3.04  11.40 m i uk IDC_REB   15777691

Magnitude  Err Nsta Author      OrigID
ML     2.4 0.2    4 IDC_REB   15777691
mbtmp  3.1 0.1    4 IDC_REB   15777691

Sta     Dist  EvAz Phase        Time      TRes  Azim AzRes   Slow   SRes Def   SNR       Amp   Per Qual Magnitude    ArrID
GERES   3.04 208.6 Pn       03:53:09.275  -0.8  30.6   0.8   13.7    1.1 TA_  13.0       0.8  0.33 a__ ML     2.5 132075166
                                                                                         2.3  0.46     mbtmp  2.7 
GERES   3.04 208.6 Pg       03:53:16.378   0.6  27.1   0.2   17.4   -0.8 TA_  16.2       2.1  0.33 a__            132075167
GERES   3.04 208.6 Lg       03:53:57.276  -0.0  30.7   3.7   26.0   -5.8 TA_   5.1       2.5  0.33 a__            132075171
AKASG   8.43  90.4 Pn       03:54:20.454   0.3 280.0  -0.8   12.0   -1.7 TA_   1.3       0.3  0.33 ___ ML     3.2 132199272
                                                                                         0.2  0.23     mbtmp  3.0 
NOA     9.88 346.6 Pn       03:54:41.012  -0.6 157.0  -5.7   12.5   -1.2 TA_   1.5       0.0  0.33 ___ ML     2.1 132199294
                                                                                         1.0  0.99     mbtmp  3.2 
FINES  11.40  25.4 Pn       03:55:00.418   0.5 210.4  -3.5   15.6    2.0 TA_   3.7       0.1  0.33 a__ ML     2.4 132075158
                                                                                         0.5  0.54     mbtmp  3.3 



EVENT  15760162 NEAR S. COAST OF HONSHU, JAPAN
   Date       Time        Err   RMS Latitude Longitude  Smaj  Smin  Az Depth   Err Ndef Nsta Gap  mdist  Mdist Qual   Author      OrigID
2018/05/03 04:36:27.04   1.15  0.73  34.7954  137.2066  30.5  15.3  76 296.4   9.7   12   10 126   1.92  74.88 m i uk IDC_REB   15781233

Magnitude  Err Nsta Author      OrigID
mb     3.0 0.2    8 IDC_REB   15781233
mbtmp  3.8 0.2    9 IDC_REB   15781233

Sta     Dist  EvAz Phase        Time      TRes  Azim AzRes   Slow   SRes Def   SNR       Amp   Per Qual Magnitude    ArrID
MJAR    1.92  25.9 P        04:37:14.214   1.4 203.4  -3.0    8.2    0.3 T__ 119.2      23.0  0.40 a__            132075642
MJAR    1.92  25.9 S        04:37:49.409  -0.3 219.1  12.6   11.5   -2.9 T__   7.4       7.4  0.84 a__            132075644
JCJ     8.78 149.6 P        04:38:29.450  -0.8 229.0  -103   20.6    8.3 T__   1.9      33.5  0.74 ___ mbtmp  4.7 132225601
JCJ     8.78 149.6 S        04:40:09.350  -1.5 274.7 -57.4   23.1    0.4 T__   6.0      14.5  0.28 a__            132076406
KURK   44.73 309.4 P        04:44:10.837  -0.3  95.0   7.6    7.9    0.1 T__   2.5       0.1  0.28 ___ mbtmp  3.3 132173921
                                                                                         0.1  0.28     mb     2.7 
ILAR   53.19  31.3 P        04:45:14.212  -0.5 267.8   0.3    8.0    1.3 T__   4.9       0.5  0.91 a__ mbtmp  3.4 132075750
                                                                                         0.5  0.91     mb     2.7 
ASAR   58.22 183.6 P        04:45:51.479   0.7  18.4  13.5    6.5   -0.3 T__   2.9       0.4  0.91 ___ mbtmp  3.4 132174121
                                                                                         0.4  0.91     mb     2.7 
ARCES  64.87 338.8 P        04:46:34.012  -0.4  57.3  -0.5    8.7    0.1 T__   3.3       4.0  0.93 ___ mbtmp  4.4 132174122
                                                                                         4.0  0.93     mb     3.7 
YKA    67.43  28.5 P        04:46:51.491   0.8 300.3  -4.7    7.2    1.2 T__   5.4       0.1  0.59 a__ mbtmp  3.1 132075791
                                                                                         0.1  0.59     mb     2.5 
FINES  69.17 331.3 P        04:47:01.202  -0.2  66.9  10.0    6.9   -0.1 T__  12.9       1.3  0.51 a__ mbtmp  4.2 132075736
                                                                                         1.3  0.51     mb     3.6 
HFS    74.67 334.4 P        04:47:34.042   0.0  45.0  -0.4    7.4    1.7 T__   1.8       1.6  0.83 ___ mbtmp  4.1 132173923
                                                                                         1.6  0.83     mb     3.5 
NOA    74.88 335.9 P        04:47:35.372   0.1  34.7  -8.7    5.1   -0.6 T__   1.6       0.6  0.93 ___ mbtmp  3.6 132174123
                                                                                         0.6  0.93     mb     3.0 



