EVENT  1643542
   Date       Time       Latitude Longitude    Depth    Ndef Nsta Gap    Mag1  N    Mag2  N    Mag3  N  Author          ID
       rms   OT_Error      Smajor Sminor Az        Err   mdist  Mdist     Err        Err        Err     Quality

2003/04/02 03:40:41.3    -10.2501  120.0315      0.0 f     3    3 196  ML 3.9  2  mb 3.6  1             IDC_REB    1643542
      0.08   +-  3.57     325.4   28.8   50              16.83  66.03   +-0.0      +-0.3                m i uk

SUMBA REGION, INDONESIA
Sta    Dist   EvAz     Phase       Date      Time     TRes  Azim  AzRes  Slow  SRes Def  SNR        Amp   Per   Mag1   Mag2 Arr ID
WRA    16.83 126.6 a   Pn      2003/04/02 03:44:38.5  -0.0 291.2  -11.6  13.5   0.9 T    20.5       0.5  0.33 ML 3.9        12370365
WRA    16.83 126.6 m   Sn      2003/04/02 03:47:38.6  -8.9 288.8  -14.0  24.8   0.6       5.2       0.2  0.33               12386872
ASAR   18.79 137.0 a   P       2003/04/02 03:45:02.5   0.1 312.0   -0.9  13.1   1.8 TAS  34.2       0.8  0.33 ML 3.9        12370359
ASAR   18.79 137.0 a   S       2003/04/02 03:48:20.0 -15.1 298.3  -14.6  20.4  -3.6       9.3       0.3  0.33               12370361
MKAR   66.03 332.6 a   P       2003/04/02 03:51:29.8  -0.0 142.5    3.7   7.7   1.3 TAS   7.7       0.3  0.40 mb 3.6 mb 3.6 12370437



EVENT  1641063
   Date       Time       Latitude Longitude    Depth    Ndef Nsta Gap    Mag1  N    Mag2  N    Mag3  N  Author          ID
       rms   OT_Error      Smajor Sminor Az        Err   mdist  Mdist     Err        Err        Err     Quality

2003/04/02 03:43:12.8     35.5392  -35.7236      0.0 f    24   20 183  mb 5.0 16  Ms 5.6 13             IDC_REB    1643108
      0.89   +-  0.95      29.0   14.5    1              25.42 175.72   +-0.3      +-0.4                m i uk

NORTHERN MID-ATLANTIC RIDGE
Sta    Dist   EvAz     Phase       Date      Time     TRes  Azim  AzRes  Slow  SRes Def  SNR        Amp   Per   Mag1   Mag2 Arr ID
ESDC   25.42  71.1 a   P       2003/04/02 03:48:41.5  -0.7 270.6   -0.2   8.3  -0.8 T    89.0      41.1  0.82 mb 5.2 mb 5.5 12370347
ESDC   25.43  71.1 a   LR      2003/04/02 03:56:32.5   0.7 280.0    9.2  31.4   0.0             25725.1 18.53 Ms 5.9 Ms 6.0 12394452
SADO   34.09 299.1 a   P       2003/04/02 03:49:59.9   0.9 109.9    3.5   9.6   0.9 T    12.9      51.8  1.27 mb 5.3 mb 5.2 12371569
FRB    34.60 334.9 a   P       2003/04/02 03:50:03.3   0.2 134.0    3.7   8.1  -0.2 T    28.6      31.3  0.87 mb 5.2 mb 5.2 12371574
GERES  38.29  54.1 a   P       2003/04/02 03:50:35.2   0.3 263.8   -0.4   6.2  -1.4 T     9.0      13.1  0.86 mb 4.8 mb 5.2 12370342
NOA    39.06  34.4 a   P       2003/04/02 03:50:40.8  -0.2 252.1    1.0   8.6   0.2 T    26.3      21.5  0.94 mb 5.0 mb 5.2 12370479
NOA    39.06  34.4 a   PcP     2003/04/02 03:52:52.4   1.6 212.3  -38.7   2.0  -1.1 T     7.6       7.0  0.86               12370481
NOA    39.06  34.4 a   LR      2003/04/02 04:04:34.9  15.9 250.0   -1.0  32.8   0.4              5686.9 20.26 Ms 5.4 Ms 5.5 12394447
FINES  46.16  36.0 a   P       2003/04/02 03:51:38.2  -0.4 244.9  -20.3   6.3  -1.5 T    26.8      20.5  0.89 mb 5.0 mb 5.0 12370392
FINES  46.16  36.0 a   LR      2003/04/02 04:09:44.4  30.5 260.4   -4.9  34.5   0.7             57224.3 18.28 Ms 6.6 Ms 6.6 12394441
ARCES  47.18  24.9 a   P       2003/04/02 03:51:45.9  -0.7 261.2    4.2   5.9  -1.9 T    18.3      30.2  0.92 mb 5.2 mb 5.3 12370474
ARCES  47.18  24.9 a   LR      2003/04/02 04:09:59.3  92.5 261.6    4.5  34.1   2.0              7155.6 18.70 Ms 5.7 Ms 5.7 12394440
SPITS  47.96  12.6 a   LR      2003/04/02 04:07:09.4 -22.2  90.8 -149.2  29.9  -0.5              1097.8 19.33 Ms 4.8 Ms 4.8 12394454
SPITS  47.97  12.7 a   P       2003/04/02 03:51:53.9   1.3 271.6   31.6   5.7  -2.0 T    11.8      43.1  0.99 mb 5.3 mb 5.1 12371652
YKA    54.16 325.8 a   P       2003/04/02 03:52:39.3  -0.1  79.9   -1.9   7.1  -0.1 T    55.4      11.0  0.97 mb 4.7 mb 5.1 12370397
YKA    54.16 325.8 m   PP      2003/04/02 03:54:46.8   6.1  79.7   -1.1  10.5   1.5       4.6       6.4  0.88               12384520
YKA    54.16 325.8 a   LR      2003/04/02 04:15:26.3  26.5  80.0   -0.8  35.7   0.5              2479.0 19.01 Ms 5.3 Ms 5.2 12394451
YKA    54.16 325.8 m   PKP2    2003/04/02 04:22:45.2 -10.0 231.5  152.2   1.7   3.4       3.6       0.5  0.90               12384517
PDAR   56.03 301.5 a   P       2003/04/02 03:52:52.2  -1.4  77.8   -7.5   9.7   0.7 T    56.4      25.7  1.20 mb 5.0 mb 5.5 12370402
PDAR   56.03 301.5 m   PP      2003/04/02 03:55:02.7   4.5  61.0  -25.0   8.5  -1.3       2.2      10.8  1.23               12384519
PDAR   56.03 301.5 a   LR      2003/04/02 04:17:05.4  16.9  74.3    3.5  36.3   0.3              5098.9 18.16 Ms 5.6 Ms 5.6 12394449
TXAR   56.67 284.4 a   P       2003/04/02 03:52:57.1  -1.1  89.8    2.1   6.6  -0.9 T    70.0      39.0  1.22 mb 5.2 mb 5.7 12370385
TXAR   56.67 284.4 a   LR      2003/04/02 04:16:15.8  26.6   5.0  -59.8  35.0   0.5              2862.7 18.34 Ms 5.4 Ms 5.4 12394450
NVAR   63.84 299.8 a   P       2003/04/02 03:53:47.8   0.4  76.1   -5.3   7.2   1.4 T    24.0      13.6  0.99 mb 4.9 mb 5.4 12370448
NVAR   63.84 299.8 a   LR      2003/04/02 04:21:51.3 -20.9  90.0   25.7  36.3  -0.3              3737.3 18.18 Ms 5.6 Ms 5.6 12394448
ILAR   66.63 334.2 a   P       2003/04/02 03:54:04.6  -0.1  49.8    1.1   4.9  -0.3 T    24.4       4.1  1.00 mb 4.4 mb 4.8 12370456
ILAR   66.63 334.2 a   PKP2    2003/04/02 04:22:27.5  -8.3 254.2 -157.2   4.7   6.4       6.5       1.2  0.91               12370698
ILAR   66.63 334.2 a   LR      2003/04/02 04:22:51.6  35.3  76.8   20.9  35.7   0.5              1975.3 18.71 Ms 5.3 Ms 5.4 12394443
KMBO   76.85 101.0 a   P       2003/04/02 03:55:07.1  -0.3 271.4  -35.4   4.8  -0.8 T     6.5      13.1  1.00 mb 4.9 mb 4.9 12370429
KMBO   76.85 101.0 a   LR      2003/04/02 04:27:13.2 -72.2 298.0   -8.7  34.4  -0.9              7468.6 19.95 Ms 5.9 Ms 5.9 12394453
MKAR   80.95  37.9 a   P       2003/04/02 03:55:27.3  -1.9 322.4    9.2   4.9  -0.4 T   142.3      28.1  0.77 mb 5.4 mb 5.4 12370441
MKAR   80.95  37.9 m   PP      2003/04/02 03:58:35.9   3.1 322.6    9.5   6.0  -2.3       4.2       2.9  0.76               12384521
MKAR   80.95  37.9 a   PKKPbc  2003/04/02 04:14:05.3  -0.9  99.4  146.3   4.1   6.4       8.1       0.9  0.80               12370588
MKAR   80.95  37.9 a   LR      2003/04/02 04:31:49.0  51.1 221.0  -92.2  36.0   0.6              9212.9 19.11 Ms 6.1 Ms 6.1 12394444
HIA    92.80  15.8 a   P       2003/04/02 03:56:28.7   1.6 336.5   -3.7   4.3  -0.3 T     9.5       2.7  0.38 mb 5.0 mb 5.0 12371197
HIA    92.80  15.8 a   LR      2003/04/02 04:37:10.8  29.6 333.1   -7.0  34.9   0.3              2562.4 20.36 Ms 5.6 Ms 5.6 12394442
CMAR  111.23  46.4 a   PKiKP   2003/04/02 04:01:49.1   0.2 305.3   15.9   2.7  -0.5 T     5.7       0.9  0.52               12370562
CMAR  111.23  46.4 a   PP      2003/04/02 04:02:27.5  -0.0 307.1  -11.8   7.5  -0.9       6.5       4.3  0.96               12370564
WRA   162.17  32.0 a   PKP     2003/04/02 04:03:16.5   0.4 328.7   -3.9   1.5   0.5 T    17.2       3.0  0.90               12370544
WRA   162.17  32.0 a   PKPab   2003/04/02 04:04:03.8   0.9 335.9    3.2   4.4   0.0 T    15.0      21.9  1.08               12370546
WRA   162.17  32.0 m   PP      2003/04/02 04:07:45.6  -1.0 338.9    6.2   4.5  -0.9       3.5       1.7  1.00               12384518
ASAR  165.14  40.1 a   PKP     2003/04/02 04:03:19.7   0.9   0.5   35.4   1.4   0.6 T    12.8       1.2  0.76               12370523
ASAR  165.14  40.1 a   PKPab   2003/04/02 04:04:16.3   0.3 330.9    1.9   3.6  -0.7 T     8.5       5.5  0.92               12370527
STKA  175.72  32.2 a   PKP     2003/04/02 04:03:25.6   1.1  38.8   63.5   1.5   1.2 T     5.7       3.5  0.99               12370504
STKA  175.72  32.2 a   PKPab   2003/04/02 04:05:02.7   0.2 318.3  -17.0   5.2   0.7 T     4.7       4.6  0.93               12370509



EVENT  1643146
   Date       Time       Latitude Longitude    Depth    Ndef Nsta Gap    Mag1  N    Mag2  N    Mag3  N  Author          ID
       rms   OT_Error      Smajor Sminor Az        Err   mdist  Mdist     Err        Err        Err     Quality

2003/04/02 04:38:00.9     35.0512  -35.6235      0.0 f     3    3 247  mb 3.9  3                        IDC_REB    1643146
      0.02   +-  3.70     114.6   42.2  171              54.61  81.29   +-0.3                           m i uk

NORTHERN MID-ATLANTIC RIDGE
Sta    Dist   EvAz     Phase       Date      Time     TRes  Azim  AzRes  Slow  SRes Def  SNR        Amp   Per   Mag1   Mag2 Arr ID
YKA    54.61 326.0 a   P       2003/04/02 04:47:30.6  -0.0  80.9   -2.0   7.2  -0.2 TAS   8.2       1.1  1.04 mb 3.7 mb 4.1 12370840
TXAR   56.87 284.8 a   P       2003/04/02 04:47:47.6   0.0 103.5   12.9   5.1  -2.6 TA    6.8       1.2  1.05 mb 3.8 mb 4.3 12370805
MKAR   81.29  37.9 a   P       2003/04/02 04:50:19.0   0.0 321.7    8.8   4.7  -0.6 TAS   7.3       2.4  1.14 mb 4.2 mb 4.2 12370903



EVENT  1641118
   Date       Time       Latitude Longitude    Depth    Ndef Nsta Gap    Mag1  N    Mag2  N    Mag3  N  Author          ID
       rms   OT_Error      Smajor Sminor Az        Err   mdist  Mdist     Err        Err        Err     Quality

2003/04/02 04:41:12.2     61.4298 -150.5196      0.0 f    10    7 208  ML 3.3  4  mb 3.4  3             IDC_REB    1643157
      1.32   +-  1.48      20.7   17.5   63               3.74  64.06   +-0.2      +-0.1                m i uk

SOUTHERN ALASKA
Sta    Dist   EvAz     Phase       Date      Time     TRes  Azim  AzRes  Slow  SRes Def  SNR        Amp   Per   Mag1   Mag2 Arr ID
ILAR    3.74  24.6 a   Pn      2003/04/02 04:42:13.0   0.6 205.3   -2.5  14.1   0.3 TA   30.1       1.3  0.33 ML 3.2        12370824
ILAR    3.74  24.6 m   Sn      2003/04/02 04:42:55.0  -1.8 206.6   -1.3  24.1  -0.6 TA    6.1       5.7  0.33               12384694
ILAR    3.74  24.6 m   Lg      2003/04/02 04:43:12.1   1.1 209.4    1.6  27.6  -4.1 TA   10.2      13.1  0.33               12384695
INK     9.96  38.9 a   Pn      2003/04/02 04:43:37.4   0.1 238.8    4.4  15.5   1.8 TA    4.8       0.1  0.33 ML 3.1        12372061
INK     9.96  38.9 m   Lg      2003/04/02 04:46:30.2   2.3 343.1  108.7  28.7  -3.1 T     2.9       0.1  0.33               12384693
DLBC   10.70  97.2 m   Pn      2003/04/02 04:43:46.6  -1.5 296.9   31.0  15.5   1.8 T     3.3       0.1  0.33 ML 3.1        12384697
YKA    16.78  70.6 a   Pn      2003/04/02 04:45:06.7  -0.5 281.3   -1.1  10.1  -1.7 TA    7.1       0.1  0.33 ML 3.6        12370836
PDAR   30.62 108.6 a   P       2003/04/02 04:47:29.0   1.1 308.7  -12.6   5.5   0.1 TAS   4.1       0.3  0.58 mb 3.5 mb 3.9 12370801
TXAR   44.40 114.4 a   P       2003/04/02 04:49:26.0   1.7 320.4   -4.2   8.1   2.1 TA    5.0       0.3  0.72 mb 3.3 mb 3.8 12370806
MKAR   64.06 322.5 m   P       2003/04/02 04:51:46.7  -0.6  41.3   16.1   6.5  -0.1 TAS   2.9       0.2  0.45 mb 3.4 mb 3.4 12384696



EVENT  1641156
   Date       Time       Latitude Longitude    Depth    Ndef Nsta Gap    Mag1  N    Mag2  N    Mag3  N  Author          ID
       rms   OT_Error      Smajor Sminor Az        Err   mdist  Mdist     Err        Err        Err     Quality

2003/04/02 05:06:19.6     -8.6492  120.0310    206.2      11    8 128  mb 4.0  6                        IDC_REB    1652735
      1.49   +-  3.36      40.3    8.5   51    +- 33.9   17.82  99.08   +-0.3                           m i uk

FLORES REGION, INDONESIA
Sta    Dist   EvAz     Phase       Date      Time     TRes  Azim  AzRes  Slow  SRes Def  SNR        Amp   Per   Mag1   Mag2 Arr ID
WRA    17.82 130.6 a   P       2003/04/02 05:10:12.4  -0.8 302.6   -4.4  12.5   1.6 T   122.3       2.3  0.33               12371019
WRA    17.82 130.6 a   S       2003/04/02 05:13:24.6  -3.5 308.1    1.1  22.8   2.8 T    13.8       1.9  0.33               12371099
ASAR   19.99 140.0 a   P       2003/04/02 05:10:36.2  -0.3 316.1   -0.4  10.3   0.2 T   168.8       4.7  0.33               12371023
ASAR   19.99 140.0 a   S       2003/04/02 05:14:12.8   1.9 314.6   -1.5  23.9   4.4 T     8.4       0.5  0.33               12371104
STKA   30.59 142.1 a   P       2003/04/02 05:12:15.5   1.3 321.9    6.3   6.8  -1.2 T    14.4       2.0  0.35 mb 3.9 mb 3.9 12371049
CMAR   34.04 322.4 a   P       2003/04/02 05:12:44.0  -0.4 151.3    0.1   6.6  -0.2 T    16.2       3.3  0.55 mb 3.9 mb 4.2 12371119
H08S2  47.04 267.6 a   T       2003/04/02 06:04:08.8 -80.1  87.7   -7.0                  14.3                               12371619
H08S3  47.06 267.6 a   T       2003/04/02 06:04:09.9 -81.1  87.7   -7.1                  13.6                               12371620
H08S1  47.06 267.6 a   T       2003/04/02 06:04:10.5 -80.1  87.7   -7.0                  15.8                               12371618
BJT    48.55 356.0 a   P       2003/04/02 05:14:43.1   1.2 146.7  -28.2   8.8   1.2 T     5.2       5.3  0.42 mb 4.2 mb 4.1 12371987
MKAR   64.62 332.3 a   P       2003/04/02 05:16:35.1   0.1 142.3    4.4   7.8   1.4 T    54.4      17.0  1.11 mb 4.4 mb 4.4 12371061
MKAR   64.62 332.3 a   PcP     2003/04/02 05:17:05.3  -1.6 143.1    5.1   7.9   3.8 T     5.3       2.9  0.76               12371064
KMBO   82.69 270.0 a   P       2003/04/02 05:18:20.9  -0.3  56.0  -42.6  13.9   8.8 T     4.9       1.0  0.60 mb 3.6 mb 3.6 12371048
ILAR   99.08  25.7 a   P       2003/04/02 05:19:37.6   1.2 246.5  -18.0   4.7   0.3 T     4.0       0.6  1.07 mb 3.9 mb 4.3 12371094



EVENT  1643553
   Date       Time       Latitude Longitude    Depth    Ndef Nsta Gap    Mag1  N    Mag2  N    Mag3  N  Author          ID
       rms   OT_Error      Smajor Sminor Az        Err   mdist  Mdist     Err        Err        Err     Quality

2003/04/02 05:21:23.2     43.3299   15.6512      0.0 f     4    3 276  mb 3.5  2  Ms 3.8  1  ML 3.7  1  IDC_REB    1643553
      0.91   +-  3.26      65.9   36.7   33               5.68  67.25   +-0.8      +-0.2      +-0.3     m i uk

ADRIATIC SEA
Sta    Dist   EvAz     Phase       Date      Time     TRes  Azim  AzRes  Slow  SRes Def  SNR        Amp   Per   Mag1   Mag2 Arr ID
GERES   5.68 346.9 a   Pn      2003/04/02 05:22:50.1   1.3 169.2    3.7  13.4  -0.3 TA   21.5       1.3  0.33 ML 3.7        12371164
GERES   5.68 346.9 a   Sn      2003/04/02 05:23:54.9  -1.1 161.6   -3.9  24.2  -0.5 TA   33.3       3.8  0.33               12371167
ARCES  26.76   7.7 a   LR      2003/04/02 05:37:53.6   6.4  32.4 -163.7  37.0   0.2               216.6 20.79 Ms 3.8 Ms 3.8 12394467
MKAR   45.92  61.4 a   P       2003/04/02 05:29:47.7   0.3 287.8   -3.4   7.3  -0.6 TAS   7.1       3.0  1.20 mb 4.0 mb 4.0 12371133
YKA    67.25 337.4 a   P       2003/04/02 05:32:18.3  -0.6  48.1   11.0   8.6   2.3 TA    3.9       0.1  0.76 mb 2.9 mb 3.3 12371245



EVENT  1641155
   Date       Time       Latitude Longitude    Depth    Ndef Nsta Gap    Mag1  N    Mag2  N    Mag3  N  Author          ID
       rms   OT_Error      Smajor Sminor Az        Err   mdist  Mdist     Err        Err        Err     Quality

2003/04/02 05:21:50.6      9.1005  125.9514      0.0 f     3    3 344  mb 4.2  3                        IDC_REB    1643188
      0.02   +- 14.50     687.7  138.8   30              52.77  86.77   +-0.5                           m i uk

MINDANAO, PHILIPPINE ISLANDS
Sta    Dist   EvAz     Phase       Date      Time     TRes  Azim  AzRes  Slow  SRes Def  SNR        Amp   Per   Mag1   Mag2 Arr ID
MKAR   52.77 323.4 a   P       2003/04/02 05:31:07.5   0.0 129.2    8.2   7.9   0.5 TAS  10.2       0.5  0.38 mb 3.8 mb 3.8 12371135
ARCES  85.17 339.7 a   P       2003/04/02 05:34:28.5  -0.0  80.5    1.1   5.8   0.1 TAS   7.2       6.5  0.99 mb 4.7 mb 4.8 12371244
FINES  86.77 331.7 a   P       2003/04/02 05:34:36.5   0.0  79.9   -5.1   6.6   0.9 TAS   8.0       0.6  0.45 mb 4.1 mb 4.1 12371230



