EVENT  1642368
   Date       Time       Latitude Longitude    Depth    Ndef Nsta Gap    Mag1  N    Mag2  N    Mag3  N  Author          ID
       rms   OT_Error      Smajor Sminor Az        Err   mdist  Mdist     Err        Err        Err     Quality

2003/04/02 20:55:41.4     37.9447   38.2690      0.0 f    12   10 107  mb 4.0  8  ML 3.2  2             IDC_REB    1645072
      1.41   +-  1.03      21.4   19.7   78               8.70  77.55   +-0.3      +-0.1                m i uk

TURKEY
Sta    Dist   EvAz     Phase       Date      Time     TRes  Azim  AzRes  Slow  SRes Def  SNR        Amp   Per   Mag1   Mag2 Arr ID
EIL     8.70 199.4 m   Pn      2003/04/02 20:57:48.9   0.3  12.0   -5.6  11.7  -2.0 T     3.9       0.2  0.33 ML 3.3        12396516
EIL     8.70 199.4 a   Pg      2003/04/02 20:58:20.0  -0.0  10.0   -7.6  16.1  -2.1 T     6.2       0.7  0.33               12380275
EIL     8.70 199.4 m   Lg      2003/04/02 21:00:21.5   3.6 352.6  -25.0  25.2  -6.5 T     2.9       0.9  0.33               12396515
MLR    11.89 313.2 m   Pn      2003/04/02 20:58:31.1  -1.3  89.7  -35.3  20.6   6.9 T     2.6       0.0  0.33 ML 3.1        12396517
GERES  20.82 309.4 a   P       2003/04/02 21:00:23.9  -0.6 112.2   -0.1  10.0  -0.8 T    14.6       2.1  0.58 mb 3.7 mb 4.2 12379164
FINES  24.72 346.0 a   P       2003/04/02 21:01:04.6   0.5 149.3  -10.9   8.8  -1.0 T    13.9       3.6  0.76 mb 4.1 mb 4.1 12379157
HFS    27.13 332.8 a   P       2003/04/02 21:01:27.2   1.3  81.2  -52.7   5.5  -3.5 T     4.3       1.6  0.60 mb 4.1 mb 3.9 12380463
ARCES  32.39 351.7 m   P       2003/04/02 21:02:14.3   1.8 152.3   -8.7  10.0   1.3 T     3.2       3.2  0.94 mb 4.2 mb 4.3 12396519
ESDC   32.74 286.4 m   P       2003/04/02 21:02:14.6  -1.2  88.8   19.0   7.3  -0.7 T     3.8       3.0  0.90 mb 4.2 mb 4.5 12396518
MKAR   33.33  60.3 a   P       2003/04/02 21:02:19.9  -1.0 264.3   -6.5   6.3  -2.4 T     8.9       3.6  1.08 mb 4.2 mb 4.2 12379184
CMAR   55.93  92.5 a   P       2003/04/02 21:05:21.5   0.2 299.6    2.5   8.7   1.0 T     5.5       0.7  0.79 mb 3.7 mb 4.0 12379252
YKA    77.55 347.5 a   P       2003/04/02 21:07:37.9  -0.8  22.6   -0.7   5.8   0.1 T     5.9       0.4  0.84 mb 3.6 mb 3.9 12379224



EVENT  1642389
   Date       Time       Latitude Longitude    Depth    Ndef Nsta Gap    Mag1  N    Mag2  N    Mag3  N  Author          ID
       rms   OT_Error      Smajor Sminor Az        Err   mdist  Mdist     Err        Err        Err     Quality

2003/04/02 21:31:38.5    -25.0590  179.8703    488.2      53   30 168  mb 4.8 18                        IDC_REB    1644808
      1.20   +-  0.69      22.7    7.9  160    +-  5.1   29.38 165.07   +-0.4                           m i uk

SOUTH OF FIJI ISLANDS
Sta    Dist   EvAz     Phase       Date      Time     TRes  Azim  AzRes  Slow  SRes Def  SNR        Amp   Per   Mag1   Mag2 Arr ID
PPT    29.38  81.3 a   P       2003/04/02 21:36:59.4  -1.9 152.9  -97.1   2.6  -6.1 T    13.4     167.7  0.75 mb 5.0 mb 5.0 12379418
STKA   34.19 249.7 a   P       2003/04/02 21:37:43.2   0.9 100.0    0.9   7.8  -0.0 T   372.1      61.5  0.49 mb 4.8 mb 4.8 12379416
STKA   34.19 249.7 m   S       2003/04/02 21:42:35.2   1.0 260.3  171.9  16.5   1.4 T     2.9       4.9  0.73               12386960
STKA   34.19 249.7 a   ScP     2003/04/02 21:43:05.7   2.3  63.2  -31.2   3.4  -0.2 T     5.7      15.3  0.77               12379493
ASAR   41.74 261.9 a   P       2003/04/02 21:38:44.6   0.4  99.1    1.4   7.6  -0.0 T   790.5     286.4  0.80 mb 5.3 mb 5.4 12379463
ASAR   41.74 261.9 m   pP      2003/04/02 21:40:14.0   0.2 102.9   -3.1   5.8  -3.4 T     3.7      49.1  1.00               12386780
ASAR   41.74 261.9 a   ScP     2003/04/02 21:43:34.7   2.2 110.9    0.1   4.2  -0.1 T     6.5      21.7  0.74               12379586
ASAR   41.74 261.9 m   S       2003/04/02 21:44:22.3  -3.8 102.2    0.5  13.8  -0.6 T     4.3       8.7  0.72               12386959
ASAR   41.74 261.9 a   P3KPbc  2003/04/02 22:08:00.5   0.9 288.2 -173.5   4.0   3.2       8.8       0.8  0.57               12379756
ASAR   41.74 261.9 a   P4KPbc  2003/04/02 22:16:40.4   4.0 106.2   -4.6   4.6   0.1       5.4       0.6  0.66               12379835
WRA    42.22 267.4 a   P       2003/04/02 21:38:47.5  -0.5 102.7   -2.6   8.3   0.1 T   876.2     289.3  0.58 mb 5.4 mb 5.8 12379456
WRA    42.22 267.4 m   pP      2003/04/02 21:40:17.1  -0.8 102.2   -3.4   7.1  -1.2 T     1.7      26.4  1.10               12386781
WRA    42.22 267.4 a   ScP     2003/04/02 21:43:36.0   1.5 104.1    1.0   4.3  -0.0 T    20.1      48.2  0.86               12379571
WRA    42.22 267.4 m   S       2003/04/02 21:44:29.6  -3.5 100.8   -2.7  14.1  -0.3 T     6.7      47.6  0.98               12386958
WRA    42.22 267.4 a   P3KPbc  2003/04/02 22:07:59.3   1.7 287.2 -178.4   3.0   7.4       8.4       0.3  0.55               12379744
WRA    42.22 267.4 a   P4KPbc  2003/04/02 22:16:41.9   3.6  96.4   -6.6   4.2  -0.2      28.2       1.9  0.71               12379830
TGY    69.38 297.4 a   P       2003/04/02 21:41:57.7   0.7 136.2   12.3   9.8   3.8 T     8.7     141.1  0.35 mb 5.6 mb 5.6 12380572
JOW    71.67 312.5 m   P       2003/04/02 21:42:10.5   0.1 163.6   32.1   5.1  -0.7 T                                       12386963
MJAR   72.79 325.9 a   P       2003/04/02 21:42:16.6  -0.1 167.2    6.8   5.7  -0.3 T    20.9       9.0  0.59 mb 4.2 mb 4.4 12379531
JKA    76.84 333.4 m   P       2003/04/02 21:42:40.3   1.0                          T                                       12395332
ATTU   77.83 355.8 a   P       2003/04/02 21:42:43.7  -0.8 287.3  113.5   2.1  -3.3 T    10.0      46.7  0.61 mb 4.9 mb 4.9 12391669
NVAR   85.66  44.0 a   P       2003/04/02 21:43:25.0  -0.2 209.5    6.4   6.7  -0.7 T    92.3      42.4  0.67 mb 4.9 mb 5.4 12379555
NVAR   85.66  44.0 m   pP      2003/04/02 21:45:12.7  -0.7 312.7   83.5  21.9  18.5 T     2.0       1.2  0.80               12386782
NVAR   85.66  44.0 a   PKP2    2003/04/02 22:09:35.2   5.2  96.7 -172.2   3.7   5.9       7.7       2.3  0.78               12379729
BJT    87.78 316.4 a   P       2003/04/02 21:43:35.6   0.7 161.7   43.2   4.5   2.6 T    11.6      10.2  0.48 mb 4.5 mb 4.4 12380430
BBB    89.33  29.0 a   P       2003/04/02 21:43:41.8   0.2 253.5   27.8   5.2   0.5 T    18.5      43.7  0.76 mb 5.0 mb 4.6 12380516
CMAR   89.82 290.4 a   P       2003/04/02 21:43:46.2   1.4 136.4    3.3   3.6   0.3 T   131.1      43.5  0.78 mb 5.0 mb 5.4 12379592
CMAR   89.82 290.4 m   pP      2003/04/02 21:45:34.5   0.4 131.6   -2.4   2.5  -0.8 T     3.4       2.8  0.90               12386783
CMAR   89.82 290.4 a   PP      2003/04/02 21:47:25.2  -0.7 135.0    7.4   6.3  -0.3       4.2       6.5  1.20               12379595
CMAR   89.82 290.4 a   PKKPbc  2003/04/02 22:01:14.0   0.4 286.3  175.1   4.4   5.4       8.4       1.3  0.64               12379761
CMAR   89.82 290.4 a   SKKPbc  2003/04/02 22:04:04.8  -1.6 280.8  166.5   4.2   5.0       9.8       1.5  0.66               12379762
TXAR   91.14  58.1 a   P       2003/04/02 21:43:50.9   0.0 212.7    2.2   6.4  -0.1 T   275.5      33.3  0.79 mb 5.0 mb 5.5 12379523
TXAR   91.14  58.1 a   pP      2003/04/02 21:45:42.2   2.0 219.8    8.8   6.6   0.3 T     6.6       6.6  0.91               12379524
TXAR   91.14  58.1 a   PP      2003/04/02 21:47:39.4   3.2 218.9   -1.9   9.3  -1.9       5.4      11.2  1.18               12379525
TXAR   91.14  58.1 a   PKKPbc  2003/04/02 22:01:11.8   1.0  79.4  164.7   3.5   6.6      10.2       1.2  0.60               12379635
HIA    91.28 325.4 a   P       2003/04/02 21:43:52.1   1.2 204.8   76.7   4.2  -0.4 T     6.2       4.0  0.76 mb 4.1 mb 4.1 12380428
NEW    92.20  36.6 a   P       2003/04/02 21:43:54.2  -1.0 221.9  -12.1   5.4   0.9 T     9.9       7.6  0.74 mb 4.5 mb 4.8 12380573
DLBC   93.00  23.8 a   P       2003/04/02 21:43:58.5  -0.0 211.9   16.8  11.5   7.0 T     6.0       3.2  0.64 mb 4.2 mb 4.4 12380511
ILAR   93.18  13.6 a   P       2003/04/02 21:43:57.6  -1.6 224.2    2.7   5.3   0.3 T   132.7       8.6  0.63 mb 4.7 mb 5.0 12379561
ILAR   93.18  13.6 a   pP      2003/04/02 21:45:48.9   0.1 212.6   -8.9   5.4   0.3 T     2.2       1.6  0.60               12379564
ILAR   93.18  13.6 a   PP      2003/04/02 21:47:53.2   2.0 226.7   -1.1   7.2  -1.8       8.8      10.0  1.06               12379568
ILAR   93.18  13.6 a   S       2003/04/02 21:53:45.5   0.5 220.6   10.7   8.0   2.6 T     8.5       0.9  1.00               12379665
ILAR   93.18  13.6 a   PKKPbc  2003/04/02 22:01:03.6  -3.2 342.1  132.2   2.5   5.2       8.3       0.6  0.57               12379736
ILAR   93.18  13.6 a   PKP2    2003/04/02 22:09:15.0  -1.0 343.3  133.4   2.2   4.0       4.8       0.4  0.75               12379741
PDAR   93.60  44.1 a   P       2003/04/02 21:44:01.0  -1.0 217.4    9.6   3.0  -0.3 T    37.2      10.1  0.67 mb 4.7 mb 5.2 12379500
PDAR   93.60  44.1 a   PP      2003/04/02 21:47:54.3  -1.0 234.6   16.3   5.8  -0.3       7.4       7.8  1.14               12379507
PDAR   93.60  44.1 m   S       2003/04/02 21:53:49.6   0.9  92.7  112.5   2.2  -4.0 T     3.3       0.2  0.51               12386957
PDAR   93.60  44.1 a   PKKPbc  2003/04/02 22:01:04.0  -1.0  91.9  154.9   3.3   4.3       4.6       0.8  0.88               12379624
PDAR   93.60  44.1 a   SKKPbc  2003/04/02 22:03:56.8  -3.0 107.0   99.1   2.2   3.4       4.6       0.9  0.99               12379716
PDAR   93.60  44.1 a   PKP2    2003/04/02 22:09:17.8   2.3 103.3   83.3   1.6   3.3       5.1       0.9  0.88               12379717
INK    99.17  15.9 a   P       2003/04/02 21:44:24.9  -1.0 241.5   19.7   5.0   0.5 T    22.3       5.1  0.71 mb 4.9 mb 5.0 12380580
INK    99.17  15.9 a   PP      2003/04/02 21:48:32.8  -3.9 244.8   22.9   7.8   0.3       4.3       6.9  1.18               12380589
INK    99.17  15.9 a   S       2003/04/02 21:54:15.0  -0.7 335.1  113.3  31.5  26.6 T    13.6       2.0  1.05               12380692
YKA   101.45  25.5 a   P       2003/04/02 21:44:35.6  -0.5 242.2   -1.5   4.4   0.0 T    18.5       1.6  0.90               12379542
YKA   101.45  25.5 a   pP      2003/04/02 21:46:29.9   3.7 235.8   -4.4   4.2   0.0       3.7       0.8  0.88               12379545
YKA   101.45  25.5 a   PP      2003/04/02 21:48:50.6  -3.3 237.6   -1.1   7.3   0.1      10.2       4.1  0.95               12379548
YKA   101.45  25.5 a   SKP     2003/04/02 21:51:45.0  -0.1 263.0   18.7   1.6   0.0      10.8       0.7  0.53               12379596
YKA   101.45  25.5 m   S       2003/04/02 21:54:28.1   1.2 232.9   -7.3   4.9   0.4 T     3.1       0.4  0.98               12386956
YKA   101.45  25.5 a   PKKPbc  2003/04/02 22:00:41.6  -1.8  36.3  158.9   2.7   5.6      17.4       1.1  0.56               12379747
YKA   101.45  25.5 a   PKKPab  2003/04/02 22:01:05.9   0.2  53.0  175.6   4.6   9.1      12.7       1.9  0.80               12379749
YKA   101.45  25.5 a   PKP2    2003/04/02 22:09:03.6   3.3  60.7 -176.7   1.4   3.3       6.5       0.1  0.40               12379754
MKAR  112.85 312.4 a   Pdiff   2003/04/02 21:45:29.9   2.5  97.4   -5.3   5.1   0.7       9.8       1.2  0.85               12379516
MKAR  112.85 312.4 a   PKiKP   2003/04/02 21:49:17.7  -1.3  80.8  -21.9   1.4  -0.5 T    34.5       6.8  0.60               12379518
MKAR  112.85 312.4 a   SKP     2003/04/02 21:52:07.8   0.3 197.0   94.3   1.5  -0.4 T     6.2       3.3  0.68               12379603
MKAR  112.85 312.4 m   SKS     2003/04/02 21:55:17.0 -27.1 128.5   25.8   5.5   3.6       3.0       1.2  0.66               12387087
MKAR  112.85 312.4 a   PKKPbc  2003/04/02 22:00:07.3  -0.1 283.1 -179.6   3.7   7.0      18.7       3.1  0.67               12379609
MKAR  112.85 312.4 a   PKKPab  2003/04/02 22:00:16.1   0.3 287.4 -175.3   3.3   7.7       8.4       2.2  0.78               12379610
SPITS 126.26 355.8 a   PKP     2003/04/02 21:49:43.8  -0.0  49.8   31.2   3.7   1.8 T    26.3       9.8  0.70               12380600
SPITS 126.26 355.8 a   PKKPbc  2003/04/02 21:59:21.2   1.4 177.0  158.4   6.4  10.6       3.3       7.5  1.16               12380815
ARCES 132.99 348.0 m   PKP     2003/04/02 21:49:56.9   0.2  67.7   35.2   2.1   0.2 T    26.1       9.7  0.61               12386962
ARCES 132.99 348.0 a   SKPbc   2003/04/02 21:52:39.3   1.6  37.1   -2.4   3.7  -0.0 T    49.5      37.9  0.59               12379676
ARCES 132.99 348.0 a   SKKPbc  2003/04/02 22:01:58.5  -2.5 127.1   94.6   4.4   8.0       4.0       3.5  0.83               12379735
FINES 139.50 340.9 a   PKhKP   2003/04/02 21:50:00.4        46.0    7.9   4.3            41.1       3.9  0.40               12379497
FINES 139.50 340.9 a   SKPbc   2003/04/02 21:52:58.7   1.3  59.5   21.4   3.0   0.2      24.4      29.5  0.66               12379648
FINES 139.50 340.9 a   SKKPbc  2003/04/02 22:01:33.2  -3.0 238.9 -159.1   1.5   5.3       4.7       2.9  0.92               12379721
NOA   143.20 350.8 a   PKhKP   2003/04/02 21:50:12.8        15.8   -1.2   4.8            33.9      32.0  0.99               12379678
NOA   143.20 350.8 a   SKPbc   2003/04/02 21:53:08.0   0.7  12.4   -4.5   4.1  -0.0      20.0      10.9  0.63               12379680
HFS   143.65 348.4 a   PKP     2003/04/02 21:50:14.1  -2.0  63.3   41.9   3.6   1.8 T   363.1      74.9  0.44               12380873
HFS   143.65 348.4 a   SKPbc   2003/04/02 21:53:08.8   0.4  69.9   48.5   3.5   1.1 T     6.5      13.8  0.61               12380875
EIL   148.58 286.3 a   PKPbc   2003/04/02 21:50:30.5   0.7 359.7  -90.4   1.8  -0.8 T    55.6      73.1  0.79               12380688
MLR   150.74 320.8 m   PKPbc   2003/04/02 21:50:34.0  -0.9 273.3 -141.4  23.2  20.8 T    34.6       3.1  0.59               12386961
VRAC  152.49 335.9 a   PKP     2003/04/02 21:50:31.3   0.7  92.0   57.6   5.0   3.6 T     4.1       1.7  0.49               12380792
VRAC  152.49 335.9 a   PKPbc   2003/04/02 21:50:39.4   0.7 244.3 -150.1   0.6  -1.7 T     5.4       3.3  0.65               12380793
VRAC  152.49 335.9 a   PKPab   2003/04/02 21:50:51.4   0.4  51.4   17.0   2.8  -1.5 T     9.3       5.9  0.84               12380794
GERES 153.90 339.0 a   PKP     2003/04/02 21:50:32.7  -0.1  58.0   28.5   1.4   0.0 T    12.6       2.1  0.80               12379657
GERES 153.90 339.0 a   PKPbc   2003/04/02 21:50:42.5   0.6  36.3    6.7   2.4   0.3 T    12.9       2.7  0.65               12379658
GERES 153.90 339.0 m   pPKPbc  2003/04/02 21:52:38.6   1.0  70.4   40.8   2.3  -0.0 T     2.2       1.1  0.74               12386800
ESDC  165.07  11.6 a   PKPab   2003/04/02 21:51:45.7  -0.3 347.2    5.8   4.5   0.2 T    20.0       6.5  0.70               12379640
ESDC  165.07  11.6 a   pPKPab  2003/04/02 21:53:40.7   4.4 329.1   -8.0   5.1   0.7       4.6       5.4  1.04               12379642



EVENT  1642391
   Date       Time       Latitude Longitude    Depth    Ndef Nsta Gap    Mag1  N    Mag2  N    Mag3  N  Author          ID
       rms   OT_Error      Smajor Sminor Az        Err   mdist  Mdist     Err        Err        Err     Quality

2003/04/02 21:34:07.5     -7.4316  127.7469      0.0 f     3    3 185  ML 3.1  2  mb 3.6  1             IDC_REB    1644807
      0.90   +-  2.30     293.6   31.6   64              13.98  67.38   +-0.1      +-0.3                m i uk

BANDA SEA
Sta    Dist   EvAz     Phase       Date      Time     TRes  Azim  AzRes  Slow  SRes Def  SNR        Amp   Per   Mag1   Mag2 Arr ID
WRA    13.98 153.5 m   Pn      2003/04/02 21:37:25.8  -1.3 316.2  -11.3  12.8  -1.1 T     7.5       0.1  0.33 ML 3.1        12395328
ASAR   17.19 160.6 a   P       2003/04/02 21:38:10.2   0.9 336.0   -1.2  11.8  -0.8 TAS   6.7       0.1  0.33 ML 3.0        12379462
MKAR   67.38 328.0 m   P       2003/04/02 21:45:04.7   0.0 124.0   -6.1   7.5   1.2 TAS   1.8       0.8  1.17 mb 3.6 mb 3.6 12395324



EVENT  1642421
   Date       Time       Latitude Longitude    Depth    Ndef Nsta Gap    Mag1  N    Mag2  N    Mag3  N  Author          ID
       rms   OT_Error      Smajor Sminor Az        Err   mdist  Mdist     Err        Err        Err     Quality

2003/04/02 21:44:23.1      1.8589  126.4286      0.0 f     7    6 162  mb 4.4  6  ML      0             IDC_REB    1644573
      1.19   +-  0.98      55.1   17.3   78              23.01  58.92   +-0.2                           m i uk

NORTHERN MOLUCCA SEA
Sta    Dist   EvAz     Phase       Date      Time     TRes  Azim  AzRes  Slow  SRes Def  SNR        Amp   Per   Mag1   Mag2 Arr ID
WRA    23.01 160.7 a   P       2003/04/02 21:49:28.5  -1.4 339.3   -0.2  11.0   0.1 TAS  20.5       7.1  0.49 mb 4.4 mb 4.9 12379577
ASAR   26.39 164.4 a   P       2003/04/02 21:50:03.5   2.0 346.4    3.4  12.8   3.8 TA   14.6       4.0  0.50 mb 4.5 mb 4.7 12379590
ASAR   26.39 164.4 a   PcP     2003/04/02 21:53:26.8  -0.3 344.6   -2.3   2.3   0.1 TAS   3.6       0.5  0.43               12379653
MJAR   36.19  16.2 a   P       2003/04/02 21:51:26.3  -1.2 189.1  -11.1  10.3   1.7 TAS   4.2       1.5  0.47 mb 4.2 mb 4.4 12379674
STKA   36.51 158.0 a   P       2003/04/02 21:51:29.5  -0.7 329.9  -10.0   3.6  -4.9 TA    8.3       2.6  0.69 mb 4.2 mb 4.2 12379611
JKA    44.46  16.6 a   P       2003/04/02 21:52:37.3   1.4 231.5    3.1  12.8   4.8 TA    4.9       2.3  0.37 mb 4.4 mb 4.2 12380673
MKAR   58.92 326.0 a   P       2003/04/02 21:54:23.9  -0.2 121.0   -4.6   7.6   0.6 TAS  20.1       2.6  0.42 mb 4.5 mb 4.5 12379606



EVENT  1642424
   Date       Time       Latitude Longitude    Depth    Ndef Nsta Gap    Mag1  N    Mag2  N    Mag3  N  Author          ID
       rms   OT_Error      Smajor Sminor Az        Err   mdist  Mdist     Err        Err        Err     Quality

2003/04/02 21:47:22.8     15.5430  -91.1704      0.0 f     7    7 271  mb 4.1  4  ML 4.0  1             IDC_REB    1643569
      0.65   +-  2.76      99.2   55.7   59              17.92 144.78   +-0.2      +-0.3                m i uk

MEXICO-GUATEMALA BORDER REGION
Sta    Dist   EvAz     Phase       Date      Time     TRes  Azim  AzRes  Slow  SRes Def  SNR        Amp   Per   Mag1   Mag2 Arr ID
TXAR   17.92 322.1 a   P       2003/04/02 21:51:35.0   1.3 170.5   35.5   6.6  -7.7 T     4.8       0.1  0.33 ML 4.0        12379632
NVAR   33.01 318.9 a   P       2003/04/02 21:53:59.6  -0.4 124.3   -4.2   8.7  -1.6 T     9.0       4.2  0.93 mb 4.3 mb 4.8 12379625
NVAR   33.01 318.9 a   pP      2003/04/02 21:54:36.4  36.4 134.4    5.0   8.4  -2.4       3.2       0.9  0.58               12379626
YKA    49.72 346.0 a   P       2003/04/02 21:56:16.7   0.4 149.0    0.9   7.6  -0.2 T    21.6       1.4  0.70 mb 4.0 mb 4.3 12379598
YKA    49.72 346.0 a   pP      2003/04/02 21:56:54.9  38.5 147.3   -0.8   7.4  -0.4       2.9       0.4  0.63               12379599
INK    59.20 343.0 a   P       2003/04/02 21:57:25.3   0.1 149.1   18.2   8.6   0.2 T     3.8       0.8  0.39 mb 4.0 mb 4.2 12380696
ILAR   61.75 336.3 a   P       2003/04/02 21:57:42.2  -0.6 124.8    9.6   4.0  -2.8 T     5.4       1.2  0.85 mb 3.9 mb 4.3 12379671
WRA   136.53 257.3 a   PKP     2003/04/02 22:06:48.0   0.7 302.0 -146.2   1.3  -0.6 T     6.0       0.3  0.58               12379743
CMAR  144.78 343.2 a   PKP     2003/04/02 22:07:02.0  -0.1 332.4  -12.0   3.3   0.7 T     5.1       1.2  0.98               12379763



