BEGIN IMS2.0
MSG_TYPE DATA
MSG_ID 36818952 CTBT_IDC
REF_ID un1_reb 
DATA_TYPE LOG
 Info - 36818952 - IMSLANGUAGE request successfully parsed
 Info - 36818952 - Job 47205412: job status has changed to: QUEUED
 Info - 36818952 - Request submitted successfully, request id 36818952
 Info - 36818952 - Job 47205412: job status has changed to: RUNNING
 Info - 36818952 - For dates between 2018-05-03 00:00:00+00:00 and 2018-05-04 00:00:00+00:00, reb products have been retrieved from archives
 Info - 36818952 - The product BULLETIN has been generated in 0 minutes, 2 seconds and 554 milliseconds
DATA_TYPE BULLETIN IMS2.0:SHORT
Reviewed Event Bulletin of the CTBT_IDC from 2018/05/03 00:00:00 to 2018/05/04 00:00:00,  generated 2018/05/20 05:56:24
EVENT  15759498 ASCENSION ISLAND REGION
   Date       Time        Err   RMS Latitude Longitude  Smaj  Smin  Az Depth   Err Ndef Nsta Gap  mdist  Mdist Qual   Author      OrigID
2018/05/03 00:03:38.45   0.86  0.73   -5.688  -11.2854  44.1  19.3 122   0.0f        12   12 137  13.85  94.82 m i uk IDC_REB   15778641

Magnitude  Err Nsta Author      OrigID
ML     3.2 0.3    1 IDC_REB   15778641
mb     4.2 0.1   11 IDC_REB   15778641
mbtmp  4.2 0.1   12 IDC_REB   15778641
Ms     3.9 0.0   66 IDC_REB   15778641

Sta     Dist  EvAz Phase        Time      TRes  Azim AzRes   Slow   SRes Def   SNR       Amp   Per Qual Magnitude    ArrID
H10N2   3.83 236.1 T        00:08:05.831 -21.8  54.5  -2.0   74.0        ___ 810.8                 a__            132071922
H10N1   3.83 235.8 T        00:08:06.321 -21.3  54.5  -1.7   74.0        ___ 965.1                 a__            132071918
H10N3   3.84 236.0 T        00:08:10.589 -17.1  54.5  -1.9   74.0        ___ 878.8                 a__            132071925
DBIC   13.85  27.7 Pn       00:06:56.475   0.2 205.4  -2.3   15.2    1.6 T__   3.8       0.1  0.33 a__ ML     3.2 132071857
                                                                                        17.5  1.30     mbtmp  4.5 
DBIC   13.85  27.7 LR       00:11:15.850  27.3 199.5  -8.2   33.0    2.0 ___           497.4 20.52 a__ Ms     3.9 132206455
TORD   22.71  34.5 LR       00:16:34.224  11.3 206.0  -9.4   34.2    0.5 ___           553.0 20.02 a__ Ms     4.2 132206494
TORD   22.73  34.5 P        00:08:41.609  -0.6 217.1   1.8   10.3   -0.3 T__  34.1       7.0  0.87 a__ mbtmp  4.2 132071899
                                                                                         7.0  0.87     mb     4.1 
RCBR   24.49 268.4 LR       00:15:55.316   3.8  64.0 -26.9   30.1    0.2 ___           498.0 20.86 a__ Ms     4.1 132206483
TSUM   31.16 118.1 LR       00:19:58.694  30.0 286.0  -5.8   31.5    1.0 ___           541.9 21.76 a__ Ms     4.3 132206495
BDFB   37.36 251.7 P        00:10:53.419   0.1  93.4  14.7   13.3    4.8 T__   2.4       1.6  0.58 ___ mbtmp  4.1 132174412
                                                                                         1.6  0.58     mb     4.1 
BDFB   37.36 251.7 LR       00:22:59.440  -0.8 114.8  36.1   31.1   -0.0 ___           379.3 21.48 a__ Ms     4.2 132206448
MDT    38.81   9.0 LR       00:26:39.016  -5.1 191.5   0.9   35.6   -0.1 ___           223.5 19.38 a__ Ms     4.0 132206473
LSZ    39.90 107.0 LR       00:25:27.012  20.9 295.0  15.5   32.8    0.5 ___           280.0 20.44 a__ Ms     4.1 132206467
SUR    40.02 135.6 LR       00:23:24.346 -18.9 313.0   8.3   29.6   -0.5 ___           279.4 22.00 a__ Ms     4.1 132206491
LBTB   40.22 122.5 LR       00:25:58.615  25.0 284.5  -7.8   33.3    0.6 ___           205.0 19.38 a__ Ms     4.0 132206465
MATP   41.29 114.6 LR       00:26:33.371  39.3 241.0 -44.2   33.3    1.0 ___           176.1 21.52 a__ Ms     3.9 132206469
BOSA   41.42 127.7 LR       00:25:51.154 -12.7 300.0   3.6   32.2   -0.3 ___           137.0 19.44 a__ Ms     3.9 132206451
MBAR   42.25  84.6 LR       00:27:35.808  27.7 254.0  -8.2   34.0    0.7 ___           826.3 20.02 a__ Ms     4.6 132206471
MDP    42.66 283.8 LR       00:25:34.220   8.1  94.5  -9.5   30.8    0.2 ___            70.8 20.72 a__ Ms     3.6 132206472
KEST   45.53  23.7 LR       00:31:45.533  43.8 194.0 -15.4   37.1    1.0 ___           346.3 19.50 a__ Ms     4.3 132206463
ESDC   45.64   7.9 LR       00:31:52.456  50.2 177.5 -12.7   37.1    1.1 ___            52.8 19.17 a__ Ms     3.5 132206457
CPUP   48.45 239.7 LR       00:30:04.982  -2.2  63.0 -10.2   32.7   -0.0 ___            70.1 19.53 a__ Ms     3.6 132206454
VAE    49.14  27.1 LR       00:33:01.548 -17.8 153.5 -61.2   35.9   -0.4 ___           349.7 19.03 a__ Ms     4.4 132206507
SIV    49.84 253.9 LR       00:32:32.602  -9.8 108.5  24.6   34.8   -0.2 ___           197.5 18.23 a__ Ms     4.1 132206508
PCRV   55.38 286.4 LR       00:32:53.128  -0.2               31.7   -0.0 ___            89.4 21.98 a__ Ms     3.8 132206506
DAVOX  55.51  17.5 LR       00:37:35.475  33.4 229.5  23.7   36.7    0.6 ___           137.0 19.59 a__ Ms     4.0 132206503
ATD    56.50  72.3 LR       00:36:49.372  53.0 204.0 -51.3   35.2    0.9 ___             8.2 18.66 a__            132206447
EIL    56.60  48.8 LR       00:37:02.668  21.4 238.0  -1.4   35.4    0.4 ___           121.4 20.99 a__ Ms     3.9 132206456
LPAZ   56.62 254.3 LR       00:36:20.127  20.4  80.0  -6.1   34.6    0.4 ___           127.1 19.71 a__ Ms     4.0 132206466
LVC    57.99 247.0 LR       00:36:57.438  61.8  98.0  15.6   34.5    1.1 ___           113.5 21.50 a__ Ms     3.9 132206468
GERES  58.54  19.1 P        00:13:35.672  -1.1 218.1   8.6    4.6   -2.4 T__   6.2       1.7  0.80 a__ mbtmp  4.1 132072071
                                                                                         1.7  0.80     mb     4.1 
GERES  58.54  19.1 LR       00:39:27.959  21.4 239.0  29.5   36.7    0.4 ___           113.3 19.67 a__ Ms     4.0 132206504
MMAI   58.66  45.7 LR       00:40:29.825  43.8 215.0 -23.0   37.7    0.7 ___           105.1 18.14 a__ Ms     4.0 132206475
VRAC   59.91  20.7 LR       00:40:50.094  39.3 198.5 -14.0   37.2    0.7 ___            94.1 19.16 a__ Ms     3.9 132206500
MLR    60.83  29.2 LR       00:41:06.884  34.0 218.5  -5.1   37.0    0.6 ___           110.5 20.94 a__ Ms     3.9 132206474
SDV    60.91 283.4 LR       00:38:19.063  49.1 111.0   9.4   34.2    0.8 ___           115.5 19.67 a__ Ms     4.0 132206488
BRTR   61.27  38.4 P        00:13:56.969   1.1 215.9 -17.4    6.6   -0.2 T__  10.2       1.6  0.96 a__ mbtmp  4.0 132072037
                                                                                         1.6  0.96     mb     4.0 
BRTR   61.27  38.4 LR       00:41:25.278  16.0 214.5 -18.8   37.0    0.3 ___            78.0 21.56 a__ Ms     3.8 132206452
PLCA   63.23 227.0 LR       00:37:38.193  25.5  94.0  20.6   32.3    0.4 ___            72.0 21.29 a__ Ms     3.8 132206480
ROSC   63.81 278.2 LR       00:40:19.366  58.6 106.0   7.3   34.5    0.9 ___           231.5 20.78 a__ Ms     4.3 132206485
NNA    64.96 259.5 LR       00:40:41.537   1.0  58.0 -32.7   34.2    0.0 ___           322.1 21.87 a__ Ms     4.4 132206476
AKASG  66.10  26.9 P        00:14:26.655  -0.7 226.3   1.3    7.0    0.5 T__  14.9       4.5  0.81 a__ mbtmp  4.5 132072132
                                                                                         4.5  0.81     mb     4.5 
AKASG  66.10  26.9 LR       00:45:22.454  72.0 217.0  -8.0   37.9    1.1 ___            59.9 20.25 a__ Ms     3.7 132206441
SNAA   66.12 177.1 P        00:14:26.741  -0.5 315.0 -35.8   18.6   12.1 T__   3.1       3.0  0.97 ___ mbtmp  4.3 132198643
                                                                                         3.0  0.97     mb     4.3 
SNAA   66.12 177.1 LR       00:36:23.036 -10.3 141.0 150.2   29.7   -0.2 ___            92.1 19.94 a__ Ms     3.9 132206490
ATAH   66.65 264.7 LR       00:43:26.645  14.0  97.6   4.5   35.8    0.2 ___           609.3 18.47 a__ Ms     4.8 132206446
HFS    68.52  13.1 LR       00:46:29.616  31.4 201.0  -5.8   37.5    0.5 ___            57.6 18.93 a__ Ms     3.8 132206505
GNI    68.71  43.0 LR       00:46:31.014  33.4 255.0  12.7   37.4    0.5 ___            61.9 21.58 a__ Ms     3.7 132206460
NOA    68.81  11.5 LR       00:46:25.892  28.0 200.0  -4.1   37.3    0.4 ___            31.7 19.53 a__ Ms     3.5 132206477
KBZ    69.25  39.0 P        00:14:47.889   0.3 250.1  10.5    6.3    0.1 T__   7.2       2.6  0.90 a__ mbtmp  4.2 132072062
                                                                                         2.6  0.90     mb     4.2 
KBZ    69.25  39.0 LR       00:49:08.747  72.1 213.0 -26.7   39.4    1.0 ___            24.2 18.02 a__ Ms     3.4 132206462
PMSA   69.70 201.3 LR       00:40:38.698  30.4  31.0 -26.6   31.9    0.4 ___           121.0 18.43 a__ Ms     4.1 132206481
BORG   70.65 355.5 LR       00:42:04.665  68.8 189.1  19.7   32.6    1.0 ___            36.7 19.47 a__ Ms     3.6 132206450
OBN    72.36  26.6 LR       00:48:54.037  43.1 180.0 -50.7   37.5    0.6 ___            85.8 19.33 a__ Ms     4.0 132206478
FINES  72.92  17.8 P        00:15:09.201  -0.1 202.1 -17.1    5.5   -0.4 T__   5.5       1.2  0.77 a__ mbtmp  4.0 132072069
                                                                                         1.2  0.77     mb     4.0 
FINES  72.92  17.8 LR       00:46:58.233   7.2 161.5 -57.7   35.7    0.1 ___            58.3 21.85 a__ Ms     3.7 132206458
WSAR   74.00  64.0 LR       00:46:54.574  41.9 249.0  -7.5   35.1    0.6 ___           195.1 20.99 a__ Ms     4.3 132206501
JTS    75.05 282.2 LR       00:47:20.815  59.7 112.5  13.8   34.9    0.8 ___            92.6 21.45 a__ Ms     4.0 132206461
BELG   76.28  32.7 LR       00:52:12.775  95.9 226.4 -14.9   38.2    1.3 ___            35.4 19.64 a__ Ms     3.6 132206449
GEYT   77.49  49.3 LR       00:51:30.530 -27.7 278.5  25.9   37.1   -0.4 ___            76.2 18.20 a__ Ms     4.0 132206459
SFJD   77.76 345.2 LR       00:47:33.743 117.1 113.0 -26.8   33.9    1.5 ___            21.5 18.29 a__ Ms     3.4 132206489
SADO   78.57 317.7 LR       00:43:14.034  24.3  91.5 -18.4   30.2    0.3 ___           129.3 21.81 a__ Ms     4.1 132206487
MAW    78.75 157.9 LR       00:42:12.904 -19.1 298.5  15.9   29.4   -0.2 ___            69.1 20.99 a__ Ms     3.9 132206470
ARCES  79.16  12.4 LR       00:52:47.774  40.1 200.0 -17.4   37.3    0.5 ___            43.6 19.17 a__ Ms     3.7 132206443
TKL    79.24 307.8 LR       00:43:08.393  -9.9 138.5  33.5   29.9   -0.1 ___            95.4 21.36 a__ Ms     4.0 132206493
TEIG   79.83 291.6 LR       00:46:32.073  49.0               32.2    0.6 ___           446.5 20.27 a__ Ms     4.7 132206492
KIRV   80.12  27.6 LR       00:54:52.151  74.6 245.4   3.7   38.4    0.9 ___            71.5 18.30 a__ Ms     4.0 132206464
ARU    83.76  31.6 LR       00:56:27.177  47.6 277.5  27.5   37.8    0.6 ___            44.1 18.22 a__ Ms     3.8 132206445
QSPA   84.42 180.0 P        00:16:12.616  -0.2 207.9   4.2    3.8   -1.3 T__   3.7       3.0  1.08 a__ mbtmp  4.3 132072928
                                                                                         3.0  1.08     mb     4.3 
QSPA   84.42 180.0 LR       00:49:34.263   2.8 204.5   0.8   32.6    0.0 ___            46.3 18.22 a__ Ms     3.8 132206482
BVAR   89.51  36.7 LR       01:01:53.263  48.7 246.7 -13.2   39.0    0.5 ___            36.8 20.21 a__ Ms     3.7 132206453
AAK    90.71  47.4 LR       01:00:18.645 -32.5 259.5  -3.5   37.5   -0.4 ___            49.8 18.98 a__ Ms     3.9 132206439
ULM    90.87 320.3 LR       00:50:44.974  20.3  89.5  -8.3   31.1    0.2 ___            65.1 21.70 a__ Ms     3.9 132206497
PALK   92.67  83.0 LR       00:55:54.930  50.1   1.2  96.6   33.8    0.5 ___           138.5 19.48 a__ Ms     4.3 132206479
RES    93.75 344.7 LR       00:54:36.910  -5.3  24.5 -73.2   32.6   -0.1 ___             9.3 18.87 a__ Ms     3.2 132206484
KURK   94.24  39.7 P        00:17:00.905   1.5 244.3 -22.0    5.6    1.0 T__   3.0       0.6  1.03 ___ mbtmp  3.9 132174581
                                                                                         0.6  1.03     mb     4.1 
RPN    94.56 242.3 LR       00:54:48.959  -3.6  78.0 -20.7   32.5   -0.0 ___           141.7 19.19 a__ Ms     4.3 132206486
TXAR   94.82 298.9 P        00:17:03.396   0.6  96.3 -12.7    8.3    3.2 T__   2.0       0.4  0.88 ___ mbtmp  3.9 132174683
                                                                                         0.4  0.88     mb     4.0 
TXAR   94.82 298.9 LR       00:55:06.910  59.2  87.0  -6.8   32.6    0.6 ___            27.2 21.91 a__ Ms     3.6 132206496
VNDA   96.82 178.5 LR       00:55:51.837 -60.1 200.0  13.1   32.4   -0.6 ___            45.9 18.09 a__ Ms     3.9 132206499
ANMO   97.46 304.4 LR       00:59:19.863  73.8 187.5  95.8   34.3    0.8 ___            30.0 18.65 a__ Ms     3.7 132206442
ZALV   98.16  36.4 LR       01:06:19.153 -15.4 107.0  -165   38.3   -0.2 ___            33.7 19.84 a__ Ms     3.7 132206502



EVENT  15760368 NEW BRITAIN REGION, P.N.G.
   Date       Time        Err   RMS Latitude Longitude  Smaj  Smin  Az Depth   Err Ndef Nsta Gap  mdist  Mdist Qual   Author      OrigID
2018/05/03 00:56:32.19   2.32  0.69  -5.7575  152.3397  91.3  34.3 119   0.0f         5    5 201  25.14  89.73 m i uk IDC_REB   15779066

Magnitude  Err Nsta Author      OrigID
mb     3.8 0.1    5 IDC_REB   15779066
mbtmp  3.8 0.1    5 IDC_REB   15779066
Ms     3.4 0.1    2 IDC_REB   15779066

Sta     Dist  EvAz Phase        Time      TRes  Azim AzRes   Slow   SRes Def   SNR       Amp   Per Qual Magnitude    ArrID
ASAR   25.14 223.0 P        01:01:59.253   0.0  58.1   1.4    9.2    0.5 TAS   5.8       0.4  0.45 a__ mbtmp  3.4 132072644
                                                                                         0.4  0.45     mb     3.4 
H11S2  27.95  30.2 T        01:30:34.947 -57.3 207.7  -4.1   73.6        ___                       a__            132073167
H11S3  27.95  30.1 T        01:30:40.702 -51.6 207.7  -4.0   73.6        ___                       a__            132073170
H11S1  27.96  30.1 T        01:30:33.307 -59.0 207.7  -4.1               ___                       ___            132208664
TGY    36.88 302.6 LR       01:17:29.281  37.8 217.5  97.3   34.1    1.0 ___            76.5 21.30 a__ Ms     3.5 132209209
MKAR   80.74 319.1 P        01:08:48.812   1.2  95.7 -12.9    5.8    0.4 TAS   2.8       0.5  0.78 ___ mbtmp  3.6 132183356
                                                                                         0.5  0.78     mb     3.6 
ILAR   83.21  22.1 P        01:09:00.347   0.2 241.3  14.5    6.1    0.8 TAS   6.2       1.1  0.94 a__ mbtmp  3.9 132072656
                                                                                         1.1  0.94     mb     3.9 
ILAR   83.21  22.1 LR       01:39:21.499  -131 268.5  27.5   30.9   -1.6 ___            18.3 20.76 a__ Ms     3.3 132209208
KURK   84.27 322.1 P        01:09:05.492  -0.4 116.3  10.1    5.0   -0.1 TAS   2.6       0.2  0.38 ___ mbtmp  3.6 132183271
                                                                                         0.2  0.38     mb     3.6 
BVAR   89.73 323.3 P        01:09:31.429  -0.9  98.3  -1.5    6.0    1.3 TAS   6.7       1.1  0.72 a__ mbtmp  4.2 132073589
                                                                                         1.1  0.72     mb     4.2 



EVENT  15759712 PERU-BRAZIL BORDER REGION
   Date       Time        Err   RMS Latitude Longitude  Smaj  Smin  Az Depth   Err Ndef Nsta Gap  mdist  Mdist Qual   Author      OrigID
2018/05/03 01:38:55.71   1.52  1.01  -8.8686  -74.5367  18.9  11.7  62 140.5  18.6   16   14  78   3.84  90.57 m i uk IDC_REB   15774623

Magnitude  Err Nsta Author      OrigID
mb     3.6 0.1    9 IDC_REB   15774623
mbtmp  4.0 0.1   14 IDC_REB   15774623

Sta     Dist  EvAz Phase        Time      TRes  Azim AzRes   Slow   SRes Def   SNR       Amp   Per Qual Magnitude    ArrID
NNA     3.84 216.0 P        01:39:55.011   1.3  34.2  -2.2   13.9    0.8 T__  29.1      22.9  0.29 a__ mbtmp  4.2 132073872
NNA     3.84 216.0 S        01:40:38.285  -0.9   5.9 -30.5   16.5   -7.1 T__   4.7     107.8  0.41 a__            132073877
ATAH    4.19 294.0 P        01:39:59.875   1.2 108.0  -6.5    4.9   -8.3 T__  84.4      26.2  0.28 a__ mbtmp  4.4 132073880
ATAH    4.19 294.0 S        01:40:46.680  -1.3  90.0 -24.5   20.2   -3.4 T__  10.1     114.6  0.65 a__            132073885
LPAZ    9.67 140.3 P        01:41:13.535   1.5 331.4  12.4   12.7   -0.7 T__   2.3       0.6  0.58 ___ mbtmp  3.2 132175645
SIV    14.93 119.6 P        01:42:19.716  -0.1 300.6   3.9   14.2    1.7 T__  11.7       2.0  0.57 a__ mbtmp  4.0 132073901
SDV    18.06  12.5 P        01:42:57.934   1.3 180.0 -12.5   20.2    9.3 T__   5.1       3.7  0.35 a__ mbtmp  4.4 132073897
PCRV   21.34  27.9 P        01:43:33.139   1.2 198.4  -9.5    6.4   -4.3 T__   1.8      10.5  0.88 ___ mbtmp  4.4 132175287
                                                                                        10.5  0.88     mb     3.9 
CPUP   23.83 138.9 P        01:43:56.356   0.3 315.0   1.3    8.6   -0.5 T__   3.4       0.7  0.39 a__ mbtmp  3.6 132073221
                                                                                         0.7  0.39     mb     3.3 
BDFB   26.76 107.1 P        01:44:22.292  -0.4 276.0  -5.4   19.3   10.4 T__   3.6       1.5  0.46 a__ mbtmp  4.1 132073209
                                                                                         1.5  0.46     mb     3.8 
TXAR   47.23 324.6 P        01:47:15.702   1.0 146.6  -0.1    7.4   -2.3 T__   6.7       0.2  0.41 a__ mbtmp  3.4 132073279
                                                                                         0.2  0.41     mb     3.0 
DBIC   71.14  79.8 P        01:49:58.847  -0.9 256.6  -1.7    8.5    2.5 T__   8.3       4.0  0.51 a__ mbtmp  4.7 132073224
                                                                                         4.0  0.51     mb     4.3 
TORD   78.79  74.7 P        01:50:42.525  -1.1 257.7  -0.3    3.5   -1.9 T__  30.5       1.2  0.38 a__ mbtmp  4.3 132073194
                                                                                         1.2  0.38     mb     3.9 
ESDC   81.01  47.5 P        01:50:55.467   0.3 258.5   6.2    6.4    0.4 T__   4.1       0.7  0.87 a__ mbtmp  3.8 132073255
                                                                                         0.7  0.87     mb     3.3 
QSPA   81.25 180.0 P        01:50:57.267   1.2 122.5 -18.0   13.2    7.9 T__   6.2       2.0  1.02 a__ mbtmp  4.2 132073918
                                                                                         2.0  1.02     mb     3.7 
ILAR   90.57 335.9 P        01:51:41.041  -0.5 100.0 -12.4    4.7    1.3 T__   2.8       0.2  0.67 ___ mbtmp  3.6 132175631
                                                                                         0.2  0.67     mb     3.2 



