EVENT  15760520 AFGHANISTAN-TAJIKISTAN BORD REG.
   Date       Time        Err   RMS Latitude Longitude  Smaj  Smin  Az Depth   Err Ndef Nsta Gap  mdist  Mdist Qual   Author      OrigID
2018/05/03 06:59:01.04   4.20  0.81  37.4571   71.9467  45.3  20.6 146  71.8  27.6   16   15 233   5.53  80.25 m i uk IDC_REB   15781312

Magnitude  Err Nsta Author      OrigID
mb     3.6 0.1    8 IDC_REB   15781312
mbtmp  3.9 0.1   15 IDC_REB   15781312

Sta     Dist  EvAz Phase        Time      TRes  Azim AzRes   Slow   SRes Def   SNR       Amp   Per Qual Magnitude    ArrID
AAK     5.53  19.9 P        07:00:22.594   1.7 173.5 -28.0    6.5   -7.2 T__  28.0       9.9  0.31 a__ mbtmp  4.2 132078493
AAK     5.53  19.9 S        07:01:23.219  -0.7 347.5 146.0   18.6   -5.9 T__   9.0       8.8  0.59 a__            132078498
GEYT   10.97 276.7 P        07:01:34.525  -0.6 107.2  18.9   12.6   -1.1 T__  10.4       3.6  0.36 a__ mbtmp  4.3 132077878
GEYT   10.97 276.7 S        07:03:29.712  -7.1 105.0  16.7   15.5   -8.9 ___   7.5       3.6  0.33 a__            132077881
MKAR   12.07  36.1 P        07:01:50.400   0.3 224.4   1.4   14.2    0.5 T__   5.9       0.7  0.57 a__ mbtmp  3.4 132077750
KURK   13.98  17.6 P        07:02:13.991  -1.6 202.9   0.7   13.0   -0.1 T__   1.8       0.2  0.30 ___ mbtmp  3.1 132175455
BVAR   15.61 356.5 P        07:02:34.700  -1.8 166.8  -8.6   12.2   -0.5 T__   8.1       1.4  0.46 a__ mbtmp  3.9 132078548
AKTO   16.36 326.9 P        07:02:46.400   0.3 132.7  -4.4   11.1   -1.4 T__  32.8      11.1  0.46 a__ mbtmp  4.8 132078535
ZALV   18.73  24.2 P        07:03:13.900   0.1 217.0   3.5   11.3    0.5 T__  12.1       2.7  0.48 a__ mbtmp  4.1 132077783
ARU    20.99 339.0 P        07:03:38.719   0.4 140.0  -9.1    9.6   -1.2 T__   5.4       2.8  0.40 a__ mbtmp  4.1 132078540
                                                                                         2.8  0.40     mb     3.7 
AKASG  32.95 307.5 P        07:05:29.061   0.5 105.3   8.3    9.2    0.5 T__   5.0       0.5  0.43 a__ mbtmp  3.8 132077853
                                                                                         0.5  0.43     mb     3.5 
FINES  37.12 325.1 P        07:06:04.206   0.0 118.7   1.9    8.5   -0.8 T__  11.6       0.6  0.30 a__ mbtmp  4.0 132077737
                                                                                         0.6  0.30     mb     3.7 
ARCES  40.56 336.9 P        07:06:33.054   0.3 109.4  -1.9    9.1    0.6 T__   8.0       5.2  1.05 a__ mbtmp  4.3 132077730
                                                                                         5.2  1.05     mb     4.0 
HFS    42.79 321.2 P        07:06:51.070  -0.0  99.2   4.1    9.3    1.2 T__  12.9       3.7  0.58 a__ mbtmp  4.4 132078553
                                                                                         3.7  0.58     mb     4.1 
NOA    44.08 322.4 P        07:07:01.481  -0.1  92.8  -1.9    7.8   -0.0 T__   4.0       1.0  0.61 a__ mbtmp  3.8 132077854
                                                                                         1.0  0.61     mb     3.5 
TORD   66.50 268.8 P        07:09:42.872  -0.5  31.1 -23.7    6.4    0.1 T__   2.4       0.3  0.60 ___ mbtmp  3.5 132175468
                                                                                         0.3  0.60     mb     3.2 
YKA    80.25   3.1 P        07:11:03.435  -0.1 348.7  -3.8    6.3    0.6 T__   8.8       0.2  0.57 a__ mbtmp  3.5 132077795
                                                                                         0.2  0.57     mb     3.2 



EVENT  15761715 SOUTHWESTERN SIBERIA, RUSSIA
   Date       Time        Err   RMS Latitude Longitude  Smaj  Smin  Az Depth   Err Ndef Nsta Gap  mdist  Mdist Qual   Author      OrigID
2018/05/03 07:46:45.62   2.56 21.81  53.6628   86.9103  23.8  14.9  69   0.0f         6    4 281   1.27   7.49 m i uk IDC_REB   15782721

Magnitude  Err Nsta Author      OrigID
ML     2.5 0.2    2 IDC_REB   15782721
mbtmp  2.7 0.1    2 IDC_REB   15782721

Sta     Dist  EvAz Phase        Time      TRes  Azim AzRes   Slow   SRes Def   SNR       Amp   Per Qual Magnitude    ArrID
ZALV    1.27 283.8 Pg       07:47:09.750  -0.2 101.3  -0.8   12.1   -2.6 TA_   9.6       0.9  0.33 a__            132078459
ZALV    1.27 283.8 Lg       07:47:27.200   0.5 104.3   2.1   27.7   -0.8 TA_   8.1       1.0  0.33 a__            132078460
I46RU   1.27 283.8 I        07:55:10.000  53.4 100.5  -1.7  339.0  -71.6 TA_   1.5       0.0  1.22 a__            132078733
KURK    5.99 242.8 Pn       07:48:15.095  -0.7  59.3   3.1   13.4   -0.4 TA_   2.1       0.1  0.33 ___ ML     2.3 132176221
                                                                                         0.2  0.28     mbtmp  2.7 
KURK    5.99 242.8 Lg       07:49:54.650  -1.3  60.7   4.5   34.1    2.3 TA_                       ___            132176229
MKAR    7.49 205.1 Pn       07:48:37.748   0.4  25.3   3.7   13.7   -0.0 TA_   8.0       0.1  0.33 a__ ML     2.7 132078431
                                                                                         0.2  0.30     mbtmp  2.8 



