EVENT  15775693 OFF COAST OF MEXICO
   Date       Time        Err   RMS Latitude Longitude  Smaj  Smin  Az Depth   Err Ndef Nsta Gap  mdist  Mdist Qual   Author      OrigID
2018/05/03 01:40:06.13  13.92  0.51   7.6169 -103.5883 452.3 110.2 113   0.0f         4    4 341  21.60  64.65 m i uk IDC_REB   15781175

Magnitude  Err Nsta Author      OrigID
mb     3.3 0.1    4 IDC_REB   15781175
mbtmp  3.3 0.1    4 IDC_REB   15781175
Ms     3.3 0.1   10 IDC_REB   15781175

Sta     Dist  EvAz Phase        Time      TRes  Azim AzRes   Slow   SRes Def   SNR       Amp   Per Qual Magnitude    ArrID
CMIG   12.68  41.2 LR       01:46:46.001  20.8 193.0 -30.1   31.5    1.6 ___           177.9 21.56 a__ Ms     3.4 132225167
JTS    18.60  80.4 LR       01:49:35.130  18.2 241.0 -22.3   30.6    1.0 ___            59.5 20.78 a__ Ms     3.1 132225168
TEIG   19.42  48.2 LR       01:51:01.267   8.9               33.7    0.5 ___           629.1 20.63 a__ Ms     4.1 132225171
TXAR   21.60 359.8 P        01:44:57.449  -0.4 183.4   6.9   13.5    0.8 TAS   6.0       0.7  0.92 a__ mbtmp  3.2 132073277
                                                                                         0.7  0.92     mb     3.0 
TXAR   21.60 359.8 LR       01:52:29.479  18.7 178.0  -1.8   34.4    0.9 ___           112.0 18.71 a__ Ms     3.5 132225173
ATAH   29.09 119.7 LR       01:55:51.641  56.6 358.1  58.3   32.5    1.9 ___            38.1 19.90 a__ Ms     3.1 132225166
TKL    33.29  30.2 LR       02:02:21.471  19.9 217.0  -0.7   40.1    0.6 ___            22.7 18.01 a__ Ms     3.0 132225172
RPN    34.98 189.0 LR       01:58:02.340  58.1 320.0 -50.0   30.8    1.7 ___            51.4 20.98 a__ Ms     3.3 132225169
PDAR   35.40 352.4 P        01:47:04.761   0.8 180.7  31.8    7.8   -1.8 T__   5.4       0.8  0.91 a__ mbtmp  3.6 132073291
                                                                                         0.8  0.91     mb     3.6 
SADO   42.67  25.8 LR       02:05:53.587 -33.3  69.5  -148   36.3   -0.8 ___            28.2 21.35 a__ Ms     3.1 132225170
ULM    42.98   7.3 LR       02:05:35.051 -14.3 107.0 -84.3   35.6   -0.3 ___            44.9 18.60 a__ Ms     3.4 132225174
PPT    51.87 240.7 LR       02:07:04.477 101.8 110.5  45.5   31.2    2.0 ___            28.1 18.95 a__ Ms     3.3 132225175
YKA    55.36 353.8 P        01:49:41.076  -0.5 165.7  -0.9    8.0    0.8 TAS   3.7       0.2  0.82 ___ mbtmp  3.1 132198809
                                                                                         0.2  0.82     mb     3.1 
ILAR   64.65 341.0 P        01:50:45.445  -0.0 136.0   4.8    7.4    0.9 TAS   4.3       0.4  0.95 a__ mbtmp  3.4 132073251
                                                                                         0.4  0.95     mb     3.4 



EVENT  15759761 TURKEY
   Date       Time        Err   RMS Latitude Longitude  Smaj  Smin  Az Depth   Err Ndef Nsta Gap  mdist  Mdist Qual   Author      OrigID
2018/05/03 02:04:32.37   0.60  0.95  39.9503   26.9036   9.7   8.5  47   0.0f        40   32  55   4.92  88.72 m i uk IDC_REB   15781177

Magnitude  Err Nsta Author      OrigID
ML     4.0 0.1   10 IDC_REB   15781177
mb     3.9 0.1   20 IDC_REB   15781177
mbtmp  4.0 0.1   30 IDC_REB   15781177
Ms     3.1 0.1   21 IDC_REB   15781177

Sta     Dist  EvAz Phase        Time      TRes  Azim AzRes   Slow   SRes Def   SNR       Amp   Per Qual Magnitude    ArrID
IDI     4.92 199.6 Pn       02:05:47.611  -0.0  20.4   2.0   13.9    0.1 T__  11.8       1.4  0.33 a__            132074529
IDI     4.92 199.6 Sn       02:06:45.056  -1.4 336.0 -42.3   19.9   -4.8 T__   5.2       3.7  0.33 a__            132074534
IDI     4.92 199.6 Lg       02:07:08.266  -0.5  35.5  17.2   17.4  -14.4 T__   2.7       3.1  0.33 ___            132178956
IDI     4.92 199.6 LR       02:07:58.692  10.7  22.0   3.6   41.9    2.2 ___             8.0 18.70 a__            132225294
BRTR    5.19  90.3 Pn       02:05:52.096  -1.0 265.1  -9.6   11.9   -1.8 T__ 104.2       2.8  0.33 a__ ML     3.7 132073455
                                                                                         8.6  0.46     mbtmp  3.9 
BRTR    5.19  90.3 Sn       02:06:50.629  -2.4 267.9  -6.7   15.9   -8.8 T__   8.8       3.0  0.33 a__            132073458
BRTR    5.19  90.3 Lg       02:07:19.079   1.7 269.7  -4.9   25.9   -5.8 T__   6.3       2.3  0.33 a__            132073459
MLR     5.58 353.0 Pn       02:05:58.378   0.9 186.0  13.6    5.4   -8.3 T__ 109.0       3.3  0.33 ___ ML     4.1 132178203
MLR     5.58 353.0 Sn       02:07:02.482   0.9 177.1   4.7   17.8   -6.9 T__   1.6       5.5  0.33 ___            132178927
MLR     5.58 353.0 Lg       02:07:31.691   1.8 187.1  14.7    8.1  -23.6 T__   4.8       5.8  0.33 a__            132074542
MMAI    9.73 132.7 Pn       02:06:53.607  -0.0 316.9  -0.9   12.4   -1.3 T__  14.0       1.7  0.33 a__ ML     4.1 132073930
                                                                                         7.9  0.61     mbtmp  4.3 
MMAI    9.73 132.7 LR       02:11:51.954  18.4 284.5 -33.3   45.2    1.9 ___            13.9 20.39 a__ Ms     2.2 132225282
AKASG  10.87   7.8 Pn       02:07:07.255  -0.9 191.9   2.4   13.0   -0.7 T__  20.8       3.6  0.33 a__ ML     4.5 132073616
                                                                                         2.7  0.38     mbtmp  4.1 
AKASG  10.87   7.8 Lg       02:10:15.976  -1.9 183.0  -6.5   28.4   -3.4 T__                       a__            132073618
AKASG  10.87   7.8 LR       02:11:49.917  28.0 183.0  -6.5   40.2    2.6 ___           166.3 21.32 a__ Ms     3.3 132225273
VRAC   11.88 325.3 Pn       02:07:22.804  -0.7 139.3   1.3   14.6    0.9 T__   6.0       0.3  0.33 a__ ML     4.0 132074493
                                                                                         2.7  0.62     mbtmp  4.0 
VRAC   11.88 325.3 Sn       02:09:33.475  -0.6 195.5  57.4   18.9   -5.6 T__   3.8       0.3  0.33 a__            132074498
VRAC   11.88 325.3 LR       02:12:31.963  -7.2 137.5  -0.6   40.4   -0.6 ___            60.3 19.19 a__ Ms     2.9 132225288
EIL    12.19 144.8 Pn       02:07:26.900  -0.4 346.4  17.0   15.1    1.4 T__   8.2       0.6  0.33 a__ ML     3.8 132074489
                                                                                         4.1  0.57     mbtmp  4.2 
EIL    12.19 144.8 LR       02:13:05.578 -14.8 282.0 -47.4   42.1   -1.2 ___            28.9 20.54 a__ Ms     2.6 132225276
KBZ    12.51  67.3 Pn       02:07:34.400   0.7 263.7   5.7    9.2   -4.5 T__   1.8       0.5  0.49 ___ mbtmp  3.4 132178202
KBZ    12.51  67.3 LR       02:12:57.085 -26.6 210.0 -47.9   40.3   -2.1 ___            27.7 18.72 a__ Ms     2.6 132225279
GERES  12.95 317.7 Pn       02:07:39.177   0.7 115.5 -13.0   11.4   -2.3 T__   4.2       0.2  0.33 a__ ML     3.8 132073472
                                                                                         1.1  0.67     mbtmp  3.6 
GERES  12.95 317.7 LR       02:13:03.456  -4.8 127.5  -0.9   39.5   -0.4 ___            96.8 18.44 a__ Ms     3.2 132225292
GNI    13.67  83.4 Pn       02:07:51.361   0.6 296.6  21.6    6.8   -6.9 T__   3.1       0.3  0.33 a__ ML     3.6 132074486
                                                                                         1.8  0.50     mbtmp  4.0 
DAVOX  14.13 304.5 Pn       02:07:56.825   3.0 159.0  46.2   13.7    0.1 ___   2.0       0.2  0.33 ___            132225270
DAVOX  14.13 304.5 LR       02:13:03.101 -48.1  88.0 -24.8   36.2   -3.4 ___            61.2 18.87 a__ Ms     3.0 132225291
OBN    16.49  19.9 Pn       02:08:21.585   1.4 208.9   1.9   19.0    6.3 T__   3.3       1.8  0.33 a__ ML     4.1 132074562
                                                                                         5.7  0.37     mbtmp  4.6 
BELG   18.91  42.0 P        02:08:52.758  -1.6 251.6  14.5    6.4   -4.8 T__   4.6       1.0  0.33 a__ ML     4.3 132074550
                                                                                        27.7  0.96     mbtmp  4.8 
FINES  21.53 358.9 P        02:09:21.715  -1.0 167.2   7.5    8.1   -2.9 T__  15.8       3.1  0.68 a__ mbtmp  3.9 132073465
                                                                                         3.1  0.68     mb     3.8 
FINES  21.53 358.9 LR       02:18:18.244  18.4 191.5  13.2   38.4    0.9 ___            75.7 20.34 a__ Ms     3.3 132225277
HFS    21.83 342.1 P        02:09:24.802  -1.3 162.8  11.0   15.1    4.3 T__   4.1       3.2  0.86 a__ mbtmp  3.8 132074240
                                                                                         3.2  0.86     mb     3.7 
HFS    21.83 342.1 LR       02:18:19.528 -37.2 172.5  20.7   37.9   -1.7 ___            58.7 19.64 a__ Ms     3.2 132225293
NOA    23.23 340.5 P        02:09:40.024  -0.9 146.9  -1.3   10.9    0.7 T__   8.1       2.7  0.83 a__ mbtmp  3.9 132073541
                                                                                         2.7  0.83     mb     3.8 
NOA    23.23 340.5 LR       02:20:44.075  55.6 150.0   1.8   41.8    2.4 ___            56.8 21.13 a__ Ms     3.2 132225283
KIRV   23.52  30.1 LR       02:20:12.599  38.4 223.4  -4.0   40.0    1.6 ___            39.5 18.32 a__ Ms     3.1 132225280
ESDC   23.66 279.3 P        02:09:45.417  -0.0  74.9   4.7   10.1    0.3 T__   6.5       0.7  0.68 a__ mbtmp  3.3 132073484
                                                                                         0.7  0.68     mb     3.3 
AKTO   24.13  53.9 P        02:09:49.093  -0.7 247.3  -9.0    9.6    0.3 T__   6.9       1.3  0.68 a__ mbtmp  3.7 132074553
                                                                                         1.3  0.68     mb     3.6 
EKA    25.17 317.7 P        02:09:58.907  -0.3 115.6   5.2    9.5    0.8 T__   6.9       3.8  0.74 ___ mbtmp  4.2 132178433
                                                                                         3.8  0.74     mb     4.2 
ARU    26.45  40.9 P        02:10:10.353  -0.4 247.4   2.5    9.3    0.3 T__  10.4       2.3  0.33 a__ mbtmp  4.4 132074558
                                                                                         2.3  0.33     mb     4.4 
ARU    26.45  40.9 LR       02:22:35.188  56.7 246.0   1.1   40.9    2.1 ___            44.2 19.02 a__ Ms     3.2 132225274
ARCES  29.66 359.0 P        02:10:39.441   0.2 158.8 -24.5    7.7   -0.4 T__   2.6       2.1  0.88 ___ mbtmp  4.1 132179136
                                                                                         2.1  0.88     mb     4.1 
WSAR   31.53 112.3 LR       02:28:00.928  66.6 143.5  -166   44.7    2.1 ___            43.5 18.07 a__ Ms     3.3 132225289
BVAR   32.15  51.4 P        02:11:01.690   0.2 251.0 -12.8   13.3    4.5 T__   1.8       0.9  0.69 ___ mbtmp  3.8 132178448
                                                                                         0.9  0.69     mb     3.8 
TORD   34.71 226.8 P        02:11:24.473   0.5  34.1  -1.0   10.0    1.4 T__  21.4       1.2  0.69 a__ mbtmp  3.9 132073710
                                                                                         1.2  0.69     mb     3.9 
AAK    35.49  69.8 LR       02:28:56.327 -14.0 301.0  18.9   41.3   -0.4 ___            24.1 18.25 a__ Ms     3.1 132225272
BORG   37.12 328.0 LR       02:27:42.356 -46.5 134.1  25.9   37.4   -1.3 ___            40.1 19.15 a__ Ms     3.3 132225275
KURK   37.15  55.8 P        02:11:45.072   0.5 277.9   4.1    8.8    0.3 T__   4.6       0.5  0.64 a__ mbtmp  3.5 132074248
                                                                                         0.5  0.64     mb     3.5 
MKAR   40.12  61.4 P        02:12:10.146   0.6 281.4   0.5    6.7   -1.6 T__   8.1       1.2  0.76 a__ mbtmp  3.8 132073689
                                                                                         1.2  0.76     mb     3.8 
ZALV   40.78  50.1 P        02:12:15.116   0.2 270.9  -3.4    9.7    1.4 T__  12.4       2.7  0.65 a__ mbtmp  4.2 132073752
                                                                                         2.7  0.65     mb     4.2 
ZALV   40.78  50.1 LR       02:30:51.691 -46.6  63.0 148.7   38.7   -1.1 ___            16.8 19.45 a__ Ms     2.9 132225290
DBIC   43.69 229.2 P        02:12:39.835   0.8  34.8  -1.0   13.6    5.6 T__   2.0       3.0  0.72 ___ mbtmp  4.2 132178463
                                                                                         3.0  0.72     mb     4.2 
SONM   55.45  53.5 P        02:14:09.703   1.0 290.4  -3.0    7.4    0.2 T__   7.4       1.3  0.72 a__ mbtmp  4.0 132073706
                                                                                         1.3  0.72     mb     4.0 
TIXI   56.21  21.9 LR       02:41:18.757 -14.8 310.0  14.8   39.2   -0.3 ___            56.9 18.82 a__ Ms     3.7 132225286
FRB    57.29 328.3 LR       02:40:47.418  16.2  74.0   8.6   38.0    0.3 ___            31.2 18.15 a__ Ms     3.4 132225278
RES    59.41 344.8 P        02:14:36.563   0.6  38.7 -10.7    6.5   -0.4 T__   4.8       1.3  0.99 a__ mbtmp  3.8 132078921
                                                                                         1.3  0.99     mb     3.8 
RES    59.41 344.8 LR       02:39:16.206 -63.0  19.5 -29.9   35.1   -1.1 ___            23.7 21.28 a__ Ms     3.2 132225284
TSUM   59.48 190.2 LR       02:40:14.374 -86.3  64.5  56.2   36.0   -1.5 ___            40.2 21.04 a__ Ms     3.5 132225287
SCHQ   60.48 318.4 P        02:14:44.231   0.5  76.0  14.1    4.2   -2.7 T__   1.9       3.1  1.00 ___ mbtmp  4.2 132178466
                                                                                         3.1  1.00     mb     4.2 
MA2    70.58  26.6 LR       02:49:11.694 -51.0 179.0  -138   38.0   -0.7 ___            18.1 18.06 a__ Ms     3.3 132225281
YKA    73.32 342.4 P        02:16:04.796  -0.6  45.5  15.5    5.6   -0.3 T__   2.7       0.1  0.68 ___ mbtmp  3.1 132178562
                                                                                         0.1  0.68     mb     3.1 
ULM    77.10 326.4 P        02:16:26.767  -0.6  45.4   3.9    5.9    0.3 T__   4.9       1.4  0.56 a__ mbtmp  4.2 132073696
                                                                                         1.4  0.56     mb     4.2 
PDAR   88.72 329.5 P        02:17:27.451  -0.5  35.0 -39.1    3.3   -0.5 T__   1.8       0.1  0.45 ___ mbtmp  3.5 132178658
                                                                                         0.1  0.45     mb     3.5 



EVENT  15759817 TURKEY
   Date       Time        Err   RMS Latitude Longitude  Smaj  Smin  Az Depth   Err Ndef Nsta Gap  mdist  Mdist Qual   Author      OrigID
2018/05/03 02:30:46.01   0.91  1.14  40.8618   31.7845  23.5   8.2  46   0.0f        12   10 104   1.82  73.51 m i uk IDC_REB   15781179

Magnitude  Err Nsta Author      OrigID
ML     3.9 0.2    2 IDC_REB   15781179
mb     3.3 0.1    7 IDC_REB   15781179
mbtmp  3.4 0.1    9 IDC_REB   15781179
Ms     3.4 0.3    1 IDC_REB   15781179

Sta     Dist  EvAz Phase        Time      TRes  Azim AzRes   Slow   SRes Def   SNR       Amp   Per Qual Magnitude    ArrID
BRTR    1.82 128.1 Pn       02:31:18.709  -1.0 301.0  -8.2   11.4   -2.4 T__ 129.4      27.7  0.33 a__            132073952
BRTR    1.82 128.1 Lg       02:31:46.580   2.9 303.6  -5.7   26.8   -5.5 T__  25.0      47.0  0.33 a__            132073953
MLR     6.30 319.2 Pn       02:32:20.861   0.1 128.3  -6.9   19.1    5.3 T__  11.2       0.9  0.33 a__ ML     3.7 132074839
                                                                                         2.2  0.35     mbtmp  3.6 
MLR     6.30 319.2 Sn       02:33:32.619   0.2 143.1   7.9   20.2   -4.5 T__   4.4       1.2  0.33 a__            132074844
AKASG  10.00 350.6 Pn       02:33:08.046  -0.7 164.8  -4.0   13.1   -0.6 T__   8.3       2.0  0.33 a__ ML     4.2 132074048
                                                                                         0.9  0.37     mbtmp  3.6 
AKTO   20.59  53.5 P        02:35:27.150   0.7 278.1  25.7    7.1   -3.7 T__   2.7       1.1  0.51 ___ mbtmp  3.6 132180893
                                                                                         1.1  0.51     mb     3.4 
FINES  20.90 352.3 P        02:35:30.972   1.3 166.9   9.9   12.8   -0.8 T__   4.3       0.7  0.52 a__ mbtmp  3.4 132073966
                                                                                         0.7  0.52     mb     3.2 
NOA    23.80 334.9 P        02:36:01.916   1.6 135.2  -3.5   10.1    0.4 T__   1.8       0.4  0.66 ___ mbtmp  3.2 132180951
                                                                                         0.4  0.66     mb     3.1 
KURK   33.55  57.1 P        02:37:27.660   0.4 279.1   7.6    9.4    0.7 T__   3.7       0.2  0.26 ___ mbtmp  3.5 132180967
                                                                                         0.2  0.26     mb     3.5 
MKAR   36.39  63.3 P        02:37:51.438  -0.4 270.0  -9.4    6.8   -1.8 T__   2.4       0.3  0.69 ___ mbtmp  3.3 132181054
                                                                                         0.3  0.69     mb     3.3 
TORD   38.13 232.3 P        02:38:07.239   0.4  37.7  -0.4    9.0    0.6 T__   2.9       0.4  0.60 ___ mbtmp  3.5 132181056
                                                                                         0.4  0.60     mb     3.5 
MBAR   41.28 181.6 LR       02:59:51.125 108.0 211.0  -150   42.3    2.6 ___            49.2 18.25 a__ Ms     3.4 132225374
YKA    73.51 344.5 P        02:42:19.612  -0.5  31.9   3.6    6.0    0.4 T__   3.0       0.3  0.89 ___ mbtmp  3.3 132181057
                                                                                         0.3  0.89     mb     3.3 



