EVENT  15760725 KURIL ISLANDS
   Date       Time        Err   RMS Latitude Longitude  Smaj  Smin  Az Depth   Err Ndef Nsta Gap  mdist  Mdist Qual   Author      OrigID
2018/05/03 07:55:32.27   1.70  0.81  46.6544  152.1319  13.7   8.8 158  78.2  14.1   52   47  83   7.18 152.27 m i uk IDC_REB   15781322

Magnitude  Err Nsta Author      OrigID
mb     4.0 0.1   34 IDC_REB   15781322
mbtmp  4.4 0.1   38 IDC_REB   15781322
Ms     3.6 0.0   45 IDC_REB   15781322

Sta     Dist  EvAz Phase        Time      TRes  Azim AzRes   Slow   SRes Def   SNR       Amp   Per Qual Magnitude    ArrID
JKA     7.18 252.8 P        07:57:16.325   1.8  85.1  19.1   15.2    1.6 T__  53.2     585.4  0.88 a__            132079734
JKA     7.18 252.8 S        07:58:35.000  -0.2 262.4  -164   31.8    7.3 T__   2.8     125.6  0.84 ___            132176848
JKA     7.18 252.8 LR       08:00:03.584   6.3   4.5 -61.5   37.8    0.9 ___           382.7 19.03 a__ Ms     3.5 132226193
PETK    7.39  27.0 P        07:57:16.725  -0.6 184.0  -5.1   10.7   -0.0 T__  63.1     120.6  0.59 a__ mbtmp  5.2 132078615
PETK    7.39  27.0 S        07:58:40.650   0.4 212.7   1.4   42.1   17.7 T__   1.3      25.0  0.79 ___            132178096
MA2    12.97 356.9 P        07:58:33.569   0.4 174.3  -1.5    9.3   -4.1 T__  77.6     121.0  0.55 a__            132079724
MA2    12.97 356.9 S        08:00:55.569  -0.5 130.9 -44.9   20.1   -4.2 T__   1.7       2.9  0.42 ___            132178641
MA2    12.97 356.9 LR       08:03:42.009  -2.6 156.5 -19.3   37.8   -0.2 ___           201.2 18.60 a__ Ms     3.5 132226198
KLR    13.91 288.1 P        07:58:47.550   1.9  98.6   5.7   15.2    2.2 T__  24.5      12.5  0.92 a__ mbtmp  4.6 132079726
KLR    13.91 288.1 LR       08:04:28.252  12.8  83.0 -10.0   38.5    0.9 ___           251.6 18.72 a__ Ms     3.6 132226196
USRK   14.35 267.5 P        07:58:51.225  -0.2  77.2   4.1   11.2   -1.8 T__  51.7      36.5  0.63 a__ mbtmp  5.2 132078710
MJAR   14.48 230.6 P        07:58:49.775  -3.5  25.4 -16.0   14.7    1.7 ___  27.3      10.8  0.62 a__            132078641
MJAR   14.48 230.6 S        08:01:31.450  -1.7 270.1  -131   38.8   14.6 ___   1.5       1.2  0.47 ___            132178216
MJAR   14.49 230.8 LR       08:04:58.083  39.4  46.0   4.5   39.0    2.7 ___           263.6 19.60 a__ Ms     3.7 132226218
SHEM   15.43  58.8 P        07:59:02.019  -3.2 303.7  48.1    3.6   -9.0 ___  20.8      48.0  0.39 a__            132079729
SHEM   15.43  58.8 S        08:01:42.969 -12.8 287.2  31.6   19.5   -4.7 ___   7.1      37.8  0.53 a__            132079731
SHEM   15.43  58.8 LR       08:04:08.620 -43.6 291.5  35.9   33.5   -2.8 ___           140.5 19.44 a__ Ms     3.4 132226209
SEY    16.31   0.4 P        07:59:17.325   1.1 174.9  -5.7   11.8   -0.7 T__  54.0      23.2  0.51 a__ mbtmp  5.1 132079745
SEY    16.31   0.4 LR       08:05:39.453   1.3 175.0  -5.6   37.2    0.1 ___           168.9 19.78 a__ Ms     3.5 132226207
YAK    20.04 328.3 P        07:59:59.469   0.8 132.6   2.7    2.1   -8.7 T__  17.3      97.3  0.69 a__ mbtmp  5.4 132079766
                                                                                        97.3  0.69     mb     5.0 
YAK    20.04 328.3 LR       08:07:43.833 -25.1 146.0  16.1   36.5   -1.3 ___           170.8 20.54 a__ Ms     3.6 132226214
KSRS   20.16 251.5 P        08:00:00.350   0.2  56.8   1.6   11.0    0.1 T__  35.0      28.0  0.85 a__ mbtmp  4.8 132078579
                                                                                        28.0  0.85     mb     4.3 
KSRS   20.16 251.5 LR       08:06:52.169 -20.0  50.0  -5.2   33.7   -1.0 ___           105.4 20.86 a__ Ms     3.4 132226221
JCJ    21.05 205.4 S        08:03:46.975 -13.5  90.0  70.6   13.1   -6.9 ___   2.2      33.2  0.61 ___            132178093
JNU    21.09 237.7 LR       08:09:38.946  66.5  14.5 -29.4   40.1    3.2 ___            96.3 19.09 a__ Ms     3.4 132226194
TIXI   27.36 344.2 LR       08:12:54.160   3.8 158.0  14.3   38.1    0.1 ___           124.6 18.60 a__ Ms     3.6 132226211
H11N2  29.46 150.8 T        08:32:43.890  15.7 339.7   0.6   75.3        ___  3736                 a__            132079495
H11N1  29.47 150.8 T        08:32:44.881  16.7 339.7   0.6   75.3        ___  3136                 a__            132079494
H11N3  29.47 150.8 T        08:32:45.045  16.8 339.7   0.7   75.3        ___  2720                 a__            132079496
H11S1  30.53 152.0 T        08:34:06.852  18.5 340.2   0.2   75.9        ___  2266                 a__            132079497
H11S3  30.54 152.0 T        08:34:08.296  19.9 340.2   0.2   75.9        ___  2135                 a__            132079500
H11S2  30.55 152.0 T        08:34:08.155  19.8 340.2   0.2   75.9        ___  1851                 a__            132079498
SONM   30.73 289.2 P        08:01:39.440  -0.4  68.1  -6.8    8.4   -0.4 T__  10.8       1.9  0.72 a__ mbtmp  4.1 132078819
                                                                                         1.9  0.72     mb     3.8 
SONM   30.73 289.2 LR       08:15:13.078  11.8  93.5  18.6   38.4    0.4 ___           146.3 18.45 a__ Ms     3.8 132226222
GUMO   33.52 192.9 LR       08:16:25.123 -56.5  49.0  39.9   37.4   -1.7 ___            27.4 18.56 a__ Ms     3.1 132226190
ILAR   37.04  38.5 P        08:02:33.204  -0.8 260.4  -3.1    6.5   -0.7 T__  20.4       1.8  0.66 a__ mbtmp  4.1 132078787
                                                                                         1.8  0.66     mb     3.8 
ILAR   37.04  38.5 LR       08:19:30.436  34.0 296.0  25.2   38.8    0.9 ___            69.5 18.86 a__ Ms     3.5 132226191
INK    42.09  32.3 LR       08:21:03.932 -40.0 288.0   9.7   36.4   -0.9 ___            42.3 21.18 a__ Ms     3.3 132226192
ZALV   42.12 305.6 P        08:03:14.822  -1.4  66.8  -4.6    8.1   -0.1 T__   4.2       1.1  0.58 a__ mbtmp  3.9 132078838
                                                                                         1.1  0.58     mb     3.6 
ZALV   42.12 305.6 ScP      08:08:54.166   1.9  93.4  22.0    7.4    3.4 T__   1.7       0.5  0.46 ___            132178670
DLBC   46.14  45.5 P        08:03:49.450   1.0 330.7  39.7    5.0   -2.9 T__   5.7       2.2  0.82 a__ mbtmp  4.1 132083771
                                                                                         2.2  0.82     mb     3.8 
DLBC   46.14  45.5 LR       08:26:13.354  58.9  60.0 129.0   39.9    1.3 ___            46.3 18.18 a__ Ms     3.5 132226181
MKAR   46.38 297.0 P        08:03:50.957   0.5  67.2   3.9    6.3   -1.5 T__  26.7       6.8  0.55 ___ mbtmp  4.7 132178092
                                                                                         6.8  0.55     mb     4.4 
MKAR   46.38 297.0 ScP      08:09:10.969   1.0  68.5   5.2    4.1   -0.1 T__   2.3       0.8  0.91 ___            132178669
MKAR   46.38 297.0 LR       08:24:39.467  14.8  62.5  -0.8   37.7    0.3 ___           142.8 19.02 a__ Ms     3.9 132226200
KURK   46.94 303.3 P        08:03:53.468  -1.2  69.4   4.6    8.3    0.6 T__  18.5       3.4  0.60 a__ mbtmp  4.4 132079790
                                                                                         3.4  0.60     mb     4.1 
KURK   46.94 303.3 LR       08:24:40.532  -5.4 174.0 109.3   37.2   -0.1 ___            84.0 20.15 a__ Ms     3.7 132226197
BBB    49.71  52.6 LR       08:24:11.145  41.1 274.0 -23.3   34.6    0.8 ___            18.9 21.05 a__ Ms     3.1 132226179
BVAR   50.40 309.1 P        08:04:21.064  -0.1  43.3 -19.0    8.6    1.1 T__   8.4       4.0  0.54 ___ mbtmp  4.5 132178095
                                                                                         4.0  0.54     mb     4.2 
YKA    51.40  36.4 P        08:04:27.996  -0.5 300.6  -0.6    7.6    0.4 T__  17.6       1.4  0.70 a__ mbtmp  4.0 132078858
                                                                                         1.4  0.70     mb     3.7 
CMAR   51.69 255.6 P        08:04:31.400   0.1  37.7   1.3    7.1   -0.2 T__  18.5       4.6  0.77 a__ mbtmp  4.5 132078772
                                                                                         4.6  0.77     mb     4.1 
SPITS  52.59 349.6 P        08:04:37.177   0.0  60.6  23.4    6.8   -0.6 T__   5.7       7.4  0.85 a__ mbtmp  4.6 132079804
                                                                                         7.4  0.85     mb     4.3 
AAK    53.27 295.9 P        08:04:42.619  -0.3  29.1 -28.0    8.7    1.3 T__   9.3       6.3  0.71 a__ mbtmp  4.6 132079742
                                                                                         6.3  0.71     mb     4.3 
AAK    53.27 295.9 LR       08:29:00.004  15.8  57.0  -0.1   37.7    0.3 ___            72.9 18.25 a__ Ms     3.7 132226170
ARU    54.62 317.2 P        08:04:52.919   0.6  58.4   1.0    2.4   -4.9 T__   5.4       3.6  0.35 a__ mbtmp  4.7 132080166
                                                                                         3.6  0.35     mb     4.4 
ARU    54.62 317.2 LR       08:30:42.967  10.7  93.0  35.5   38.6    0.2 ___            62.4 18.51 a__ Ms     3.7 132226175
ARCES  57.72 340.5 P        08:05:14.262   0.1  33.1  -3.9    7.5    0.1 T__   9.6       0.7  0.41 a__ mbtmp  4.0 132078784
                                                                                         0.7  0.41     mb     3.7 
NEW    57.77  52.2 LR       08:28:06.121  11.8 315.0   9.5   33.8    0.2 ___            15.0 21.79 a__ Ms     3.0 132226203
AKTO   58.28 311.4 P        08:05:20.225   1.8  74.4  20.6    4.1   -2.8 T__   1.9       2.4  0.59 ___ mbtmp  4.3 132178458
                                                                                         2.4  0.59     mb     4.0 
AKTO   58.28 311.4 LR       08:32:51.706  18.3 308.0  -106   38.4    0.3 ___           146.6 19.26 a__ Ms     4.1 132226172
YBH    58.38  61.1 P        08:05:20.168   0.8 294.0 -12.3   10.0    3.0 T__   2.0       1.0  0.84 ___ mbtmp  3.8 132178457
                                                                                         1.0  0.84     mb     3.5 
YBH    58.38  61.1 LR       08:29:11.659  -5.2 296.0 -10.3   34.6   -0.1 ___            21.2 18.74 a__ Ms     3.2 132226219
BELG   62.15 317.9 LR       08:35:02.097 -11.0  86.4  37.4   38.1   -0.2 ___            73.0 19.27 a__ Ms     3.8 132226180
NVAR   63.07  61.7 P        08:05:51.950   0.5 300.9   3.3    6.9    0.5 T__   9.4       1.1  0.71 a__ mbtmp  3.9 132078810
                                                                                         1.1  0.71     mb     3.6 
ELK    63.43  58.1 P        08:05:54.050   0.2        49.3               T__             0.6  0.77 ___ mbtmp  3.7 132178097
                                                                                         0.6  0.77     mb     3.3 
ELK    63.43  58.1 LR       08:30:39.949  15.3               33.2    0.2 ___            18.7 20.74 a__ Ms     3.2 132226184
FINES  63.83 334.4 LR       08:36:48.879 -26.8  41.5   3.1   38.8   -0.4 ___            70.7 18.12 a__ Ms     3.8 132226187
FINES  63.84 334.4 P        08:05:55.075  -0.7  40.0   1.4    6.7   -0.7 T__  23.3       2.1  0.44 a__ mbtmp  4.4 132078767
                                                                                         2.1  0.44     mb     4.1 
PDAR   65.35  53.3 P        08:06:06.350   0.0 310.8  -6.8    1.3   -2.3 T__  17.4       1.3  0.72 a__ mbtmp  4.0 132078804
                                                                                         1.3  0.72     mb     3.7 
SFJD   65.36   9.6 LR       08:35:02.471  48.7 341.5  -1.5   36.3    0.7 ___            56.7 21.34 a__ Ms     3.7 132226208
FRB    65.36  18.6 LR       08:35:51.460 -13.5 259.0 -71.4   37.0   -0.2 ___            41.8 21.84 a__ Ms     3.5 132226188
GEYT   66.07 300.3 P        08:06:10.925   0.1  20.1 -28.6    4.7   -1.7 T__   5.6       3.4  0.71 a__ mbtmp  4.4 132078909
                                                                                         3.4  0.71     mb     4.1 
ULM    67.03  40.3 P        08:06:17.850   1.2 319.1   3.0   20.1   13.7 T__   2.7       0.5  0.32 ___ mbtmp  3.9 132178094
                                                                                         0.5  0.32     mb     3.6 
PFO    67.34  64.7 LR       08:30:37.577  -110 304.5  -7.2   31.3   -1.6 ___            13.2 19.65 a__ Ms     3.1 132226205
NOA    68.10 340.7 P        08:06:22.750  -0.5  28.0  -0.3    6.4    0.1 T__  11.8       1.9  0.48 a__ mbtmp  4.4 132078891
                                                                                         1.9  0.48     mb     4.1 
NOA    68.10 340.7 LR       08:40:13.571  19.3  20.0  -7.9   39.4    0.3 ___            36.2 18.89 a__ Ms     3.6 132226204
HFS    68.31 339.1 P        08:06:23.895  -0.6  57.2  27.7    5.5   -0.8 T__  16.5       5.0  0.50 a__ mbtmp  4.8 132079798
                                                                                         5.0  0.50     mb     4.5 
HFS    68.31 339.1 LR       08:39:08.342 -34.0  20.5  -9.0   38.3   -0.5 ___            59.5 20.67 a__ Ms     3.7 132226217
DZM    69.61 165.8 LR       08:35:24.373  -152 358.5   9.0   34.4   -2.2 ___            41.8 18.09 a__ Ms     3.7 132226182
KBZ    70.44 313.4 P        08:06:39.500   1.4  70.1  26.4    3.8   -2.3 T__   6.4       5.0  0.88 a__ mbtmp  4.5 132078765
                                                                                         5.0  0.88     mb     4.2 
KBZ    70.44 313.4 LR       08:42:40.818  53.9  46.0   2.4   40.2    0.8 ___            91.0 18.12 a__ Ms     4.0 132226195
AKASG  71.25 325.7 P        08:06:42.875   0.2  32.9  -4.8    6.2    0.1 T__   9.4       2.5  0.53 a__ mbtmp  4.5 132078914
                                                                                         2.5  0.53     mb     4.1 
AKASG  71.25 325.7 LR       08:40:27.220 -40.2  44.5   6.9   37.8   -0.6 ___            62.1 19.50 a__ Ms     3.8 132226171
ASAR   71.91 197.6 P        08:06:46.650  -0.3  12.8   1.3    5.2   -0.3 T__  21.8       1.5  0.66 a__ mbtmp  4.2 132078754
                                                                                         1.5  0.66     mb     3.8 
GNI    72.07 309.8 LR       08:41:41.944 -19.6  59.5  15.8   38.4   -0.3 ___            77.7 19.78 a__ Ms     3.9 132226189
ANMO   72.46  57.6 LR       08:35:15.091 -48.2  53.0  98.1   32.9   -0.7 ___            14.3 21.36 a__ Ms     3.1 132226173
SCHQ   73.66  22.3 LR       08:43:30.542  27.8 223.5  -110   39.1    0.4 ___            27.2 20.00 a__ Ms     3.5 132226206
WSAR   75.78 288.7 LR       08:44:57.198  14.3  58.0  12.8   39.1    0.2 ___            39.5 19.96 a__ Ms     3.6 132226213
EKA    76.27 345.8 P        08:07:11.172  -0.9  18.5  -0.5    5.3    0.3 T__   5.4       1.5  0.58 a__ mbtmp  4.2 132097523
                                                                                         1.5  0.58     mb     3.9 
VRAC   76.92 331.9 LR       08:44:42.696  19.9  38.5   8.8   38.4    0.3 ___            48.4 21.12 a__ Ms     3.7 132226212
BRTR   77.99 316.1 P        08:07:22.310   0.1  43.0   4.8    3.0   -2.6 T__  11.5       2.5  0.76 a__ mbtmp  4.4 132078751
                                                                                         2.5  0.76     mb     4.0 
TXAR   78.13  59.9 P        08:07:22.750  -0.3 303.1   3.5    4.2    0.3 T__  35.8       2.8  0.61 a__ mbtmp  4.5 132078822
                                                                                         2.8  0.61     mb     4.2 
GERES  78.24 333.4 P        08:07:23.038  -0.3  40.0   9.0    6.4    0.1 T__   2.0       0.6  0.36 ___ mbtmp  4.1 132178199
                                                                                         0.6  0.36     mb     3.8 
GERES  78.24 333.4 LR       08:46:15.259  12.3  44.0  16.2   38.9    0.2 ___            43.8 19.52 a__ Ms     3.7 132226216
MMAI   82.37 310.8 P        08:07:45.475  -0.2  32.5  -5.9    5.4    0.2 T__   5.3       2.8  0.50 a__ mbtmp  4.6 132079787
                                                                                         2.8  0.50     mb     4.3 
MMAI   82.37 310.8 LR       08:48:50.515  -6.9 351.0 -47.4   38.8   -0.1 ___            53.3 19.47 a__ Ms     3.8 132226202
EIL    85.23 309.0 LR       08:49:16.495 -80.9  58.5  20.6   37.8   -0.9 ___            33.0 18.68 a__ Ms     3.7 132226183
ESDC   91.44 341.8 P        08:08:30.512   0.9  43.7  27.5    3.9   -0.7 T__   1.7       0.5  0.85 ___ mbtmp  3.9 132178459
                                                                                         0.5  0.85     mb     3.6 
ESDC   91.44 341.8 LR       08:53:50.231  -8.4 357.5 -18.7   38.3   -0.1 ___            35.4 20.93 a__ Ms     3.7 132226186
TEIG   94.03  54.9 LR       08:56:07.011  -4.8               38.7   -0.1 ___            74.3 18.08 a__ Ms     4.1 132226210
MDT    98.16 340.4 LR       09:00:58.681  91.7  34.0  18.0   40.0    0.9 ___            31.0 18.49 a__ Ms     3.7 132226199
TORD  114.82 328.0 PKP      08:14:03.599  -0.4   9.5 -12.5    2.1    0.2 T__   1.9       0.3  0.57 ___            132178200
VNDA  124.05 177.5 PKP      08:14:19.675   0.0 315.0 -36.9    4.3    2.4 T__   6.0       0.2  0.32 a__            132079097
QSPA  136.39 180.0 PKP      08:14:43.619   0.4  82.6  75.5    0.2   -1.7 T__  13.8       0.7  0.46 a__            132080716
H03N2 139.42  89.7 T        10:50:11.866   6.2 308.8   4.3   77.0        ___ 112.8                 a__            132082429
H03N3 139.43  89.7 T        10:50:12.724   7.1 308.8   4.2   77.0        ___ 149.6                 a__            132082432
H03N1 139.44  89.7 T        10:50:13.193   7.6 308.8   4.3   77.0        ___ 188.9                 a__            132082430
BDFB  144.81  35.2 PKP      08:15:00.460   0.6   0.0  24.3    4.0    2.3 T__   3.6       2.3  0.69 a__            132079027
PLCA  148.87  94.7 PKPbc    08:15:10.175   0.2 228.2 -67.2    3.4    0.8 T__   6.4       1.8  0.65 a__            132079073
CPUP  149.10  59.3 PKPbc    08:15:10.800  -0.0 304.6 -14.1    2.4   -0.3 T__   5.9       1.5  0.62 a__            132079035
SNAA  152.27 196.7 PKPbc    08:15:16.117  -1.3 183.3  42.1   10.5    8.1 T__   6.3       2.3  1.00 a__            132079783



