EVENT  1641386
   Date       Time       Latitude Longitude    Depth    Ndef Nsta Gap    Mag1  N    Mag2  N    Mag3  N  Author          ID
       rms   OT_Error      Smajor Sminor Az        Err   mdist  Mdist     Err        Err        Err     Quality

2003/04/02 07:56:31.4     15.2557  144.2434      0.0 f     5    5 168  mb 3.8  5  Ms 3.5  3             IDC_REB    1643170
      0.90   +-  1.29      40.6   28.8  108              36.31  81.67   +-0.4      +-0.1                m i uk

MARIANA ISLANDS REGION
Sta    Dist   EvAz     Phase       Date      Time     TRes  Azim  AzRes  Slow  SRes Def  SNR        Amp   Per   Mag1   Mag2 Arr ID
TGY    22.57 270.1 a   LR      2003/04/02 08:09:13.4 -12.6 197.1  112.9  33.8  -0.6               149.0 19.88 Ms 3.6 Ms 3.6 12387426
BJT    34.76 320.7 a   LR      2003/04/02 08:17:30.9  15.1  23.7 -103.5  36.2   0.4                63.3 18.88 Ms 3.4 Ms 3.4 12387424
WRA    36.31 195.9 m   P       2003/04/02 08:03:36.5  -0.3  13.1   -4.4   9.3   0.2 TAS   4.4       0.6  0.78 mb 3.5 mb 3.9 12384767
CMAR   43.39 280.8 a   P       2003/04/02 08:04:37.0   1.1  68.2   -8.1   6.9   0.1 TAS   4.5       1.5  0.35 mb 4.3 mb 4.6 12372703
CMAR   43.39 280.8 a   LR      2003/04/02 08:21:03.0 -79.2 155.0   67.9  33.9  -1.8                39.9 18.15 Ms 3.4 Ms 3.6 12387423
MKAR   59.88 315.5 a   P       2003/04/02 08:06:38.4  -0.7  93.0   -7.0   8.7   1.8 TAS   9.3       2.2  1.05 mb 4.0 mb 4.0 12372653
INK    73.07  22.6 a   P       2003/04/02 08:08:02.0  -1.0 243.3  -25.3   6.7   0.7 TAS   3.0       0.9  0.98 mb 3.8 mb 3.9 12376110
YKA    81.67  27.4 a   P       2003/04/02 08:08:52.5   1.1 289.4   -0.4   5.6   0.3 TAS   5.0       0.3  1.00 mb 3.4 mb 3.8 12372679



EVENT  1641387
   Date       Time       Latitude Longitude    Depth    Ndef Nsta Gap    Mag1  N    Mag2  N    Mag3  N  Author          ID
       rms   OT_Error      Smajor Sminor Az        Err   mdist  Mdist     Err        Err        Err     Quality

2003/04/02 08:04:03.1     25.1195  -45.5413      0.0 f    24   21 194  mb 4.6 18  Ms 4.4 11             IDC_REB    1643526
      0.74   +-  1.09      31.5   16.9    1              33.47 178.47   +-0.3      +-0.3                m i uk

NORTHERN MID-ATLANTIC RIDGE
Sta    Dist   EvAz     Phase       Date      Time     TRes  Azim  AzRes  Slow  SRes Def  SNR        Amp   Per   Mag1   Mag2 Arr ID
H05S1  17.88 236.3 a   T       2003/04/02 08:26:18.5  -3.5                                5.1                               12372848
SADO   33.47 314.4 m   P       2003/04/02 08:10:43.6  -0.3  76.3  -54.3   8.5  -0.2 T     2.9       2.6  0.66 mb 4.3 mb 4.2 12384143
ESDC   37.65  57.0 a   LR      2003/04/02 08:22:56.2   7.4 285.0   24.9  30.1   0.2               215.0 20.61 Ms 4.0 Ms 4.1 12387443
FRB    41.48 344.8 a   P       2003/04/02 08:11:51.0  -0.3 147.3   -0.4   7.2  -1.0 T    14.9      13.1  0.90 mb 4.8 mb 4.8 12374103
TXAR   51.41 288.4 a   P       2003/04/02 08:13:09.9  -0.2  95.0   -6.1   6.0  -1.8 T    20.9       2.8  0.92 mb 4.2 mb 4.7 12372712
TXAR   51.41 288.4 a   PcP     2003/04/02 08:14:24.2  -0.4 108.4  -17.1   3.0  -1.1 T     5.7       2.3  1.00               12372715
TXAR   51.41 288.4 a   LR      2003/04/02 08:35:29.4  87.0  15.0  -65.0  36.7   1.7               144.6 19.38 Ms 4.0 Ms 4.0 12387441
GERES  51.45  46.5 a   P       2003/04/02 08:13:09.8  -0.3 255.0   -3.1   5.6  -1.1 T    15.3       3.8  0.91 mb 4.3 mb 4.7 12372748
GERES  51.45  46.5 m   PcP     2003/04/02 08:14:24.8   0.4 260.4   -0.3   6.2   3.2 T     2.0       0.3  0.35               12384141
NOA    52.36  30.9 a   P       2003/04/02 08:13:17.0   0.4 253.7    0.5   7.8   0.3 T     8.0       5.1  0.93 mb 4.4 mb 4.6 12372815
NOA    52.36  30.9 a   LR      2003/04/02 08:31:25.2 -14.0 255.0    1.8  31.4  -0.3               191.8 19.63 Ms 4.1 Ms 4.2 12387438
HFS    53.30  32.4 a   P       2003/04/02 08:13:23.7   0.2 247.5   -8.7   3.4  -4.0 T     4.6       6.7  0.84 mb 4.6 mb 4.4 12374288
PDAR   54.68 305.8 a   P       2003/04/02 08:13:34.5   0.3  88.8  -15.7   7.3  -2.1 T    60.6      17.4  1.04 mb 4.9 mb 5.4 12372709
PDAR   54.68 305.8 a   LR      2003/04/02 08:36:16.9  34.9  86.5   -0.6  35.4   0.6               454.9 18.20 Ms 4.6 Ms 4.5 12387440
YKA    58.38 329.4 a   P       2003/04/02 08:13:59.7  -0.2  96.5   -0.8   7.7   0.2 T    51.1       5.9  0.89 mb 4.5 mb 4.9 12372792
YKA    58.38 329.4 a   LR      2003/04/02 08:38:30.6  48.6  95.0   -1.1  35.4   0.8               268.3 19.27 Ms 4.3 Ms 4.3 12387442
FINES  59.50  32.0 a   P       2003/04/02 08:14:07.2  -0.5 274.5    7.6   5.0  -2.0 T     5.3       3.8  0.88 mb 4.4 mb 4.4 12372730
FINES  59.50  32.0 a   LR      2003/04/02 08:36:59.7  20.1 221.6  -45.2  33.2   0.3               762.9 18.03 Ms 4.8 Ms 4.8 12387435
NEW    59.64 312.7 a   P       2003/04/02 08:14:09.9   0.9 113.7   28.3   5.0  -1.9 T    21.0      21.0  0.92 mb 5.1 mb 5.4 12376014
SPITS  59.93  12.1 a   P       2003/04/02 08:14:11.7   1.2 248.5    0.9   4.0  -2.8 T     2.7       7.3  1.05 mb 4.6 mb 4.4 12374189
ARCES  60.08  22.6 a   P       2003/04/02 08:14:11.8   0.2 260.4   -1.2   5.8  -1.1 T    13.4       6.7  0.77 mb 4.7 mb 4.8 12372773
ARCES  60.08  22.6 a   LR      2003/04/02 08:34:22.0   1.8 224.3  -37.3  30.3   0.0               127.5 21.61 Ms 4.0 Ms 4.0 12387428
NVAR   61.82 301.7 a   P       2003/04/02 08:14:25.3   1.1  88.6   -8.8   7.3   0.9 T     9.6       3.3  1.02 mb 4.3 mb 4.8 12372744
NVAR   61.82 301.7 a   LR      2003/04/02 08:39:12.4  14.2  85.0    5.8  34.1   0.2               775.8 20.92 Ms 4.8 Ms 4.8 12387439
DLBC   66.12 325.1 a   P       2003/04/02 08:14:51.7  -0.3  70.7   19.0   8.3   1.8 T     5.6      11.9  1.21 mb 4.8 mb 5.0 12376107
INK    66.18 336.0 a   P       2003/04/02 08:14:51.5  -0.6  83.9    1.9   6.0  -0.4 T    18.6       8.1  1.02 mb 4.7 mb 4.8 12376112
ILAR   72.24 333.8 m   P       2003/04/02 08:15:30.1   0.3  67.1   -1.7   4.2  -0.8 T     2.4      16.3  1.24 mb 4.9 mb 5.3 12384142
ILAR   72.24 333.8 a   LR      2003/04/02 08:47:42.1  70.8  85.6   16.6  36.3   1.0               422.8 18.05 Ms 4.7 Ms 4.8 12387436
KMBO   83.95  94.1 a   P       2003/04/02 08:16:37.5   1.5 302.4    7.1   6.8   1.7 T     5.6       2.1  0.74 mb 4.3 mb 4.3 12372707
KMBO   83.95  94.1 a   LR      2003/04/02 08:54:32.7  62.6 271.4  -23.8  36.1   0.7               313.5 18.77 Ms 4.6 Ms 4.6 12387444
MKAR   94.32  33.0 a   P       2003/04/02 08:17:23.9  -0.6 351.5   37.4   2.4  -2.2 T     6.0       1.9  1.18 mb 4.5 mb 4.3 12372733
MKAR   94.32  33.0 a   LR      2003/04/02 08:59:06.6  64.6 312.9   -1.2  35.0   0.7                88.0 19.05 Ms 4.1 Ms 4.1 12387437
CMAR  124.58  42.0 a   PKP     2003/04/02 08:23:04.5  -0.5 286.3  -27.6   3.9   0.4 T     8.5       1.1  0.35               12372914
WRA   174.85   1.2 a   PKP     2003/04/02 08:24:13.4  -1.8 318.4  -40.4   0.3   0.0 T     5.3       0.8  0.85               12372908
WRA   174.85   1.2 a   PKPab   2003/04/02 08:25:48.3  -1.0   1.9    5.3   5.2   0.6 T     7.5       1.0  0.89               12372909
ASAR  178.47  19.4 a   PKP     2003/04/02 08:24:15.0  -0.9  34.9   54.1   1.8   1.8 T     9.9       1.1  0.85               12372870
ASAR  178.47  19.4 a   PKPab   2003/04/02 08:26:05.8   0.5   9.5   30.3   4.9   0.9      10.3       1.9  1.00               12372871



EVENT  1643514
   Date       Time       Latitude Longitude    Depth    Ndef Nsta Gap    Mag1  N    Mag2  N    Mag3  N  Author          ID
       rms   OT_Error      Smajor Sminor Az        Err   mdist  Mdist     Err        Err        Err     Quality

2003/04/02 08:37:10.0     -7.4334  126.8599      0.0 f     3    3 182  ML 4.1  2  mb 3.2  1             IDC_REB    1643514
      1.28   +-  2.02     273.4   30.8   63              14.40  66.92   +-0.5      +-0.3                m i uk

BANDA SEA
Sta    Dist   EvAz     Phase       Date      Time     TRes  Azim  AzRes  Slow  SRes Def  SNR        Amp   Per   Mag1   Mag2 Arr ID
WRA    14.40 150.5 a   Pn      2003/04/02 08:40:33.4  -1.8 325.6   -3.1  13.7   0.1 TA   68.9       1.9  0.33 ML 4.4        12372981
WRA    14.40 150.5 a   Sn      2003/04/02 08:43:01.0 -16.1 327.3   -1.4  24.0  -0.3       4.7       0.6  0.33               12373075
ASAR   17.50 158.0 a   P       2003/04/02 08:41:16.9   1.2 338.2    2.0  12.1  -0.4 TAS  27.1       0.6  0.33 ML 3.7        12373048
ASAR   17.50 158.0 a   S       2003/04/02 08:44:22.4 -10.0 341.8    5.6  27.4   3.2       5.2       0.2  0.33               12373050
MKAR   66.92 328.4 m   P       2003/04/02 08:48:04.3  -0.0 128.7   -2.2   8.0   1.6 TAS   2.5       0.1  0.40 mb 3.2 mb 3.2 12386706



EVENT  1641444
   Date       Time       Latitude Longitude    Depth    Ndef Nsta Gap    Mag1  N    Mag2  N    Mag3  N  Author          ID
       rms   OT_Error      Smajor Sminor Az        Err   mdist  Mdist     Err        Err        Err     Quality

2003/04/02 08:41:14.9     14.2530 -103.2006      0.0 f     6    6 335  mb 4.0  5  Ms 3.9  5  ML 3.3  1  IDC_REB    1643092
      0.95   +-  6.66     144.8  103.7  113              15.01  58.56   +-0.3      +-0.2      +-0.3     m i uk

OFF COAST OF GUERRERO, MEXICO
Sta    Dist   EvAz     Phase       Date      Time     TRes  Azim  AzRes  Slow  SRes Def  SNR        Amp   Per   Mag1   Mag2 Arr ID
TXAR   15.01 358.4 a   Pn      2003/04/02 08:44:48.7  -1.9 184.1   10.0  11.6  -3.9 T    20.6       0.0  0.33 ML 3.3        12373011
TXAR   15.01 358.4 a   LR      2003/04/02 08:50:11.8 -15.4 155.0  -23.3  35.8  -1.0               263.1 21.66 Ms 3.6 Ms 3.6 12387450
NVAR   27.54 333.7 m   P       2003/04/02 08:47:04.2   0.5 162.3   18.1   8.1  -4.4 TA    3.5       1.1  1.00 mb 3.7 mb 4.2 12384461
PDAR   28.94 350.3 a   P       2003/04/02 08:47:17.0   0.8 176.0   24.9   9.7  -0.6 T     9.7       1.7  0.91 mb 4.0 mb 4.5 12373002
SADO   36.64  29.1 a   LR      2003/04/02 09:07:01.3  57.9  33.5  172.1  42.2   1.6                96.4 19.07 Ms 3.7 Ms 3.7 12387467
YKA    48.85 353.0 a   P       2003/04/02 08:50:01.8  -0.1 167.7    2.0   7.5   0.2 TAS  14.0       1.1  0.91 mb 3.8 mb 4.1 12373047
FRB    54.98  18.0 a   LR      2003/04/02 09:15:35.8 -40.7 119.5 -102.8  37.5  -0.7                96.8 19.20 Ms 3.9 Ms 3.9 12387465
INK    57.43 347.1 a   P       2003/04/02 08:51:05.4   0.4 143.1   -1.3   9.5   1.0 TAS   6.9       3.9  1.05 mb 4.3 mb 4.4 12374489
ILAR   58.56 339.7 a   P       2003/04/02 08:51:12.2  -0.9 159.0   -4.7   5.0  -0.4 TAS  11.0       3.0  0.96 mb 4.2 mb 4.6 12373226
NOA    88.93  26.3 a   LR      2003/04/02 09:34:34.5 -137. 175.0 -123.0  36.0  -1.5                68.1 18.12 Ms 4.0 Ms 4.1 12387449
ARCES  89.10  15.9 a   LR      2003/04/02 09:33:21.7 -176. 224.2  -86.7  35.1  -2.0               116.7 20.30 Ms 4.2 Ms 4.2 12387448



EVENT  1642274
   Date       Time       Latitude Longitude    Depth    Ndef Nsta Gap    Mag1  N    Mag2  N    Mag3  N  Author          ID
       rms   OT_Error      Smajor Sminor Az        Err   mdist  Mdist     Err        Err        Err     Quality

2003/04/02 08:59:12.6     35.3101  -35.6066      0.0 f     4    4 247  mb 3.5  4                        IDC_REB    1643266
      0.47   +-  3.86     119.8   40.9  172              54.40  81.07   +-0.4                           m i uk

NORTHERN MID-ATLANTIC RIDGE
Sta    Dist   EvAz     Phase       Date      Time     TRes  Azim  AzRes  Slow  SRes Def  SNR        Amp   Per   Mag1   Mag2 Arr ID
YKA    54.40 325.9 a   P       2003/04/02 09:08:41.2   0.4  79.2   -2.8   7.3   0.1 TAS   5.8       0.1  0.42 mb 2.9 mb 3.3 12373291
PDAR   56.23 301.6 a   P       2003/04/02 09:08:54.0  -0.8  69.4  -14.9   7.3  -0.0 TAS   3.5       1.0  1.10 mb 3.6 mb 4.1 12373255
TXAR   56.82 284.6 a   P       2003/04/02 09:08:59.3   0.3  87.4   -1.3   6.3  -1.1 TAS   5.7       0.5  0.78 mb 3.5 mb 4.0 12373264
MKAR   81.07  37.9 a   P       2003/04/02 09:11:29.5  -0.0 306.0   -7.0   4.7  -0.6 TAS   5.7       0.5  0.73 mb 3.7 mb 3.7 12373368



EVENT  1641491
   Date       Time       Latitude Longitude    Depth    Ndef Nsta Gap    Mag1  N    Mag2  N    Mag3  N  Author          ID
       rms   OT_Error      Smajor Sminor Az        Err   mdist  Mdist     Err        Err        Err     Quality

2003/04/02 09:18:08.7    -58.9947 -139.3041      0.0 f     8    7 229  mb 4.2  4  Ms 4.1  4             IDC_REB    1643533
      0.76   +-  2.85     232.1   31.6  154              57.80 152.58   +-0.5      +-0.3                m i uk

PACIFIC-ANTARCTIC RIDGE
Sta    Dist   EvAz     Phase       Date      Time     TRes  Azim  AzRes  Slow  SRes Def  SNR        Amp   Per   Mag1   Mag2 Arr ID
STKA   57.80 260.9 m   P       2003/04/02 09:28:01.9   0.4 117.9  -31.2  11.0   3.9 T     2.6       1.7  0.90 mb 4.0 mb 4.0 12384204
STKA   57.80 260.9 a   LR      2003/04/02 09:49:58.7 116.6 196.7   53.6  33.0   2.0               120.2 20.39 Ms 4.0 Ms 3.9 12387466
ASAR   68.40 259.9 a   P       2003/04/02 09:29:12.6   0.4 144.5    0.0   6.7   0.2 T    24.1       6.3  0.92 mb 4.6 mb 4.8 12373516
WRA    71.27 262.5 a   P       2003/04/02 09:29:29.5  -0.3 147.5   -1.8   5.2  -0.4 T    22.0       4.2  0.95 mb 4.4 mb 4.8 12373483
WRA    71.27 262.5 a   LR      2003/04/02 09:56:57.2  31.5 150.0    3.1  32.7   0.4                67.5 21.04 Ms 3.8 Ms 3.8 12387473
TXAR   92.85  30.6 a   P       2003/04/02 09:31:22.9   0.1 183.9   -8.7   9.8   3.2 T     4.1       0.1  0.52 mb 3.6 mb 4.0 12373568
TXAR   92.85  30.6 a   LR      2003/04/02 10:05:40.7  50.6 100.0  -97.6  30.7   0.5                68.5 18.79 Ms 4.0 Ms 4.0 12387464
NVAR   98.63  16.5 a   LR      2003/04/02 10:06:42.7  14.7 190.0   -0.8  29.5   0.1               204.8 19.72 Ms 4.5 Ms 4.6 12387463
YKA   122.64  13.3 a   PKP     2003/04/02 09:37:03.9  -0.5 224.9   31.5   1.6  -0.1 T     9.7       1.2  1.12               12373638
ILAR  123.58 356.1 a   PKP     2003/04/02 09:37:06.5   0.4 227.4   52.1   1.6  -0.3 T    57.1       6.8  0.89               12373616
MKAR  152.58 262.1 a   PKPbc   2003/04/02 09:38:06.7   0.7 124.5   -7.2   4.1   1.7 T    14.8       2.3  0.97               12373556
MKAR  152.58 262.1 a   PKPab   2003/04/02 09:38:14.4  -1.8 107.1  -24.6   5.4   1.1 T     9.5       2.2  0.75               12373557



EVENT  1641492
   Date       Time       Latitude Longitude    Depth    Ndef Nsta Gap    Mag1  N    Mag2  N    Mag3  N  Author          ID
       rms   OT_Error      Smajor Sminor Az        Err   mdist  Mdist     Err        Err        Err     Quality

2003/04/02 09:21:12.7    -16.5016 -169.8880      0.0 f     3    3 344  mb 4.0  3                        IDC_REB    1643221
      0.49   +- 52.91    1040.6  190.6   81              46.45  52.99   +-0.2                           m i uk

SAMOA ISLANDS REGION
Sta    Dist   EvAz     Phase       Date      Time     TRes  Azim  AzRes  Slow  SRes Def  SNR        Amp   Per   Mag1   Mag2 Arr ID
STKA   46.45 241.6 a   P       2003/04/02 09:29:42.1   0.7  85.3   -4.8   8.1  -0.2 TAS   5.1       0.6  0.34 mb 3.9 mb 3.9 12373436
WRA    52.89 257.3 a   P       2003/04/02 09:30:30.3  -0.5  97.7    2.0   6.9   0.0 TAS  16.5       0.7  0.54 mb 3.8 mb 4.2 12373488
ASAR   52.99 252.6 a   P       2003/04/02 09:30:31.6   0.1  92.4    3.0   7.3   0.2 TAS  14.4       2.0  0.66 mb 4.2 mb 4.4 12373519



EVENT  1641522
   Date       Time       Latitude Longitude    Depth    Ndef Nsta Gap    Mag1  N    Mag2  N    Mag3  N  Author          ID
       rms   OT_Error      Smajor Sminor Az        Err   mdist  Mdist     Err        Err        Err     Quality

2003/04/02 09:36:06.1     13.8900  145.1179      0.0 f     9    9 133  mb 3.8  9                        IDC_REB    1651535
      0.73   +-  0.78      44.6   18.3  107              35.25  86.54   +-0.3                           m i uk

MARIANA ISLANDS
Sta    Dist   EvAz     Phase       Date      Time     TRes  Azim  AzRes  Slow  SRes Def  SNR        Amp   Per   Mag1   Mag2 Arr ID
WRA    35.25 197.7 a   P       2003/04/02 09:43:03.1   0.5  18.8   -1.3   9.3  -0.0 T    24.0       1.4  0.58 mb 4.0 mb 4.4 12373729
ASAR   38.90 196.5 a   P       2003/04/02 09:43:32.8  -0.8  19.0    1.5  11.9   3.5 T     4.9       0.4  0.45 mb 3.5 mb 3.7 12373745
STKA   45.63 184.2 a   P       2003/04/02 09:44:28.0  -0.3  21.7   10.9   7.6  -0.4 T     2.9       0.7  0.77 mb 3.6 mb 3.6 12373677
MKAR   61.44 315.9 a   P       2003/04/02 09:46:24.8   0.3  88.8  -11.6   7.9   1.1 T     7.4       0.9  0.69 mb 3.8 mb 3.8 12373679
ILAR   68.19  25.3 a   P       2003/04/02 09:47:07.3  -0.9 252.2    0.9   5.7  -0.5 T    18.1       0.6  0.44 mb 3.9 mb 4.3 12373726
INK    74.00  22.5 a   P       2003/04/02 09:47:43.2  -0.1 252.1  -15.1   3.2  -2.7 T     4.0       0.2  0.50 mb 3.5 mb 3.6 12374918
YKA    82.48  27.4 a   P       2003/04/02 09:48:30.1  -0.3 287.0   -1.5   5.2  -0.0 T     8.2       0.2  0.38 mb 3.7 mb 4.0 12373712
NEW    84.85  41.7 m   P       2003/04/02 09:48:43.4   0.5 323.8   38.9   9.1   4.1 T     2.2       1.1  0.61 mb 4.2 mb 4.4 12384547
NVAR   86.54  51.4 a   P       2003/04/02 09:48:53.4   1.6 272.4   19.9   2.6  -1.6 T     4.2       0.8  0.60 mb 4.1 mb 4.6 12373718



EVENT  1643462
   Date       Time       Latitude Longitude    Depth    Ndef Nsta Gap    Mag1  N    Mag2  N    Mag3  N  Author          ID
       rms   OT_Error      Smajor Sminor Az        Err   mdist  Mdist     Err        Err        Err     Quality

2003/04/02 10:17:33.7    -59.5677  -27.5325      0.0 f     7    7 144  mb 4.4  2                        IDC_REB    1643537
      0.47   +-  1.23     181.7   51.4   63              95.68 152.21   +-0.0                           m i uk

SOUTH SANDWICH ISLANDS REGION
Sta    Dist   EvAz     Phase       Date      Time     TRes  Azim  AzRes  Slow  SRes Def  SNR        Amp   Per   Mag1   Mag2 Arr ID
ASAR   95.68 162.9 a   P       2003/04/02 10:31:01.5   0.5 189.4    0.0   3.5  -1.1 T     6.5       0.5  0.46 mb 4.4 mb 4.4 12374197
WRA    99.40 162.7 m   P       2003/04/02 10:31:16.9  -0.7 195.0    0.6   4.5   0.3 T     3.7       0.4  0.96 mb 4.4 mb 4.6 12386345
ARCES 134.27  23.1 a   PKP     2003/04/02 10:36:50.7  -0.4 214.8    0.2   2.3   0.4 T     6.4      12.3  1.22               12374159
MKAR  138.07  75.3 a   PKP     2003/04/02 10:36:59.6   0.8 242.0   16.2   2.8   1.0 T     3.6       0.2  0.58               12374194
YKA   138.61 315.5 a   PKP     2003/04/02 10:36:59.2  -0.1 127.9   -1.8   2.1   0.3 T     4.2       0.2  0.65               12374178
INK   148.34 317.1 a   PKPbc   2003/04/02 10:37:19.5   0.1 109.1   -2.1   1.4  -1.4 T    18.1       0.5  0.36               12375227
ILAR  152.21 306.8 a   PKPbc   2003/04/02 10:37:29.3  -0.1 151.3   43.4   3.6   1.3 T    14.2       0.3  0.37               12374208



EVENT  1641610
   Date       Time       Latitude Longitude    Depth    Ndef Nsta Gap    Mag1  N    Mag2  N    Mag3  N  Author          ID
       rms   OT_Error      Smajor Sminor Az        Err   mdist  Mdist     Err        Err        Err     Quality

2003/04/02 10:40:22.8    -16.7419  176.0329      0.0 f     3    3 339  mb 4.0  3                        IDC_REB    1643207
      0.26   +- 74.41    1298.6  152.2   74              34.64  40.02   +-0.5                           m i uk

FIJI ISLANDS REGION
Sta    Dist   EvAz     Phase       Date      Time     TRes  Azim  AzRes  Slow  SRes Def  SNR        Amp   Per   Mag1   Mag2 Arr ID
STKA   34.64 237.8 a   P       2003/04/02 10:47:13.5  -0.4  73.4    0.0   9.5   1.2 TAS   4.2       1.1  0.75 mb 3.8 mb 3.8 12374240
WRA    39.63 258.8 a   P       2003/04/02 10:47:56.7   0.2  83.5   -8.9   6.5  -1.9 TAS  37.6       0.3  0.28 mb 3.7 mb 4.0 12374294
ASAR   40.02 253.0 a   P       2003/04/02 10:47:59.8   0.1  79.9   -3.5   8.8   0.1 TAS  18.6       3.8  0.41 mb 4.6 mb 4.8 12374302



