EVENT  1641963
   Date       Time       Latitude Longitude    Depth    Ndef Nsta Gap    Mag1  N    Mag2  N    Mag3  N  Author          ID
       rms   OT_Error      Smajor Sminor Az        Err   mdist  Mdist     Err        Err        Err     Quality

2003/04/02 10:46:01.3    -12.4392  169.7241      0.0 f     3    3 336  mb 3.9  3                        IDC_REB    1643273
      0.92   +- 76.90    1308.0  121.5   63              32.29  35.74   +-0.3                           m i uk

SANTA CRUZ ISLANDS REGION
Sta    Dist   EvAz     Phase       Date      Time     TRes  Azim  AzRes  Slow  SRes Def  SNR        Amp   Per   Mag1   Mag2 Arr ID
STKA   32.29 228.7 a   P       2003/04/02 10:52:31.9  -0.1  51.2   -3.0   7.5  -0.2 TAS   8.5       1.5  0.65 mb 4.0 mb 4.0 12374322
WRA    34.74 253.0 a   P       2003/04/02 10:52:52.4  -1.1  85.1    0.1   8.6  -0.1 TAS  19.0       0.3  0.36 mb 3.6 mb 4.0 12374356
ASAR   35.74 246.7 a   P       2003/04/02 10:53:03.3   1.1  77.3    3.9   9.0   0.1 TAS  22.9       1.2  0.40 mb 4.1 mb 4.3 12374358



EVENT  1641660
   Date       Time       Latitude Longitude    Depth    Ndef Nsta Gap    Mag1  N    Mag2  N    Mag3  N  Author          ID
       rms   OT_Error      Smajor Sminor Az        Err   mdist  Mdist     Err        Err        Err     Quality

2003/04/02 11:12:58.7     59.1944   18.1284      0.0 f    11    4 238  ML 2.4  4                        IDC_REB    1643458
      1.09   +-  1.60      22.2    6.0  178               2.44  10.85   +-0.5                           m i uk

SWEDEN
Sta    Dist   EvAz     Phase       Date      Time     TRes  Azim  AzRes  Slow  SRes Def  SNR        Amp   Per   Mag1   Mag2 Arr ID
HFS     2.44 294.6 a   Pn      2003/04/02 11:13:39.9   0.4 110.7   -0.1  16.0   2.3 TA   16.0                               12375701
HFS     2.44 294.6 a   Lg      2003/04/02 11:14:13.9  -1.4 113.7    2.9  28.3  -3.3 TA   16.6                               12375703
NOA     3.92 301.1 m   Pn      2003/04/02 11:13:59.6  -0.4  98.6  -16.5  15.1   1.4 T     2.5       0.1  0.33 ML 2.4        12386316
NOA     3.92 301.1 m   Pg      2003/04/02 11:14:08.1  -1.1 117.5    2.4  13.1  -5.1 TA    2.2       0.2  0.33               12386314
NOA     3.92 301.1 m   Sn      2003/04/02 11:14:47.6   1.5 300.6 -174.5   5.3 -19.4 T     2.7       0.2  0.33               12386330
NOA     3.92 301.1 m   Lg      2003/04/02 11:15:02.4   0.4 123.1    7.9  17.4 -14.4 T     4.7       0.7  0.33               12386315
FINES   4.55  56.9 a   Pn      2003/04/02 11:14:08.4   0.1 241.2   -2.6  11.5  -2.2 TA    5.6                               12374477
FINES   4.55  56.9 a   Pg      2003/04/02 11:14:18.6  -1.8 245.5    1.7  16.4  -1.8 TA    5.3                               12374478
FINES   4.55  56.9 a   Sn      2003/04/02 11:15:01.4   0.1 246.9    3.1  21.5  -3.2 TA    8.6                               12374479
FINES   4.55  56.9 a   Lg      2003/04/02 11:15:20.1  -1.5 241.8   -2.0  25.4  -6.4 TA    8.6                               12374480
ARCES  10.85  13.9 a   Pn      2003/04/02 11:15:33.1   1.3 195.7   -4.9  12.6  -1.1 TA    4.2       0.1  0.33 ML 2.9        12374504



EVENT  1641657
   Date       Time       Latitude Longitude    Depth    Ndef Nsta Gap    Mag1  N    Mag2  N    Mag3  N  Author          ID
       rms   OT_Error      Smajor Sminor Az        Err   mdist  Mdist     Err        Err        Err     Quality

2003/04/02 11:14:51.4     31.5318  140.5136     65.8      16   10 119  mb 3.4  7                        IDC_REB    1643311
      1.00   +-  0.75      27.1    9.6   75    +-  7.3    1.69  94.08   +-0.2                           m i uk

SOUTH OF HONSHU, JAPAN
Sta    Dist   EvAz     Phase       Date      Time     TRes  Azim  AzRes  Slow  SRes Def  SNR        Amp   Per   Mag1   Mag2 Arr ID
JHJ     1.69 339.8 a   P       2003/04/02 11:15:17.0  -1.6 162.2    2.8   8.6  -5.4 T    17.5      42.9  0.33               12375665
JHJ     1.69 339.8 a   S       2003/04/02 11:15:34.9  -4.7  54.8 -104.6  21.8  -3.4      16.7     143.6  0.33               12375667
JCJ     4.65 161.3 m   P       2003/04/02 11:15:59.9   0.8 130.2  148.0  23.1   9.5 T     6.1       7.8  0.33               12385341
JCJ     4.65 161.3 m   S       2003/04/02 11:16:51.3  -1.1 286.1  -56.1  21.7  -2.9 T     4.4      12.1  0.33               12385340
MJAR    5.35 339.7 a   P       2003/04/02 11:16:10.2   1.5 221.0   62.6  11.2  -2.5 T    18.1       2.5  0.33               12374499
MJAR    5.35 339.7 m   S       2003/04/02 11:17:10.4   0.7 163.8    5.4  23.1  -1.5 T     2.8       0.4  0.33               12385338
MKAR   46.60 306.5 a   P       2003/04/02 11:23:12.5  -0.2  95.1    7.6   9.5   1.6 T     4.9       0.6  0.75 mb 3.3 mb 3.3 12374544
WRA    51.52 187.4 a   P       2003/04/02 11:23:50.2  -0.2   1.9   -3.8   7.6   0.0 T    15.0       0.4  0.37 mb 3.4 mb 3.8 12374586
WRA    51.52 187.4 a   PcP     2003/04/02 11:25:05.9   2.2   0.7   -3.8   4.2   0.3 T     5.8       0.4  0.50               12374588
ILAR   54.57  30.1 a   pP      2003/04/02 11:24:29.3  -0.2 273.9    4.7   6.5   0.2       5.9       0.5  0.65               12374574
ASAR   55.25 187.4 a   P       2003/04/02 11:24:17.7  -0.1  10.3    1.8   7.9   0.7 T     5.5       0.2  0.37 mb 3.2 mb 3.4 12374606
INK    59.64  25.5 m   P       2003/04/02 11:24:47.5  -0.6 236.0  -25.6   5.9  -1.2 T     2.9       0.7  0.99 mb 3.3 mb 3.4 12385339
INK    59.64  25.5 a   pP      2003/04/02 11:25:04.6  -0.8 311.3   32.1   5.8  -1.1 T     2.3       0.5  0.60               12375582
FINES  73.34 332.8 a   P       2003/04/02 11:26:15.2  -0.5  70.5    9.4   4.9  -0.8 T     6.7       0.6  0.50 mb 3.6 mb 3.6 12374559
FINES  73.34 332.8 a   pP      2003/04/02 11:26:33.4  -0.2  74.7   20.5   9.3   3.4 T     2.1       1.6  0.71               12374560
NOA    78.97 337.4 a   pP      2003/04/02 11:27:04.9  -0.8  42.3    0.2   5.7   0.2       3.9       2.4  0.95               12374612
PDAR   82.08  44.3 m   P       2003/04/02 11:27:04.9  -0.2 301.1   -4.4   1.8  -0.6 T     2.8       0.2  0.40 mb 3.2 mb 3.7 12385337
TXAR   94.08  52.0 a   P       2003/04/02 11:28:03.6   0.7 302.8    7.7   2.8  -0.3 T     8.4       0.4  0.56 mb 3.8 mb 4.3 12374540
TXAR   94.08  52.0 a   pP      2003/04/02 11:28:22.7   1.5 294.1    1.4   3.5   0.7 T    12.3       1.4  0.80               12374542



EVENT  1643578
   Date       Time       Latitude Longitude    Depth    Ndef Nsta Gap    Mag1  N    Mag2  N    Mag3  N  Author          ID
       rms   OT_Error      Smajor Sminor Az        Err   mdist  Mdist     Err        Err        Err     Quality

2003/04/02 11:36:05.2    -15.6227 -173.1983      0.0 f     3    3 343  mb 3.7  3                        IDC_REB    1643578
      0.69   +- 64.03    1223.6  197.4   79              44.09  50.23   +-0.4                           m i uk

TONGA ISLANDS
Sta    Dist   EvAz     Phase       Date      Time     TRes  Azim  AzRes  Slow  SRes Def  SNR        Amp   Per   Mag1   Mag2 Arr ID
STKA   44.09 240.2 a   P       2003/04/02 11:44:16.2   0.9 100.9    8.6  11.0   0.8 TAS   3.8       2.1  0.85 mb 4.0 mb 4.0 12374694
WRA    49.98 256.9 a   P       2003/04/02 11:45:00.8  -0.7  97.5    3.8   7.2   0.1 TAS   5.7       0.3  1.00 mb 3.2 mb 3.6 12374756
ASAR   50.23 252.1 a   P       2003/04/02 11:45:03.3  -0.0  89.8    3.7   8.1  -0.1 TAS   7.4       0.5  0.44 mb 3.7 mb 3.9 12374766



EVENT  1641787
   Date       Time       Latitude Longitude    Depth    Ndef Nsta Gap    Mag1  N    Mag2  N    Mag3  N  Author          ID
       rms   OT_Error      Smajor Sminor Az        Err   mdist  Mdist     Err        Err        Err     Quality

2003/04/02 12:40:45.4      0.4831  126.9195      0.0 f     4    4 192  mb 4.0  4  ML      0             IDC_REB    1643259
      0.11   +-  1.76     166.1   22.1   65              21.56  60.33   +-0.3                           m i uk

NORTHERN MOLUCCA SEA
Sta    Dist   EvAz     Phase       Date      Time     TRes  Azim  AzRes  Slow  SRes Def  SNR        Amp   Per   Mag1   Mag2 Arr ID
WRA    21.56 160.7 a   P       2003/04/02 12:45:36.8   0.2 339.4   -0.1  10.9  -0.3 TAS  65.2       2.3  0.53 mb 3.8 mb 4.3 12375220
ASAR   24.95 164.7 a   P       2003/04/02 12:46:10.6  -0.0 343.8    0.6   9.4   0.4 TAS  53.6       3.5  0.34 mb 4.5 mb 4.6 12375243
STKA   35.05 158.0 a   P       2003/04/02 12:47:39.9  -0.1 346.3    5.1   7.3  -0.6 TAS   4.4       1.1  0.69 mb 3.8 mb 3.8 12375194
MKAR   60.33 326.3 a   P       2003/04/02 12:50:56.1   0.0 119.9   -6.2   8.1   1.2 TAS  14.9       0.5  0.29 mb 3.9 mb 3.9 12375198



EVENT  1641788
   Date       Time       Latitude Longitude    Depth    Ndef Nsta Gap    Mag1  N    Mag2  N    Mag3  N  Author          ID
       rms   OT_Error      Smajor Sminor Az        Err   mdist  Mdist     Err        Err        Err     Quality

2003/04/02 12:46:07.7     14.0339  144.7149    243.8      18   17 132  mb 3.6 14                        IDC_REB    1643173
      1.07   +-  2.77      19.6    9.8   97    +- 27.1   13.21  91.76   +-0.3                           m i uk

MARIANA ISLANDS
Sta    Dist   EvAz     Phase       Date      Time     TRes  Azim  AzRes  Slow  SRes Def  SNR        Amp   Per   Mag1   Mag2 Arr ID
JCJ    13.21 350.1 m   P       2003/04/02 12:49:05.1  -1.3 303.7  134.5  16.3   4.0 T     3.8       7.6  0.33               12384796
JHJ    19.52 347.6 m   P       2003/04/02 12:50:15.2  -1.7 160.0   -5.6   5.3  -5.4 T     2.8       6.0  0.33               12384794
JOW    19.94 312.2 a   P       2003/04/02 12:50:21.2  -0.3 145.7   19.3  11.8   1.0 T    12.7       4.6  0.33               12376524
MJAR   23.16 346.6 a   P       2003/04/02 12:50:52.4  -0.3 174.1   10.3  11.0   1.9 T    11.5       5.0  0.54 mb 3.8 mb 4.0 12375211
JKA    30.03 357.0 m   P       2003/04/02 12:51:54.3   0.4 202.0    1.1   7.4  -1.4 T     3.4       3.6  0.80 mb 3.7 mb 3.5 12384795
WRA    35.27 197.1 a   P       2003/04/02 12:52:39.5  -0.1   8.8  -10.1   8.4  -0.6 T    99.7       2.7  0.30 mb 4.0 mb 4.3 12375309
BJT    36.00 321.4 a   P       2003/04/02 12:52:45.1  -0.4 101.6  -26.3  13.4   5.0 T     3.5       3.8  0.35 mb 4.1 mb 3.9 12376228
ASAR   38.93 195.9 a   P       2003/04/02 12:53:10.2  -0.0  20.7    3.8   6.5  -1.7 T     6.1       1.5  0.49 mb 3.5 mb 3.7 12375320
ASAR   38.93 195.9 a   S       2003/04/02 12:58:48.4  -2.6   6.8  -10.1  11.4  -3.5 T     4.2       0.5  0.60               12375323
HIA    40.68 334.9 a   P       2003/04/02 12:53:25.0   0.7 123.5  -17.6   6.5  -1.7 T    12.5       2.3  0.40 mb 3.8 mb 3.8 12376227
CMAR   44.08 282.1 a   P       2003/04/02 12:53:52.8   0.8  88.7    5.5   6.1  -0.2 T     5.8       0.6  0.52 mb 3.1 mb 3.4 12375367
STKA   45.74 183.7 a   P       2003/04/02 12:54:05.4   0.6  19.5    9.2   6.2  -1.6 T    12.2       2.2  0.44 mb 3.7 mb 3.8 12375261
MKAR   61.07 315.9 a   P       2003/04/02 12:55:57.2   1.3  93.8   -6.8   7.5   0.8 T     8.8       1.5  0.63 mb 3.5 mb 3.5 12375271
ILAR   68.23  25.4 a   P       2003/04/02 12:56:40.8  -1.1 250.6   -1.2   5.6  -0.5 T    16.9       0.6  0.44 mb 3.3 mb 3.7 12375347
YKA    82.54  27.4 a   P       2003/04/02 12:58:03.3   0.3 286.5   -2.4   5.1  -0.1 T     6.1       0.5  0.70 mb 3.2 mb 3.5 12375283
NVAR   86.76  51.3 a   P       2003/04/02 12:58:26.8   1.9 254.0  -17.9  10.4   5.3 T     5.3       0.8  0.65 mb 3.5 mb 4.0 12375273
FINES  90.70 335.1 a   P       2003/04/02 12:58:41.8  -0.8 116.3   57.9   1.3  -3.4 T     3.7       2.6  0.97 mb 4.0 mb 4.0 12375295
PDAR   91.76  45.2 m   P       2003/04/02 12:58:49.0   0.8 265.5  -12.1   4.8   2.7 T     2.9       0.4  0.90 mb 3.2 mb 3.7 12384797



EVENT  1641921
   Date       Time       Latitude Longitude    Depth    Ndef Nsta Gap    Mag1  N    Mag2  N    Mag3  N  Author          ID
       rms   OT_Error      Smajor Sminor Az        Err   mdist  Mdist     Err        Err        Err     Quality

2003/04/02 14:09:11.4     36.6823   70.7812      0.0 f     4    4 241  mb 3.6  3  ML 3.3  1             IDC_REB    1643555
      0.25   +-  2.32      88.9   41.7   73              13.25  82.24   +-0.2      +-0.3                m i uk

HINDU KUSH REGION, AFGHANISTAN
Sta    Dist   EvAz     Phase       Date      Time     TRes  Azim  AzRes  Slow  SRes Def  SNR        Amp   Per   Mag1   Mag2 Arr ID
MKAR   13.25  36.7 a   Pn      2003/04/02 14:12:21.0   0.2 222.9   -1.5  10.0  -3.7 TA    4.1       0.2  0.33 ML 3.3        12375999
INK    73.75   9.2 a   P       2003/04/02 14:20:46.6  -0.4   0.0   20.2   3.4  -2.5 TAS   5.8       0.7  1.08 mb 3.6 mb 3.8 12377087
YKA    81.07   2.5 a   P       2003/04/02 14:21:28.3   0.3 351.0   -1.3   5.5   0.0 TAS  10.8       0.4  0.45 mb 3.8 mb 4.1 12376076
WRA    82.24 121.8 a   P       2003/04/02 14:21:34.8  -0.0 320.7   -1.6   4.3  -0.5 TAS   5.4       0.3  0.90 mb 3.3 mb 3.7 12376083



EVENT  1641994
   Date       Time       Latitude Longitude    Depth    Ndef Nsta Gap    Mag1  N    Mag2  N    Mag3  N  Author          ID
       rms   OT_Error      Smajor Sminor Az        Err   mdist  Mdist     Err        Err        Err     Quality

2003/04/02 15:18:40.2     -7.3364  155.9967      0.0 f     9    8 179  mb 3.8  8  ML      0             IDC_REB    1643409
      0.55   +-  1.16      48.6   21.4  125              24.45  96.17   +-0.3                           m i uk

SOLOMON ISLANDS
Sta    Dist   EvAz     Phase       Date      Time     TRes  Azim  AzRes  Slow  SRes Def  SNR        Amp   Per   Mag1   Mag2 Arr ID
WRA    24.45 237.0 a   P       2003/04/02 15:24:00.5  -0.6  61.2   -1.8   9.5   0.3 T    11.2       1.7  0.96 mb 3.7 mb 4.0 12376612
WRA    24.45 237.0 a   PcP     2003/04/02 15:27:40.5   0.6  59.5   -1.6   2.7   0.5 T     7.0       0.5  1.05               12376616
ASAR   26.70 230.1 m   P       2003/04/02 15:24:20.9  -0.5  58.4   -6.6   9.7   1.0 T     2.9       0.5  1.00 mb 3.3 mb 3.5 12386033
STKA   27.86 206.9 a   P       2003/04/02 15:24:32.3   0.6  38.2    0.4   7.4  -1.5 T     3.9       1.4  0.68 mb 4.0 mb 4.0 12376589
CMAR   61.83 295.4 a   P       2003/04/02 15:29:02.0   0.4 115.0   -0.1   5.7   0.7 T     7.2       1.1  0.66 mb 4.0 mb 4.3 12376654
ILAR   83.33  21.2 a   P       2003/04/02 15:31:08.4  -0.4 247.2   14.7   5.5   0.5 T     6.6       0.3  0.62 mb 3.6 mb 4.0 12376673
MKAR   84.32 318.5 a   P       2003/04/02 15:31:14.4   0.1 104.5   -2.4   5.5   0.4 T    12.4       1.8  0.69 mb 4.3 mb 4.3 12376588
INK    89.69  20.5 m   P       2003/04/02 15:31:39.0  -0.8 266.1   16.9   6.2   1.5 T     4.8       0.7  0.81 mb 4.0 mb 4.1 12386032
YKA    96.17  27.8 m   P       2003/04/02 15:32:10.3   0.6 264.5   -3.8   5.3   0.7 T     4.1       0.1  0.41 mb 3.8 mb 4.0 12386031



EVENT  1642026
   Date       Time       Latitude Longitude    Depth    Ndef Nsta Gap    Mag1  N    Mag2  N    Mag3  N  Author          ID
       rms   OT_Error      Smajor Sminor Az        Err   mdist  Mdist     Err        Err        Err     Quality

2003/04/02 15:39:23.1     67.1061   20.7870      0.0 f     6    4 175  ML 2.2  3                        IDC_REB    1643419
      0.78   +-  0.82      17.9    7.1  113               3.00   7.67   +-0.2                           m i uk

SWEDEN
Sta    Dist   EvAz     Phase       Date      Time     TRes  Azim  AzRes  Slow  SRes Def  SNR        Amp   Per   Mag1   Mag2 Arr ID
ARCES   3.00  33.5 a   Pn      2003/04/02 15:40:11.3  -0.5 221.5    3.6  12.9  -0.9 TA   79.4       0.4  0.33 ML 2.2        12376687
ARCES   3.00  33.5 a   Sn      2003/04/02 15:40:49.2   1.0 221.4    3.5  21.2  -3.6 TA   10.6       0.8  0.33               12376690
FINES   6.13 155.5 a   Pn      2003/04/02 15:40:54.3   0.5 341.8    1.5  12.2  -1.5 TA    7.9                               12376746
FINES   6.13 155.5 a   Sn      2003/04/02 15:42:02.5  -1.4 345.9    5.6  17.3  -7.3 TA    9.7                               12376749
NOA     7.39 219.0 m   Pn      2003/04/02 15:41:10.5   0.0  49.3   18.9  12.2  -1.5 T     2.4                               12386149
HFS     7.67 207.6 m   Pn      2003/04/02 15:41:14.6   0.2  15.3   -5.9  13.2  -0.6 TA    4.3                               12386150



EVENT  1642024
   Date       Time       Latitude Longitude    Depth    Ndef Nsta Gap    Mag1  N    Mag2  N    Mag3  N  Author          ID
       rms   OT_Error      Smajor Sminor Az        Err   mdist  Mdist     Err        Err        Err     Quality

2003/04/02 15:55:26.1     43.4163   15.7339      0.0 f     4    3 285  ML 3.5  2  mb 3.5  1             IDC_REB    1643432
      1.02   +-  5.60      91.4   39.5   46               5.61  45.83   +-0.2      +-0.3                m i uk

ADRIATIC SEA
Sta    Dist   EvAz     Phase       Date      Time     TRes  Azim  AzRes  Slow  SRes Def  SNR        Amp   Per   Mag1   Mag2 Arr ID
GERES   5.61 346.1 a   Pn      2003/04/02 15:56:51.3   0.4 169.0    4.3  13.1  -0.6 TA   30.7       1.1  0.33 ML 3.6        12376826
GERES   5.61 346.1 a   Sn      2003/04/02 15:57:55.4  -1.9 163.8   -0.9  24.6  -0.1 TA   16.4       1.8  0.33               12376829
FINES  19.08  15.3 a   P       2003/04/02 15:59:50.6   0.6 199.1   -4.5  10.9  -0.2 TAS   4.3                               12376788
MKAR   45.83  61.5 a   P       2003/04/02 16:03:49.3  -0.3 300.4    9.2   6.6  -1.3 TAS   3.9       0.6  0.75 mb 3.5 mb 3.5 12376872



EVENT  1642046
   Date       Time       Latitude Longitude    Depth    Ndef Nsta Gap    Mag1  N    Mag2  N    Mag3  N  Author          ID
       rms   OT_Error      Smajor Sminor Az        Err   mdist  Mdist     Err        Err        Err     Quality

2003/04/02 15:57:01.5     -6.8795  128.5713     54.2       5    5 188  mb 3.7  3  ML 4.6  2             IDC_REB    1643448
      0.67   +-  9.56     142.9   27.3   56    +- 92.6   14.14  67.36   +-0.4      +-0.1                m i uk

BANDA SEA
Sta    Dist   EvAz     Phase       Date      Time     TRes  Azim  AzRes  Slow  SRes Def  SNR        Amp   Per   Mag1   Mag2 Arr ID
WRA    14.14 157.2 a   P       2003/04/02 16:00:18.5  -0.6 332.7    1.8  14.9   1.9 TAS 146.4       3.8  0.33 ML 4.7        12376852
WRA    14.14 157.2 a   S       2003/04/02 16:02:44.0 -11.3 331.4   -4.5  21.3  -2.9      11.8       4.5  0.33               12376900
ASAR   17.46 163.5 a   P       2003/04/02 16:01:02.7   1.2 337.7   -4.4  11.2  -1.2 TAS 144.3       3.6  0.33 ML 4.5        12376917
ASAR   17.46 163.5 a   S       2003/04/02 16:04:06.2  -9.5 347.3    5.2  25.5   1.4       8.5       1.0  0.33               12376920
STKA   27.68 155.6 a   P       2003/04/02 16:02:44.5  -0.1 347.7    9.1   7.3  -0.9 TAS  12.9       1.6  0.40 mb 4.0 mb 4.0 12376862
CMAR   38.58 311.2 a   P       2003/04/02 16:04:18.9  -0.5 143.5    2.9   7.3   0.3 TAS   5.2       0.6  0.78 mb 3.3 mb 3.6 12376926
MKAR   67.36 327.4 a   P       2003/04/02 16:07:51.4   0.3 128.5   -0.4   7.9   1.6 TAS   7.3       1.9  0.81 mb 3.9 mb 3.9 12376873



