EVENT  1642511
   Date       Time       Latitude Longitude    Depth    Ndef Nsta Gap    Mag1  N    Mag2  N    Mag3  N  Author          ID
       rms   OT_Error      Smajor Sminor Az        Err   mdist  Mdist     Err        Err        Err     Quality

2003/04/02 18:36:42.8     22.3596  142.9524      0.0 f     5    5 164  mb 3.6  5                        IDC_REB    1645320
      1.27   +-  1.13      45.0   26.4  101              42.88  82.49   +-0.3                           m i uk

VOLCANO ISLANDS REGION
Sta    Dist   EvAz     Phase       Date      Time     TRes  Azim  AzRes  Slow  SRes Def  SNR        Amp   Per   Mag1   Mag2 Arr ID
WRA    42.88 191.9 a   P       2003/04/02 18:44:43.0  -0.0   6.3   -4.5   7.8  -0.5 TAS  14.9       0.2  0.30 mb 3.5 mb 3.9 12378124
MKAR   54.09 312.3 a   P       2003/04/02 18:46:10.8   1.5  90.7   -4.3   8.6   1.3 TAS   9.6       0.7  0.70 mb 3.7 mb 3.7 12378084
ILAR   61.55  27.3 a   P       2003/04/02 18:47:02.5   1.1 264.4    3.2   5.4  -0.6 TAS   6.4       0.7  0.87 mb 3.6 mb 4.0 12378118
YKA    75.97  27.9 a   P       2003/04/02 18:48:30.5  -1.0 291.5   -2.8   6.0   0.2 TAS   5.7       0.1  0.30 mb 3.2 mb 3.6 12378098
FINES  82.49 334.4 a   P       2003/04/02 18:49:05.1  -2.0  34.6  -23.6   7.2   1.3 T     4.1       2.0  1.09 mb 4.1 mb 4.2 12378082



EVENT  1642236
   Date       Time       Latitude Longitude    Depth    Ndef Nsta Gap    Mag1  N    Mag2  N    Mag3  N  Author          ID
       rms   OT_Error      Smajor Sminor Az        Err   mdist  Mdist     Err        Err        Err     Quality

2003/04/02 19:08:37.7     24.1627  122.5851      0.0 f    28   25 100  mb 4.5 21  Ms 3.9  8  ML 4.4  4  IDC_REB    1645023
      0.73   +-  0.52      16.4   13.3   88               5.80  95.57   +-0.3      +-0.3      +-0.6     m i uk

TAIWAN REGION
Sta    Dist   EvAz     Phase       Date      Time     TRes  Azim  AzRes  Slow  SRes Def  SNR        Amp   Per   Mag1   Mag2 Arr ID
JOW     5.80  61.5 a   Pn      2003/04/02 19:10:07.2   2.1 245.0    1.0  13.3  -0.5 T    26.6      18.8  0.33 ML 4.3        12379472
JOW     5.80  61.5 m   Sn      2003/04/02 19:11:14.5   1.0                          T                                       12396286
TGY    10.13 189.1 a   Pn      2003/04/02 19:11:06.2   1.6 203.6 -165.0   8.6  -5.1 T     3.5                               12379249
TGY    10.13 189.1 a   LR      2003/04/02 19:15:00.6  27.5 283.4  -85.2  37.8   2.7               385.6 21.87 Ms 3.6 Ms 3.6 12423922
JNU    11.51  37.3 a   LR      2003/04/02 19:16:07.9  13.4 351.5  130.2  39.1   1.2               411.4 19.85 Ms 3.7 Ms 3.7 12423921
BJT    16.71 342.6 m   Pn      2003/04/02 19:12:34.2   1.0 317.9  158.7  33.0  20.1 T     1.7                               12396285
BJT    16.71 342.6 a   LR      2003/04/02 19:19:50.2  38.4 154.2   -5.0  40.2   2.3               482.1 19.89 Ms 4.0 Ms 3.9 12423901
JHJ    17.55  55.6 m   P       2003/04/02 19:12:47.0   3.2 247.7    3.8  21.5   9.0       2.0      23.6  0.33 ML 5.0        12396282
MJAR   18.25  43.8 m   P       2003/04/02 19:12:52.2  -0.2  84.3 -147.5  16.1   4.3 T     3.6       0.3  0.33 ML 3.8        12396281
CMAR   22.73 260.1 a   P       2003/04/02 19:13:41.8   0.3  62.3    2.7   7.1  -2.3 T    14.9       4.0  0.96 mb 3.8 mb 4.3 12378386
CMAR   22.73 260.1 a   PcP     2003/04/02 19:17:34.1   0.5  50.8   -7.1   1.8   1.3 T     6.1       1.0  0.72               12378393
CMAR   22.73 260.1 a   LR      2003/04/02 19:23:01.5  -0.3  50.0  -21.4  38.0  -0.0                93.5 19.61 Ms 3.4 Ms 3.6 12423899
HIA    25.16 355.6 a   P       2003/04/02 19:14:04.9   0.3 175.1   -3.3   7.5  -0.8 T    14.0       6.1  0.76 mb 4.4 mb 4.4 12379204
HIA    25.16 355.6 a   LR      2003/04/02 19:25:38.8  65.5 180.8    6.9  40.6   2.6               301.9 19.15 Ms 4.0 Ms 4.0 12423903
JKA    25.77  34.5 a   P       2003/04/02 19:14:09.7  -0.5 232.7  -18.3  10.8   1.7 T    15.0       3.2  0.32 mb 4.5 mb 4.3 12379359
MKAR   39.25 315.4 a   P       2003/04/02 19:16:08.7   0.9 100.6  -10.4   9.9   1.5 T   391.3      14.7  0.43 mb 5.2 mb 5.2 12378291
MKAR   39.25 315.4 m   PcP     2003/04/02 19:18:17.1   0.4 101.6   -9.3   2.7  -0.4 T     5.5       1.9  0.73               12396280
MKAR   39.25 315.4 a   LR      2003/04/02 19:34:12.3  23.3 109.5   -1.5  39.1   0.6               137.1 19.14 Ms 3.8 Ms 3.8 12423904
WRA    45.31 164.4 a   P       2003/04/02 19:16:56.8  -0.7 345.0   -0.6   8.9   0.3 T    57.9       8.7  0.80 mb 4.7 mb 5.0 12378340
ASAR   48.80 166.2 a   P       2003/04/02 19:17:24.6  -0.1 345.8   -1.3   6.6   0.3 T    34.8       3.9  0.53 mb 4.5 mb 4.7 12378349
STKA   58.61 161.1 a   P       2003/04/02 19:18:36.7   0.2   0.9   15.3   6.3  -0.7 T    10.5       3.6  0.65 mb 4.5 mb 4.5 12378280
ILAR   68.64  27.4 a   P       2003/04/02 19:19:42.2  -0.3 270.8  -11.1   4.8  -0.6 T    22.4       0.6  0.40 mb 3.9 mb 4.3 12378334
SPITS  69.78 347.8 a   P       2003/04/02 19:19:49.4   0.0  72.6    3.4   4.2  -1.9 T    34.6       4.8  0.46 mb 4.8 mb 4.6 12379402
ARCES  70.03 338.2 a   P       2003/04/02 19:19:51.0  -0.1  62.7  -16.5   7.7  -0.2 T    14.4       4.5  0.75 mb 4.6 mb 4.7 12378324
ARCES  70.03 338.2 a   LR      2003/04/02 19:58:03.3 191.2  32.0  -42.7  42.3   2.7               180.8 19.35 Ms 4.3 Ms 4.3 12423900
FINES  72.11 329.9 a   LR      2003/04/02 19:55:35.3  66.7 161.9   89.5  39.1   0.9              1237.9 18.87               12423902
FINES  72.11 329.9 a   P       2003/04/02 19:20:03.6  -0.1  60.0  -12.5   5.0  -1.0 T    25.7       2.7  0.41 mb 4.6 mb 4.6 12378316
INK    72.76  22.2 a   P       2003/04/02 19:20:07.4  -0.2 292.5  -13.6   6.2   1.2 T    13.7       4.2  0.89 mb 4.5 mb 4.6 12379387
EIL    76.51 296.6 m   P       2003/04/02 19:20:30.3   0.2  55.7  -14.2   5.9   0.2 T     3.4       4.0  0.91 mb 4.5 mb 4.4 12396283
MLR    77.58 314.3 m   P       2003/04/02 19:20:34.3  -1.7 273.0 -155.3  22.3  16.8 T     8.6       0.7  0.55 mb 3.9 mb 4.4 12396284
HFS    78.21 331.1 a   P       2003/04/02 19:20:38.8  -0.2  90.8   28.8   7.7   2.2 T    15.4       2.5  0.45 mb 4.6 mb 4.4 12379777
DLBC   78.31  30.8 a   P       2003/04/02 19:20:40.0   0.3 312.8   44.7  13.3   7.8 T     5.9       3.2  0.55 mb 4.6 mb 4.8 12379364
NOA    78.84 332.5 a   P       2003/04/02 19:20:42.3  -0.3  54.4   -4.8   5.6   0.1 T    10.8       8.6  1.06 mb 4.8 mb 5.0 12378357
NOA    78.84 332.5 a   LR      2003/04/02 19:59:20.2  55.5 335.0  -85.1  38.6   0.7               168.1 19.41 Ms 4.3 Ms 4.4 12423905
VRAC   81.78 320.5 a   P       2003/04/02 19:20:58.6   0.1  80.5   18.0   1.2  -4.0 T     3.8       3.4  0.86 mb 4.5 mb 4.7 12379393
YKA    82.49  23.2 a   P       2003/04/02 19:21:01.9  -0.1 310.5   -1.1   5.1  -0.0 T    79.4       2.4  0.55 mb 4.5 mb 4.9 12378424
GERES  83.67 321.0 a   P       2003/04/02 19:21:09.0   0.5  54.1   -4.8   4.4  -0.5 T    23.1       4.4  0.91 mb 4.6 mb 5.0 12378430
NVAR   95.57  43.6 a   P       2003/04/02 19:22:05.6   0.3 310.0   12.6   4.3   0.6 T     4.1       1.0  0.70 mb 4.6 mb 4.9 12378447



EVENT  1642277
   Date       Time       Latitude Longitude    Depth    Ndef Nsta Gap    Mag1  N    Mag2  N    Mag3  N  Author          ID
       rms   OT_Error      Smajor Sminor Az        Err   mdist  Mdist     Err        Err        Err     Quality

2003/04/02 19:43:55.2     18.7778 -108.1378      0.0 f     5    5 317  mb 3.7  4  Ms 3.5  2  ML      0  IDC_REB    1644875
      0.64   +-  7.67     133.2   69.1  151              11.27  52.72   +-0.3      +-0.3                m i uk

REVILLA GIGEDO ISLANDS REGION
Sta    Dist   EvAz     Phase       Date      Time     TRes  Azim  AzRes  Slow  SRes Def  SNR        Amp   Per   Mag1   Mag2 Arr ID
TXAR   11.27  20.4 a   Pn      2003/04/02 19:46:39.9   1.0 198.1    0.9  15.2  -0.2 TA    9.5                               12378596
NVAR   21.49 337.8 a   P       2003/04/02 19:48:45.2  -0.7 153.9   -4.6  11.7  -1.2 TAS   7.8       2.6  0.75 mb 3.7 mb 4.3 12378612
PDAR   23.94 357.4 a   P       2003/04/02 19:49:12.0   0.6 159.6   -1.3   8.4  -3.1 TA    4.6       0.8  0.97 mb 3.3 mb 3.7 12378577
YKA    43.91 355.7 a   P       2003/04/02 19:52:02.8  -0.5 170.1   -2.7   7.8   0.4 TAS  22.8       1.0  0.82 mb 3.7 mb 4.1 12378676
INK    52.03 348.3 a   LR      2003/04/02 20:15:21.9 -96.2 274.9  125.9  36.3  -1.8                73.1 18.42 Ms 3.7 Ms 3.7 12423940
ILAR   52.72 340.3 a   P       2003/04/02 19:53:11.5   0.2 154.3    3.6   6.3   0.0 TAS  21.7       1.9  0.86 mb 4.0 mb 4.4 12378659
ILAR   52.72 340.3 a   LR      2003/04/02 20:18:07.3  37.5 317.9 -173.9  38.9   0.7                22.8 18.18 Ms 3.2 Ms 3.3 12423934



EVENT  1642276
   Date       Time       Latitude Longitude    Depth    Ndef Nsta Gap    Mag1  N    Mag2  N    Mag3  N  Author          ID
       rms   OT_Error      Smajor Sminor Az        Err   mdist  Mdist     Err        Err        Err     Quality

2003/04/02 19:49:10.2      1.5106  124.6236    269.2      10    7 166  mb 3.8  7                        IDC_REB    1644867
      0.81   +-  3.19      86.3   10.6   67    +- 31.3   23.35  92.23   +-0.5                           m i uk

MINAHASSA PENINSULA, SULAWESI
Sta    Dist   EvAz     Phase       Date      Time     TRes  Azim  AzRes  Slow  SRes Def  SNR        Amp   Per   Mag1   Mag2 Arr ID
WRA    23.35 156.4 a   P       2003/04/02 19:53:54.6  -0.5 331.3   -3.6  10.9   1.4 T   153.7       7.9  0.40 mb 4.1 mb 4.5 12378690
WRA    23.35 156.4 m   S       2003/04/02 19:57:47.5  -0.9 333.7   -1.1  16.5   0.7 T     4.3       0.6  0.75               12395644
ASAR   26.60 160.7 a   P       2003/04/02 19:54:24.4   0.1 340.4    0.6   7.3  -0.1 T    11.4       1.6  0.66 mb 3.4 mb 3.6 12378698
ASAR   26.60 160.7 a   PcP     2003/04/02 19:57:42.7   2.0 348.2    5.4   2.1  -0.1 T     5.6       0.4  0.39               12378702
STKA   36.90 155.6 a   P       2003/04/02 19:55:53.9   0.5 338.3    4.2   6.2  -1.5 T     7.9       0.8  0.40 mb 3.3 mb 3.3 12378644
HIA    47.76 355.7 a   P       2003/04/02 19:57:20.1  -0.2 205.7   32.3   9.7   2.1 T     4.0       1.0  0.29 mb 3.6 mb 3.6 12379492
MKAR   58.21 327.0 a   P       2003/04/02 19:58:36.0  -0.5 123.9   -3.7   7.7   0.8 T   127.8       2.5  0.31 mb 4.0 mb 4.0 12378650
MKAR   58.21 327.0 a   PcP     2003/04/02 19:59:25.3   0.8 126.9   -0.7   4.2   0.2 T     7.3       1.2  0.60               12378651
ARCES  91.79 339.7 m   P       2003/04/02 20:01:46.6  -0.5  85.2   -0.5   6.6   0.4 T     2.9       1.9  0.87 mb 3.9 mb 4.0 12395645
SPITS  92.23 348.7 a   P       2003/04/02 20:01:49.2   0.1  97.5   25.7   0.7  -3.9 T     9.3      10.3  1.08 mb 4.6 mb 4.4 12379773



EVENT  1642294
   Date       Time       Latitude Longitude    Depth    Ndef Nsta Gap    Mag1  N    Mag2  N    Mag3  N  Author          ID
       rms   OT_Error      Smajor Sminor Az        Err   mdist  Mdist     Err        Err        Err     Quality

2003/04/02 19:54:30.6     23.3289  144.4424      0.0 f     4    4 166  mb 3.5  4                        IDC_REB    1644856
      0.16   +-  1.38      53.9   29.8   97              44.12  82.21   +-0.5                           m i uk

VOLCANO ISLANDS REGION
Sta    Dist   EvAz     Phase       Date      Time     TRes  Azim  AzRes  Slow  SRes Def  SNR        Amp   Per   Mag1   Mag2 Arr ID
WRA    44.12 193.7 a   P       2003/04/02 20:02:40.9   0.1  17.4    2.2   9.1   0.4 TAS   7.0       0.1  0.45 mb 3.1 mb 3.5 12378743
MKAR   54.47 311.7 a   P       2003/04/02 20:03:59.8  -0.0  91.7   -1.2   9.0   1.7 TAS   6.0       0.1  0.28 mb 3.2 mb 3.2 12378717
ILAR   60.06  27.4 a   P       2003/04/02 20:04:39.3   0.2 256.4   -3.9   5.1  -0.9 TAS   5.8       0.3  0.63 mb 3.4 mb 3.8 12378723
FINES  82.21 334.7 a   P       2003/04/02 20:06:53.2  -0.2  63.5    8.8   3.3  -1.9 TAS   6.8       1.2  0.67 mb 4.1 mb 4.1 12378714



EVENT  1642318
   Date       Time       Latitude Longitude    Depth    Ndef Nsta Gap    Mag1  N    Mag2  N    Mag3  N  Author          ID
       rms   OT_Error      Smajor Sminor Az        Err   mdist  Mdist     Err        Err        Err     Quality

2003/04/02 20:23:19.8     51.5171   16.0811      0.0 f    11    5 146  ML 3.0  5  mb      0             IDC_REB    1645339
      1.29   +-  1.27      24.3   10.3  100               2.24  18.62   +-0.5                           m i uk

POLAND
Sta    Dist   EvAz     Phase       Date      Time     TRes  Azim  AzRes  Slow  SRes Def  SNR        Amp   Per   Mag1   Mag2 Arr ID
VRAC    2.24 171.4 a   Pn      2003/04/02 20:23:57.5  -0.6 348.1   -3.7  15.3   1.5 TA   19.5       4.8  0.33 ML 3.3        12380174
VRAC    2.24 171.4 m   Pg      2003/04/02 20:24:01.7   1.1 344.7   -7.0  16.7  -1.6 T    19.3       4.8  0.33               12395374
VRAC    2.24 171.4 a   Lg      2003/04/02 20:24:30.2  -0.8  76.2   84.5  18.5 -13.2 T    10.5       7.9  0.33               12380177
GERES   3.08 210.7 a   Pn      2003/04/02 20:24:10.1   0.3  26.5   -3.0  12.3  -0.2 TA   18.8       0.6  0.33 ML 2.4        12378845
GERES   3.08 210.7 m   Pg      2003/04/02 20:24:17.8   1.7  32.5    3.7  17.3  -1.0 T    42.7       3.7  0.33               12395373
GERES   3.08 210.7 a   Sn      2003/04/02 20:24:46.4  -2.0  25.9   -3.0  19.7  -5.0 TA    8.2       2.6  0.33               12378846
GERES   3.08 210.7 a   Lg      2003/04/02 20:24:56.8  -1.0  32.8    3.9  26.7  -5.0 TA   14.2       8.6  0.33               12378848
HFS     8.74 352.1 m   Pn      2003/04/02 20:25:26.9   0.3 180.0    9.9  38.9  25.2 T     3.3                               12395375
FINES  11.36  25.0 a   Pn      2003/04/02 20:26:01.4   0.9 217.4    4.0  11.1  -2.6 TA    5.4                               12378841
FINES  11.36  25.0 a   Sn      2003/04/02 20:28:04.3  -2.0 206.9   -6.5  18.1  -6.5 TA    4.2                               12378843
ARCES  18.62  10.4 a   P       2003/04/02 20:27:36.6  -1.7 200.7    2.0  11.7   0.3 TAS   5.1       0.1  0.33 ML 3.3        12378864



EVENT  1643067
   Date       Time       Latitude Longitude    Depth    Ndef Nsta Gap    Mag1  N    Mag2  N    Mag3  N  Author          ID
       rms   OT_Error      Smajor Sminor Az        Err   mdist  Mdist     Err        Err        Err     Quality

2003/04/02 20:29:05.7     -6.9823  128.9799      0.0 f     3    3 191  ML 3.8  2  mb 3.4  1             IDC_REB    1645030
      0.07   +-  2.14     143.7   31.6   67              13.89  67.66   +-0.6      +-0.3                m i uk

BANDA SEA
Sta    Dist   EvAz     Phase       Date      Time     TRes  Azim  AzRes  Slow  SRes Def  SNR        Amp   Per   Mag1   Mag2 Arr ID
WRA    13.89 158.5 a   Pn      2003/04/02 20:32:24.0  -0.1 341.2    0.4  13.0  -0.6 TA   88.8       1.0  0.33 ML 4.1        12378970
WRA    13.89 158.5 a   Sn      2003/04/02 20:34:43.3 -17.2 332.6   -4.7  22.8  -1.6       8.2       1.2  0.33               12378973
ASAR   17.25 164.6 a   P       2003/04/02 20:33:08.3   0.1 334.8   -8.5   9.4  -3.2 TA   14.9       0.2  0.33 ML 3.2        12378949
ASAR   17.25 164.6 a   S       2003/04/02 20:36:08.6 -13.5 354.8   11.5  29.5   5.3       4.8       0.3  0.33               12378952
MKAR   67.66 327.3 a   P       2003/04/02 20:40:04.7   0.0 132.4    3.7   6.3  -0.1 TAS   6.1       0.2  0.45 mb 3.4 mb 3.4 12378959



EVENT  1642336
   Date       Time       Latitude Longitude    Depth    Ndef Nsta Gap    Mag1  N    Mag2  N    Mag3  N  Author          ID
       rms   OT_Error      Smajor Sminor Az        Err   mdist  Mdist     Err        Err        Err     Quality

2003/04/02 20:44:02.2     -5.8031  148.3203      0.0 f     3    3 330  mb 3.7  2  ML 3.5  1             IDC_REB    1645031
      1.06   +- 12.69     188.7   84.5   17              19.55  26.69   +-0.5      +-0.3                m i uk

NEW BRITAIN REGION, P.N.G.
Sta    Dist   EvAz     Phase       Date      Time     TRes  Azim  AzRes  Slow  SRes Def  SNR        Amp   Per   Mag1   Mag2 Arr ID
WRA    19.55 222.8 a   P       2003/04/02 20:48:30.4  -1.4  50.4    2.1  10.1  -0.4 TAS  10.8       0.1  0.33 ML 3.5        12379048
ASAR   22.54 216.5 a   P       2003/04/02 20:49:03.8  -0.2  49.0   -0.9   9.3  -0.2 TAS  17.1       0.6  0.49 mb 3.3 mb 3.6 12379051
STKA   26.69 192.8 a   P       2003/04/02 20:49:44.4   1.2 352.9  -28.1  11.4   2.4 TAS   3.6       3.3  1.20 mb 4.1 mb 4.1 12379023



EVENT  1642339
   Date       Time       Latitude Longitude    Depth    Ndef Nsta Gap    Mag1  N    Mag2  N    Mag3  N  Author          ID
       rms   OT_Error      Smajor Sminor Az        Err   mdist  Mdist     Err        Err        Err     Quality

2003/04/02 20:50:46.0     23.4192   94.8166    101.1       8    7 169  mb 3.7  6  Ms 3.1  1             IDC_REB    1645042
      1.03   +-  3.09      88.2   14.3   54    +- 29.8    6.26  61.05   +-0.2      +-0.2                m i uk

MYANMAR-INDIA BORDER REGION
Sta    Dist   EvAz     Phase       Date      Time     TRes  Azim  AzRes  Slow  SRes Def  SNR        Amp   Per   Mag1   Mag2 Arr ID
CMAR    6.26 141.2 a   P       2003/04/02 20:52:14.2  -1.7 310.3   -5.4  13.2   0.0 T    98.7       2.6  0.33               12379174
CMAR    6.26 141.2 a   S       2003/04/02 20:53:28.6   1.8 319.6   -0.3  24.2  -1.4 T     6.7       2.5  0.33               12379177
MKAR   25.41 339.7 a   P       2003/04/02 20:56:04.0  -0.1 149.6   -2.7  10.4   1.4 T    57.7       3.1  0.53 mb 4.0 mb 4.0 12379117
HIA    32.40  31.0 a   LR      2003/04/02 21:10:33.4 -49.4 234.4    8.2  36.6  -1.5                28.7 19.28 Ms 3.1 Ms 3.1 12423955
WRA    57.82 135.0 a   P       2003/04/02 21:00:26.9  -0.3 319.3    2.9   7.5   0.5 T    44.5       0.7  0.34 mb 3.7 mb 4.0 12379229
MLR    59.08 310.1 m   P       2003/04/02 21:00:35.7  -0.2 268.2 -178.9  23.3  16.4 T     2.4       1.1  1.12 mb 3.4 mb 3.9 12396378
FINES  59.56 328.7 a   P       2003/04/02 21:00:40.0   1.3  66.1  -30.7   3.7  -3.2 T     3.4       1.4  0.89 mb 3.6 mb 3.6 12379155
ASAR   60.27 138.3 a   P       2003/04/02 21:00:44.0   0.0 320.6    0.3   6.9   0.1 T    30.0       1.2  0.53 mb 3.8 mb 3.9 12379237
ARCES  61.05 337.9 a   P       2003/04/02 21:00:48.4  -0.3 110.2   15.2   6.7   0.4 T     5.0       2.5  0.81 mb 3.9 mb 4.0 12379166



