EVENT  15760791 MINDANAO, PHILIPPINE ISLANDS
   Date       Time        Err   RMS Latitude Longitude  Smaj  Smin  Az Depth   Err Ndef Nsta Gap  mdist  Mdist Qual   Author      OrigID
2018/05/03 08:20:09.18   1.40  1.12   5.9991  123.8724  18.3   8.2  70 571.2  16.8   29   22 116  21.14 164.42 m i uk IDC_REB   15774976

Magnitude  Err Nsta Author      OrigID
mb     3.4 0.1   19 IDC_REB   15774976
mbtmp  4.4 0.1   19 IDC_REB   15774976

Sta     Dist  EvAz Phase        Time      TRes  Azim AzRes   Slow   SRes Def   SNR       Amp   Per Qual Magnitude    ArrID
BATI   16.10 180.7 S        08:26:12.600   0.3 319.1 -41.7   20.1    3.2 ___   1.9      19.6  0.29 ___            132178449
JOW    21.14  11.0 P        08:24:14.575   0.1 199.7   7.4   15.0    6.0 T__   4.3       9.3  0.47 a__ mbtmp  4.6 132080565
                                                                                         9.3  0.47     mb     3.8 
CMAR   27.28 299.2 P        08:25:09.400   0.5 107.9  -5.5    6.9   -0.0 T__  30.9       6.0  0.72 a__ mbtmp  4.6 132079216
                                                                                         6.0  0.72     mb     3.5 
ASAR   31.07 162.0 P        08:25:42.000   0.4 340.3  -1.0    7.0   -0.1 T__  81.3       3.1  0.37 a__ mbtmp  4.6 132079199
                                                                                         3.1  0.37     mb     3.5 
ASAR   31.07 162.0 PcP      08:28:20.100   1.0 344.8   0.5    2.7    0.1 T__  13.0       1.5  0.41 a__            132079202
ASAR   31.07 162.0 S        08:30:07.200  -0.8 338.4  -2.0   15.6    0.3 T__  13.2       3.7  0.76 a__            132079203
ASAR   31.07 162.0 ScP      08:31:11.099   3.0 341.5  -2.8    3.7    0.5 T__   1.9       0.5  0.53 ___            132177013
KSRS   31.51   6.1 P        08:25:45.950   0.8 188.8   1.2    9.5    1.0 T__   5.1       1.9  0.77 a__ mbtmp  4.1 132079235
                                                                                         1.9  0.77     mb     2.9 
MJAR   33.11  21.5 P        08:25:57.188  -1.6 187.3 -19.6    9.7    1.3 T__   5.7       1.8  0.68 a__ mbtmp  4.1 132079252
                                                                                         1.8  0.68     mb     3.0 
USRK   38.71   9.3 P        08:26:45.325   0.6 188.0  -4.9    6.4   -1.6 T__   6.4       2.7  0.60 a__ mbtmp  4.3 132079319
                                                                                         2.7  0.60     mb     3.2 
STKA   41.28 156.9 P        08:27:05.575   0.1 339.5   6.8    8.0    0.1 T__  12.3       5.3  0.43 a__ mbtmp  4.7 132079246
                                                                                         5.3  0.43     mb     3.7 
SONM   44.28 343.2 P        08:27:28.720  -0.1 157.8   3.2    9.4    1.7 T__  19.5       5.0  0.81 a__ mbtmp  4.4 132079256
                                                                                         5.0  0.81     mb     3.4 
MKAR   54.08 325.7 P        08:28:41.325   0.4 119.9  -5.5    7.6    0.6 T__ 129.2       8.9  0.41 a__ mbtmp  5.0 132079232
                                                                                         8.9  0.41     mb     4.1 
MKAR   54.08 325.7 PcP      08:29:35.075  -1.4 116.5  -8.9    6.5    2.6 T__   4.9       1.3  0.44 a__            132079233
MKAR   54.08 325.7 ScP      08:32:41.825   1.8 118.2  -7.2    4.9    0.6 T__   8.7       2.1  0.78 a__            132079416
PETK   54.48  24.4 P        08:28:44.500   1.0 198.5  -1.9    3.9    0.6 T__   4.2       1.0  0.62 a__ mbtmp  3.9 132079250
                                                                                         1.0  0.62     mb     3.0 
PETK   54.48  24.4 PcP      08:29:38.156   0.3 129.8 -93.1    2.3   -1.6 T__   1.5       1.0  0.72 ___            132176866
ZALV   57.30 333.7 P        08:29:02.200  -0.7 131.2  -0.7    6.3   -0.5 T__   9.4       3.3  0.61 a__ mbtmp  4.4 132079268
                                                                                         3.3  0.61     mb     3.5 
KURK   58.31 327.8 P        08:29:09.875   0.0 127.1   3.3    6.3   -0.4 T__  64.4       9.6  0.71 a__ mbtmp  4.9 132080198
                                                                                         9.6  0.71     mb     3.9 
KURK   58.31 327.8 ScP      08:32:55.996  -2.5 109.9 -13.9    7.1    2.7 T__   1.3       0.1  0.25 ___            132177090
BVAR   63.88 327.3 P        08:29:46.100  -0.3 144.7  27.6   10.2    3.9 T__  14.4       5.2  0.98 a__ mbtmp  4.5 132080190
                                                                                         5.2  0.98     mb     3.6 
GEYT   67.26 308.6 P        08:30:09.000   1.2 158.6  58.1    4.3   -1.8 T__   4.2       0.9  0.29 a__ mbtmp  4.3 132079323
                                                                                         0.9  0.29     mb     3.4 
ILAR   84.29  25.5 P        08:31:40.650  -0.5 242.7 -24.7    5.7    0.9 T__   7.2       0.3  0.73 a__ mbtmp  3.5 132079402
                                                                                         0.3  0.73     mb     2.6 
VNDA   86.03 172.3 P        08:31:47.650  -1.5 308.3 -13.9    5.7    1.0 T__  13.1       5.8  1.23 a__ mbtmp  4.6 132079435
                                                                                         5.8  1.23     mb     3.8 
BRTR   86.39 309.4 P        08:31:50.500  -1.4 120.3  35.0    5.8    1.0 T__   3.7       0.7  0.45 a__ mbtmp  4.1 132079381
                                                                                         0.7  0.45     mb     3.3 
SPITS  87.71 348.6 P        08:31:56.886  -0.3 139.3  67.6    6.8    2.2 T__   4.7       1.4  0.50 a__ mbtmp  4.4 132080201
                                                                                         1.4  0.50     mb     3.6 
FINES  88.50 331.6 P        08:32:00.364  -0.7  73.1 -14.1    4.8    0.3 T__   3.4       0.7  0.49 a__ mbtmp  4.2 132079395
                                                                                         0.7  0.49     mb     3.3 
QSPA   95.89 180.0 P        08:32:37.194   2.4  51.4  72.5    1.7   -2.7 ___   2.1       1.1  0.90 ___            132176701
TORD  119.50 288.7 PKP      08:37:55.450   0.2  47.7 -27.6    2.1    0.2 T__   6.0       0.2  0.31 a__            132079453
PLCA  143.08 161.6 PKP      08:38:38.475  -0.0 233.5  29.1    3.4    1.7 T__   7.2       2.3  0.68 a__            132079413
LPAZ  164.42 132.0 PKPab    08:40:09.175   1.5 238.5   8.2    5.7    1.3 T__   4.2       0.9  0.67 a__            132079410



EVENT  15760860 CRETE
   Date       Time        Err   RMS Latitude Longitude  Smaj  Smin  Az Depth   Err Ndef Nsta Gap  mdist  Mdist Qual   Author      OrigID
2018/05/03 08:42:10.68   1.35  1.06  34.7313   25.7434  20.3  10.7  21  42.9  11.4   17   15  60   0.89 124.59 m i uk IDC_REB   15775124

Magnitude  Err Nsta Author      OrigID
ML     4.0 0.2    3 IDC_REB   15775124
mb     3.6 0.1   10 IDC_REB   15775124
mbtmp  3.8 0.1   13 IDC_REB   15775124
Ms     2.9 0.1    4 IDC_REB   15775124

Sta     Dist  EvAz Phase        Time      TRes  Azim AzRes   Slow   SRes Def   SNR       Amp   Per Qual Magnitude    ArrID
IDI     0.89 308.7 P        08:42:26.263  -0.7 127.7  -0.4   15.0    3.1 T__ 235.7       4.4  0.39 a__            132080916
IDI     0.89 308.7 S        08:42:39.538   0.1   6.1  -122   22.5    1.4 T__  17.2      10.3  0.37 ___            132178930
BRTR    8.03  49.3 P        08:44:13.150   8.4 227.8  -6.3   15.0    1.2 ___   6.6       1.1  0.76 a__            132079587
BRTR    8.03  49.3 LR       08:47:41.956  -0.2 221.5 -12.6   41.3   -0.0 ___            94.9 20.50 a__ Ms     2.9 132184156
MMAI    8.21  99.3 P        08:44:06.400  -0.9 267.9 -16.8   11.5   -2.2 T__   4.3       2.0  0.33 a__ ML     4.0 132080568
                                                                                         0.9  0.26     mbtmp  3.6 
MMAI    8.21  99.3 S        08:45:38.437  -1.1 306.0  21.3   24.8    0.2 T__   2.4       1.5  0.39 ___            132179096
EIL     9.29 120.4 P        08:44:22.045   0.1 246.0 -59.2   10.0   -3.7 T__   8.6       0.7  0.33 a__ ML     3.7 132080879
                                                                                         1.7  0.35     mbtmp  3.8 
EIL     9.29 120.4 S        08:45:58.950  -6.9 317.3  12.1   18.9   -5.7 ___   2.3       3.2  0.47 ___            132179110
KBZ    16.02  50.8 P        08:45:58.400   5.5 253.3  11.6   11.9   -0.8 ___  10.1       5.4  0.88 a__            132079604
AKASG  16.16   8.0 P        08:45:56.450   1.9 201.9  11.5   11.6   -1.0 T__   4.3       0.9  0.33 a__ ML     4.2 132079700
                                                                                         0.3  0.29     mbtmp  3.4 
AKASG  16.16   8.0 LR       08:52:42.693  -0.7 228.0  37.7   39.1   -0.0 ___            37.5 18.70 a__ Ms     2.9 132184155
ESDC   24.11 290.6 P        08:47:21.995  -0.4  77.6  -5.6   12.0    2.8 T__   2.3       0.2  0.30 ___ mbtmp  3.3 132178850
                                                                                         0.2  0.30     mb     3.1 
GEYT   26.20  73.5 P        08:47:44.740   3.4 251.3 -21.7    9.0   -0.1 ___   1.9       1.6  0.49 ___            132178851
FINES  26.73   0.4 P        08:47:43.800  -2.0 156.1 -10.8   10.6   -0.1 T__   4.7       2.5  0.91 a__ mbtmp  4.1 132079606
                                                                                         2.5  0.91     mb     3.8 
NOA    27.94 344.9 LR       08:59:37.544 -54.1 160.0   6.2   37.5   -1.9 ___            12.4 19.05 a__ Ms     2.6 132184160
EKA    28.67 324.9 P        08:48:05.025   1.9 128.4   2.5    9.1    0.6 T__   3.4       0.2  0.33 a__ mbtmp  3.6 132097532
                                                                                         0.2  0.33     mb     3.3 
TORD   30.59 231.3 P        08:48:20.691   0.2  37.4  -3.9    9.1    0.3 T__   8.3       0.5  0.48 a__ mbtmp  3.7 132079645
                                                                                         0.5  0.48     mb     3.5 
ARCES  34.86 359.9 P        08:48:55.625  -1.6 191.1   8.5    8.9   -0.3 T__   5.4       2.8  0.94 a__ mbtmp  4.1 132079600
                                                                                         2.8  0.94     mb     3.9 
BVAR   36.30  45.8 LR       09:06:47.771 -45.9 283.2  25.4   40.7   -1.3 ___            21.1 19.59 a__ Ms     3.0 132184157
KURK   41.02  50.6 P        08:49:50.450   1.1 275.0   7.0    8.7    0.5 T__   9.0       0.8  0.40 a__ mbtmp  3.9 132080572
                                                                                         0.8  0.40     mb     3.7 
MKAR   43.61  56.2 P        08:50:11.525   1.0 280.7   5.7    6.6   -1.4 T__  12.6       1.3  0.56 a__ mbtmp  4.0 132079618
                                                                                         1.3  0.56     mb     3.8 
ZALV   44.96  45.9 P        08:50:21.350   0.2 265.6  -3.9    7.9   -0.0 T__   5.0       0.9  0.41 a__ mbtmp  4.0 132079653
                                                                                         0.9  0.41     mb     3.8 
SCHQ   63.82 319.9 P        08:52:38.075  -0.2  67.6   1.1    4.4   -2.2 T__  14.0       1.6  0.38 a__ mbtmp  4.4 132079891
                                                                                         1.6  0.38     mb     4.1 
YKA    78.00 342.4 P        08:54:03.700  -0.5  27.1  -7.1    5.3   -0.4 T__   9.0       0.2  0.56 a__ mbtmp  3.5 132079929
                                                                                         0.2  0.56     mb     3.2 
QSPA  124.59 179.9 PKP      09:01:04.394   0.2 289.1  48.3    3.0    1.1 T__   5.4       0.5  0.90 a__            132080931
PPT   162.42 345.1 PKPab    09:02:50.860  -4.5 344.0 -28.9    3.5   -0.8 ___   3.4      18.7  0.90 ___            132178929



EVENT  15775580 SOUTHWESTERN SIBERIA, RUSSIA
   Date       Time        Err   RMS Latitude Longitude  Smaj  Smin  Az Depth   Err Ndef Nsta Gap  mdist  Mdist Qual   Author      OrigID
2018/05/03 09:00:21.71   3.24  6.48  53.5823   87.8739  30.1  18.1  61   0.0f         6    4 287   1.85   7.68 m i uk IDC_REB   15779115

Magnitude  Err Nsta Author      OrigID
ML     2.7 0.1    2 IDC_REB   15779115
mbtmp  3.0 0.2    2 IDC_REB   15779115

Sta     Dist  EvAz Phase        Time      TRes  Azim AzRes   Slow   SRes Def   SNR       Amp   Per Qual Magnitude    ArrID
ZALV    1.85 282.6 Pn       09:00:54.650  -0.0  99.5  -0.7   15.8    2.1 TA_  13.0       1.4  0.33 a__            132079922
ZALV    1.85 282.6 Lg       09:01:19.900  -0.5 105.0   4.8   28.0   -4.4 TA_   8.2       1.8  0.33 a__            132080085
I46RU   1.85 282.7 I        09:12:10.000  15.8  98.6  -1.6  333.3  -81.1 TA_   2.6       0.1  0.70 a__            132080611
KURK    6.47 246.5 Pn       09:01:58.950   0.4  61.3   2.2   13.9    0.2 TA_   5.2       0.1  0.33 a__ ML     2.6 132080954
                                                                                         0.8  0.33     mbtmp  3.2 
MKAR    7.68 210.0 Pn       09:02:15.532  -0.4  30.1   4.3   14.7    0.9 TA_   2.4       0.1  0.33 ___ ML     2.7 132183355
                                                                                         0.2  0.31     mbtmp  2.8 
MKAR    7.68 210.0 Lg       09:04:27.502   1.7  26.8   1.1   29.1   -2.7 TA_   2.4       0.1  0.33 ___            132183359



EVENT  15760931 SOUTHWESTERN SIBERIA, RUSSIA
   Date       Time        Err   RMS Latitude Longitude  Smaj  Smin  Az Depth   Err Ndef Nsta Gap  mdist  Mdist Qual   Author      OrigID
2018/05/03 09:04:29.46   2.71 39.36  54.0038   86.5112  22.1  13.2  61   0.0f         5    4 295   1.00   7.70 m i uk IDC_REB   15779129

Magnitude  Err Nsta Author      OrigID
ML     2.5 0.2    2 IDC_REB   15779129
mbtmp  2.8 0.0    2 IDC_REB   15779129

Sta     Dist  EvAz Phase        Time      TRes  Azim AzRes   Slow   SRes Def   SNR       Amp   Per Qual Magnitude    ArrID
ZALV    1.00 267.5 Pg       09:04:47.100  -1.6  88.0   1.9   16.3   -3.8 TA_   6.1       0.5  0.33 a__            132080087
ZALV    1.00 267.5 Lg       09:05:02.915   0.3  88.2   2.1   28.7   -2.0 TA_  11.1       2.2  0.33 a__            132080088
I46RU   1.00 267.5 I        09:11:40.000  88.0  85.1  -1.1  325.9  -58.4 TA_   3.8       0.0  1.81 a__            132080610
KURK    5.95 238.5 Pn       09:06:00.205   1.2  56.3   4.1   13.7   -0.0 TA_   4.0       0.1  0.33 ___ ML     2.3 132180873
                                                                                         0.3  0.30     mbtmp  2.8 
MKAR    7.70 202.2 Pn       09:06:23.775  -0.2  25.8   6.9   14.5    0.8 TA_   6.0       0.1  0.33 a__ ML     2.8 132080064
                                                                                         0.2  0.31     mbtmp  2.8 



EVENT  15775583 SOUTHWESTERN SIBERIA, RUSSIA
   Date       Time        Err   RMS Latitude Longitude  Smaj  Smin  Az Depth   Err Ndef Nsta Gap  mdist  Mdist Qual   Author      OrigID
2018/05/03 09:08:27.70   2.95  6.40  53.5231   87.6329  25.4  15.2  68   0.0f         8    4 284   1.73   7.56 m i uk IDC_REB   15779132

Magnitude  Err Nsta Author      OrigID
ML     2.5 0.3    1 IDC_REB   15779132
mbtmp  2.8 0.1    2 IDC_REB   15779132

Sta     Dist  EvAz Phase        Time      TRes  Azim AzRes   Slow   SRes Def   SNR       Amp   Per Qual Magnitude    ArrID
ZALV    1.73 285.4 Pn       09:08:59.050   0.1 103.5   0.4   13.9    0.2 TA_   6.5       0.6  0.33 a__            132080091
ZALV    1.73 285.4 Lg       09:09:22.200  -0.2 105.3   2.1   27.9   -4.1 TA_  14.3       1.4  0.33 a__            132080093
I46RU   1.73 285.4 I        09:18:50.000 -18.0 100.3  -2.8  333.5  -86.1 TA_   4.6       0.2  0.82 a__            132080613
KURK    6.32 246.3 Pn       09:10:02.674   0.2  61.8   2.6   14.1    0.4 TA_   1.8       0.4  0.50 ___ mbtmp  2.7 132183370
KURK    6.32 246.3 Lg       09:11:46.850  -1.6  62.4   3.3   31.6   -0.2 TA_   8.8       0.0  0.33 a__            132080963
MKAR    7.56 209.1 Pn       09:10:20.275  -0.1  21.8  -3.2    8.5   -5.2 TA_   4.2       0.1  0.33 a__ ML     2.5 132080065
                                                                                         0.6  0.77     mbtmp  2.8 
MKAR    7.56 209.1 Sn       09:11:45.437   0.2  28.3   3.3   21.6   -3.0 TA_   2.6       0.1  0.33 ___            132183375
MKAR    7.56 209.1 Lg       09:12:27.200  -0.7  30.3   5.3   30.7   -1.0 TA_   7.1       0.1  0.33 a__            132080304



