BEGIN GSE2.0
MSG_TYPE DATA
MSG_ID 6106535 CTBT_IDC
REF_ID reb_02
DATA_TYPE BULLETIN GSE2.0
Reviewed Event Bulletin of the CTBT_IDC from 2003/04/02 00:00:00 to 2003/04/03 00:00:00,  generated 2003/04/10 07:47:21
EVENT  1644627
   Date       Time       Latitude Longitude    Depth    Ndef Nsta Gap    Mag1  N    Mag2  N    Mag3  N  Author          ID
       rms   OT_Error      Smajor Sminor Az        Err   mdist  Mdist     Err        Err        Err     Quality

2003/04/02 00:26:13.7     36.4097   21.3277      0.0 f     7    7 291  mb 3.8  6  ML 2.9  1             IDC_REB    1644627
      1.01   +-  5.59     103.3   43.2   29               9.72  45.70   +-0.5      +-0.3                m i uk

SOUTHERN GREECE
Sta    Dist   EvAz     Phase       Date      Time     TRes  Azim  AzRes  Slow  SRes Def  SNR        Amp   Per   Mag1   Mag2 Arr ID
MLR     9.72  19.6 m   Pn      2003/04/02 00:28:36.4   1.6 108.6  -94.0  19.7   6.0 T     3.3       0.0  0.33 ML 2.9        12394382
HFS    24.25 350.7 a   P       2003/04/02 00:31:32.0  -0.1 150.3  -14.6  11.0   1.8 TAS   5.5       1.5  0.60 mb 3.8 mb 3.6 12369816
FINES  25.24   5.4 a   P       2003/04/02 00:31:39.5  -1.5 190.8    1.8   7.1  -1.9 TAS   4.9       0.5  0.44 mb 3.6 mb 3.6 12368805
NOA    25.48 348.5 m   P       2003/04/02 00:31:43.6   0.4 160.9    2.0   8.9  -0.1 TAS   3.2       0.8  0.79 mb 3.5 mb 3.7 12394384
ARCES  33.26   2.7 a   P       2003/04/02 00:32:51.4  -0.9 182.4   -3.9  10.2  -0.3 TAS   7.3       2.6  0.83 mb 4.2 mb 4.3 12368823
SPITS  41.93 358.5 m   P       2003/04/02 00:34:06.6   1.2 168.6   -5.4  14.5   6.4 TA    2.9       7.7  1.01 mb 4.5 mb 4.3 12394383
MKAR   45.70  57.1 m   P       2003/04/02 00:34:36.3   0.1 261.4  -18.4   8.2   0.3 TAS   2.6       0.1  0.33 mb 3.2 mb 3.2 12394385



EVENT  1640878
   Date       Time       Latitude Longitude    Depth    Ndef Nsta Gap    Mag1  N    Mag2  N    Mag3  N  Author          ID
       rms   OT_Error      Smajor Sminor Az        Err   mdist  Mdist     Err        Err        Err     Quality

2003/04/02 00:57:26.2    -14.8194 -109.0965      0.0 f    15   14 169  mb 4.6  9  Ms 3.7  2             IDC_REB    1644658
      0.74   +-  1.31      57.7   33.0  108              44.21 152.91   +-0.4      +-0.2                m i uk

CENTRAL EAST PACIFIC RISE
Sta    Dist   EvAz     Phase       Date      Time     TRes  Azim  AzRes  Slow  SRes Def  SNR        Amp   Per   Mag1   Mag2 Arr ID
TXAR   44.21   6.8 a   P       2003/04/02 01:05:37.7   0.5 188.6    3.2   8.6  -2.6 T    15.5       2.4  0.88 mb 4.1 mb 4.6 12369051
TXAR   44.21   6.8 a   PP      2003/04/02 01:07:22.7   2.3 192.4   15.9   6.9  -5.6       4.0       0.5  0.62               12369055
NVAR   53.67 351.0 a   P       2003/04/02 01:06:51.4   1.6 171.7    8.0   9.7  -0.5 T    33.7      15.4  0.67 mb 5.1 mb 5.6 12369070
PDAR   57.30 359.6 a   P       2003/04/02 01:07:15.2  -0.8 175.1   21.2   6.4  -1.8 T    28.1       5.5  0.60 mb 4.7 mb 5.1 12369048
PDAR   57.30 359.6 a   LR      2003/04/02 01:28:03.6 -60.0   3.3 -176.1  32.1  -1.0                88.2 18.33 Ms 3.9 Ms 3.9 12396629
NEW    63.20 354.0 a   P       2003/04/02 01:07:56.6   0.5 149.0  -22.3   8.8   2.2 T     5.3       6.2  1.00 mb 4.5 mb 4.8 12370145
SADO   65.26  23.1 a   P       2003/04/02 01:08:10.0   0.3 224.6   -1.8   7.2   1.9 T     9.3       8.6  0.69 mb 4.9 mb 4.8 12369962
YKA    77.18 357.4 a   P       2003/04/02 01:09:21.0  -0.5 167.8   -3.1   5.6   0.0 T    51.0       2.7  0.83 mb 4.3 mb 4.7 12369081
YKA    77.18 357.4 a   LR      2003/04/02 01:40:33.4  14.9 120.0  -54.5  33.5   0.2                31.7 18.23 Ms 3.6 Ms 3.6 12396631
FRB    84.31  16.9 a   P       2003/04/02 01:09:59.5  -0.1 214.1   -5.1   5.9   0.9 T    21.4      11.9  0.86 mb 5.0 mb 5.0 12369880
ILAR   84.38 344.7 a   P       2003/04/02 01:09:59.0  -1.0 153.0  -25.9   5.3   1.8 T    24.3       1.5  0.71 mb 4.2 mb 4.6 12369133
INK    84.75 351.1 a   P       2003/04/02 01:10:01.1  -0.7 145.3  -11.0   5.2   0.2 T    14.3       2.7  0.70 mb 4.5 mb 4.6 12369888
GERES 122.47  41.2 a   PKP     2003/04/02 01:16:23.7   0.2 295.9   10.4   1.5  -0.4 T     3.8       0.5  0.59               12369123
FINES 123.54  24.0 a   PKP     2003/04/02 01:16:25.5   0.6 295.8   -9.3   1.2  -0.7 T    11.4       1.2  0.52               12369112
KMBO  143.13 112.6 a   PKP     2003/04/02 01:17:03.5   0.4 239.0   -4.2   1.3  -0.4 T     6.2       2.4  1.00               12369105
MKAR  146.73 345.7 a   PKPbc   2003/04/02 01:17:08.1  -1.3  16.7   -3.7   3.0   0.1 T    73.3       6.6  0.70               12369117
CMAR  152.91 281.6 a   PKPbc   2003/04/02 01:17:26.8   0.6  31.9  -21.9   0.9   0.0 T    16.3       3.4  0.69               12369154
CMAR  152.91 281.6 a   PKPab   2003/04/02 01:17:37.5   0.5  61.4   -9.1   1.7  -1.1 T     5.4       1.2  0.50               12369156



EVENT  1640903
   Date       Time       Latitude Longitude    Depth    Ndef Nsta Gap    Mag1  N    Mag2  N    Mag3  N  Author          ID
       rms   OT_Error      Smajor Sminor Az        Err   mdist  Mdist     Err        Err        Err     Quality

2003/04/02 01:11:28.7     29.9256  142.8442      0.0 f     5    5 161  mb 3.7  4  ML 3.0  1             IDC_REB    1650206
      0.96   +-  1.28      55.0   24.2   94               2.88  69.39   +-0.2      +-0.3                m i uk

SOUTH OF HONSHU, JAPAN
Sta    Dist   EvAz     Phase       Date      Time     TRes  Azim  AzRes  Slow  SRes Def  SNR        Amp   Per   Mag1   Mag2 Arr ID
JCJ     2.88 191.9 m   Pn      2003/04/02 01:12:14.4  -1.4 287.5  -84.1  19.0   5.2 T     4.7       2.6  0.33 ML 3.0        12394623
JCJ     2.88 191.9 a   Sn      2003/04/02 01:12:45.3  -6.8  83.2   71.6  23.1  -1.6       7.6      14.0  0.33               12370138
MKAR   49.17 307.7 a   P       2003/04/02 01:20:18.2  -0.1  82.0   -5.6   8.2   0.6 TAS   4.3       0.9  0.76 mb 3.7 mb 3.7 12369186
WRA    50.25 190.4 a   P       2003/04/02 01:20:25.9  -0.8  10.6   -0.2   8.2   0.1 TAS   8.7       0.5  0.44 mb 3.8 mb 4.1 12369144
ASAR   53.97 190.1 m   P       2003/04/02 01:20:55.8   1.4  21.6   12.0   8.9   1.6 TAS   3.5       0.5  0.49 mb 3.7 mb 3.9 12426453
YKA    69.39  29.0 a   P       2003/04/02 01:22:37.9  -0.2 295.1   -0.8   6.5   0.5 TAS   4.3       0.3  0.68 mb 3.4 mb 3.8 12369169



EVENT  1640952
   Date       Time       Latitude Longitude    Depth    Ndef Nsta Gap    Mag1  N    Mag2  N    Mag3  N  Author          ID
       rms   OT_Error      Smajor Sminor Az        Err   mdist  Mdist     Err        Err        Err     Quality

2003/04/02 01:53:23.7     -4.2341  135.3792      0.0 f     3    3 205  mb 4.1  2  ML 4.1  2  Ms 3.3  1  IDC_REB    1643159
      0.06   +-  3.11     198.1   26.3   74              19.37  69.01   +-0.3      +-0.2      +-0.2     m i uk

IRIAN JAYA REGION, INDONESIA
Sta    Dist   EvAz     Phase       Date      Time     TRes  Azim  AzRes  Slow  SRes Def  SNR        Amp   Per   Mag1   Mag2 Arr ID
WRA    15.65 183.6 a   Pn      2003/04/02 01:57:00.4  -5.3   3.1    0.3  13.0  -0.0      16.9       0.5  0.33 ML 3.9        12369397
WRA    15.65 183.6 a   Sn      2003/04/02 01:59:51.2  -9.9   2.9   -0.9  23.1  -1.2       6.8       0.7  0.33               12369400
WRA    15.65 183.6 a   LR      2003/04/02 02:03:40.6  39.3 180.0  176.2  39.4   2.5               111.8 19.55 Ms 3.3 Ms 3.3 12396639
ASAR   19.37 184.1 a   P       2003/04/02 01:57:51.1  -0.1   8.5    4.1  10.4  -0.5 TAS  48.8       1.7  0.33 ML 4.2        12369409
ASAR   19.37 184.1 m   S       2003/04/02 02:01:20.6 -10.5   8.9    4.4  26.7   3.7       3.4       0.1  0.33               12384712
STKA   28.11 168.7 a   P       2003/04/02 01:59:17.4   0.0 335.8  -13.6   8.3  -0.6 TAS   4.7       0.6  0.44 mb 3.9 mb 3.9 12369382
MKAR   69.01 324.0 a   P       2003/04/02 02:04:31.2   0.0 107.6  -13.8   7.9   1.7 TAS  38.3       1.4  0.40 mb 4.3 mb 4.3 12369418



EVENT  1641271
   Date       Time       Latitude Longitude    Depth    Ndef Nsta Gap    Mag1  N    Mag2  N    Mag3  N  Author          ID
       rms   OT_Error      Smajor Sminor Az        Err   mdist  Mdist     Err        Err        Err     Quality

2003/04/02 02:43:12.9     39.5148   77.4858      0.0 f     5    4 196  mb 3.5  3  ML 3.5  1             IDC_REB    1652734
      0.65   +-  1.50      42.2   28.3   83               8.08  79.45   +-0.3      +-0.3                m i uk

SOUTHERN XINJIANG, CHINA
Sta    Dist   EvAz     Phase       Date      Time     TRes  Azim  AzRes  Slow  SRes Def  SNR        Amp   Per   Mag1   Mag2 Arr ID
MKAR    8.08  24.2 a   Pn      2003/04/02 02:45:10.6  -0.8 201.9   -5.6  14.1   0.4 TA   39.6       0.6  0.33 ML 3.5        12369785
MKAR    8.08  24.2 a   Lg      2003/04/02 02:47:29.2  -0.3 201.9   -5.6  31.5  -0.2 TA    4.1       1.0  0.33               12369794
FINES  38.04 322.4 a   P       2003/04/02 02:50:31.6  -0.8 105.7   -0.9   9.7   0.4 TAS   5.2       0.8  0.55 mb 3.8 mb 3.8 12369784
YKA    77.87   5.7 m   P       2003/04/02 02:55:12.8   0.9 344.4   -4.0   5.4  -0.1 TAS   3.3       0.1  0.36 mb 3.1 mb 3.5 12443708
WRA    79.45 126.8 a   P       2003/04/02 02:55:21.1  -0.2 325.1   -2.5   5.9   0.8 TAS   6.0       0.6  1.14 mb 3.5 mb 3.9 12369865



EVENT  1643519
   Date       Time       Latitude Longitude    Depth    Ndef Nsta Gap    Mag1  N    Mag2  N    Mag3  N  Author          ID
       rms   OT_Error      Smajor Sminor Az        Err   mdist  Mdist     Err        Err        Err     Quality

2003/04/02 03:03:31.0     19.7816  -76.3017      0.0 f     5    5 228  mb 3.7  3                        IDC_REB    1643519
      0.65   +-  1.79      54.4   41.8  160              26.59 151.70   +-0.6                           m i uk

CUBA REGION
Sta    Dist   EvAz     Phase       Date      Time     TRes  Azim  AzRes  Slow  SRes Def  SNR        Amp   Per   Mag1   Mag2 Arr ID
TXAR   26.59 296.3 a   P       2003/04/02 03:09:11.9   0.8 112.1   -4.1   9.9  -0.2 TAS  11.3       1.9  1.02 mb 3.9 mb 4.4 12369914
YKA    50.13 338.0 a   P       2003/04/02 03:12:26.5  -1.1 129.3   -1.2   8.8   1.2 TAS   3.7       0.1  0.51 mb 3.0 mb 3.3 12370016
FINES  78.58  28.6 a   P       2003/04/02 03:15:34.8   0.5 337.4   47.2   5.1  -0.4 T     5.5       1.7  0.82 mb 4.2 mb 4.2 12369998
WRA   151.20 264.4 a   PKPbc   2003/04/02 03:23:26.6  -0.3  84.1   -1.2   3.0   0.4 TAS   9.3       0.4  0.54               12370113
ASAR  151.70 256.7 a   PKPab   2003/04/02 03:23:36.5  -0.1 109.7    8.6   4.5   0.0 TAS   4.3       0.4  0.77               12370123



EVENT  1641042
   Date       Time       Latitude Longitude    Depth    Ndef Nsta Gap    Mag1  N    Mag2  N    Mag3  N  Author          ID
       rms   OT_Error      Smajor Sminor Az        Err   mdist  Mdist     Err        Err        Err     Quality

2003/04/02 03:04:23.6    -15.0842 -173.5177      0.0 f    15   15 183  mb 4.4 11  Ms 4.0  3             IDC_REB    1642996
      0.93   +-  1.06      50.2   18.1  149              44.09 153.85   +-0.4      +-0.2                m i uk

TONGA ISLANDS
Sta    Dist   EvAz     Phase       Date      Time     TRes  Azim  AzRes  Slow  SRes Def  SNR        Amp   Per   Mag1   Mag2 Arr ID
STKA   44.09 239.6 a   P       2003/04/02 03:12:33.3  -0.4  89.5    5.2   6.1  -1.3 T     3.3       1.3  0.79 mb 3.8 mb 3.9 12369966
STKA   44.09 239.6 a   LR      2003/04/02 03:28:30.3 -21.2 189.9  111.4  32.8  -0.5               111.7 18.21 Ms 3.8 Ms 3.7 12394338
WRA    49.81 256.5 a   P       2003/04/02 03:13:17.7  -0.9  90.0   -3.2   6.8  -0.8 T    30.6       2.2  0.56 mb 4.3 mb 4.6 12370022
ASAR   50.10 251.7 a   P       2003/04/02 03:13:20.0  -0.8  86.3    1.0   8.2   0.0 T    89.5      12.0  0.66 mb 4.9 mb 5.1 12370031
MJAR   68.63 319.8 a   P       2003/04/02 03:15:29.3   0.5 132.0    2.7   4.3  -1.9 T     4.5       1.9  0.73 mb 4.2 mb 4.4 12369994
NVAR   74.17  42.1 a   P       2003/04/02 03:16:02.1  -0.5 214.6    5.1   8.1  -1.6 T     9.0       2.7  0.79 mb 4.3 mb 4.9 12370005
BBB    77.66  26.7 a   LR      2003/04/02 03:42:39.7 -132.  57.6 -167.2  29.6  -1.7               144.5 19.00 Ms 4.2 Ms 4.2 12394334
NEW    80.51  34.4 a   LR      2003/04/02 03:43:33.6 -85.7 273.3   38.7  29.2  -1.1               101.9 21.02 Ms 4.1 Ms 4.1 12394335
TXAR   80.53  56.2 a   P       2003/04/02 03:16:39.0   0.7 225.9    4.1   6.4  -0.6 T    15.2       1.4  0.81 mb 4.1 mb 4.6 12369979
PDAR   82.11  41.9 a   P       2003/04/02 03:16:45.8  -0.7 238.9   21.2   2.7  -0.4 T    10.7       1.4  0.80 mb 4.1 mb 4.6 12369971
ILAR   82.16  11.2 a   P       2003/04/02 03:16:44.7  -1.3 214.5   -3.1   5.8   0.1 T    22.4       2.3  0.80 mb 4.3 mb 4.7 12370011
BJT    85.17 313.5 a   P       2003/04/02 03:17:03.0   1.0 359.0 -115.1  15.2  10.2 T     5.8       7.4  0.43 mb 5.1 mb 5.0 12370859
HIA    86.88 322.9 a   P       2003/04/02 03:17:10.6   0.4 106.6  -13.4   9.4   6.2 T     3.3       2.1  0.30 mb 4.8 mb 4.8 12370854
YKA    89.85  23.4 a   P       2003/04/02 03:17:23.5  -0.4 239.0    0.3   4.4  -0.1 T    57.9       3.6  0.90 mb 4.7 mb 5.0 12370019
YKA    89.85  23.4 m   PP      2003/04/02 03:20:54.2  -2.2 241.2   -0.1   7.9   0.2       3.0       0.2  0.79               12384065
MLR   145.54 335.5 m   PKPbc   2003/04/02 03:24:04.2   0.8  83.1   48.5  18.6  15.4 T    11.3       4.2  1.30               12384066
KMBO  145.57 244.8 a   PKPbc   2003/04/02 03:24:06.9   2.4   4.4 -114.6   2.9  -0.3 T     4.7       1.1  0.80               12370072
GERES 145.81 351.5 a   PKPbc   2003/04/02 03:24:04.7   0.6  20.7    8.0   3.7   0.7 T     8.4       3.0  0.83               12370062
ESDC  153.85  18.5 a   PKPab   2003/04/02 03:24:38.0   0.3 334.2    2.2   5.1   1.0 T     9.8       1.7  0.70               12370081



EVENT  1641064
   Date       Time       Latitude Longitude    Depth    Ndef Nsta Gap    Mag1  N    Mag2  N    Mag3  N  Author          ID
       rms   OT_Error      Smajor Sminor Az        Err   mdist  Mdist     Err        Err        Err     Quality

2003/04/02 03:20:02.7     35.9850   70.5751    106.6      37   23 101  mb 4.6 21  Ms 3.7  2             IDC_REB    1643057
      0.77   +-  0.48      14.2    9.4   23    +-  3.6   13.91 114.80   +-0.4      +-0.0                m i uk

HINDU KUSH REGION, AFGHANISTAN
Sta    Dist   EvAz     Phase       Date      Time     TRes  Azim  AzRes  Slow  SRes Def  SNR        Amp   Per   Mag1   Mag2 Arr ID
MKAR   13.91  35.5 a   P       2003/04/02 03:23:13.1  -2.0 223.5    0.3  14.7   1.8 T   154.0       2.9  0.33               12370038
CMAR   30.52 117.4 a   P       2003/04/02 03:26:06.1   0.2 295.5   -9.2   8.5  -1.0 T    65.6      17.8  0.60 mb 4.8 mb 5.2 12370130
CMAR   30.52 117.4 a   sP      2003/04/02 03:26:44.0   1.7 300.3   -6.3   9.9   0.5 T     3.4      12.4  0.71               12370133
CMAR   30.52 117.4 a   ScP     2003/04/02 03:32:33.7  -0.9 296.9   -3.0   4.5  -0.3 T    11.5       5.1  0.87               12370259
MLR    34.74 299.9 m   P       2003/04/02 03:26:43.8   1.2  80.8   -9.1  12.3   3.7 T   332.5      22.7  0.72 mb 4.8 mb 5.3 12384386
BJT    35.85  69.5 a   P       2003/04/02 03:26:53.3   1.3 333.5   55.1  32.4  23.9 T     7.3      14.8  0.70 mb 4.6 mb 4.5 12370956
BJT    35.85  69.5 a   ScP     2003/04/02 03:32:53.0   0.0 318.4   40.0   1.6  -2.1 T     6.9       7.1  0.46               12371028
BJT    35.85  69.5 a   LR      2003/04/02 03:44:37.6  86.6 279.7    1.3  41.1   2.4               108.8 18.36 Ms 3.7 Ms 3.6 12394390
FINES  37.72 326.6 a   P       2003/04/02 03:27:07.8   0.3 105.4   -9.2  10.5  -0.0 T   205.5      54.6  0.61 mb 5.2 mb 5.2 12370051
HIA    37.87  53.8 a   P       2003/04/02 03:27:10.1   1.1 259.3   -9.0   6.3  -2.1 T    19.6      10.0  0.95 mb 4.3 mb 4.4 12370950
HIA    37.87  53.8 a   LR      2003/04/02 03:44:07.9  -0.8 267.3   -1.1  38.2  -0.0               126.6 19.65 Ms 3.8 Ms 3.8 12394392
ARCES  41.49 337.9 a   P       2003/04/02 03:27:39.6   0.9 113.5   -3.3   8.2  -0.3 T   216.3      93.3  0.67 mb 5.4 mb 5.5 12370106
GERES  42.95 305.7 a   P       2003/04/02 03:27:51.0   0.1  91.6    3.3   7.0  -0.3 T    25.9       5.4  0.65 mb 4.2 mb 4.6 12370064
GERES  42.95 305.7 a   pP      2003/04/02 03:28:16.6   1.1 124.0   40.5  10.8   2.7 T     3.9       2.9  0.75               12370066
NOA    44.59 323.4 a   P       2003/04/02 03:28:03.1  -0.7  97.3    0.1   7.9   0.2 T   171.4      39.2  0.58 mb 5.1 mb 5.3 12370117
NOA    44.59 323.4 a   sP      2003/04/02 03:28:41.1   0.1  97.6    0.4   7.9   0.1 T     1.5       7.8  0.70               12370119
KMBO   48.23 227.4 a   P       2003/04/02 03:28:33.5   0.5  33.5   -3.2  11.7   4.0 T     9.6       1.7  0.55 mb 3.8 mb 3.8 12370074
KMBO   48.23 227.4 a   pP      2003/04/02 03:28:58.4   0.3  28.9   -7.8  10.8   3.0 T     6.3       4.9  0.79               12370076
JNU    49.06  74.8 a   P       2003/04/02 03:28:39.8   0.8  31.9  108.8   0.3  -7.3 T     9.4      27.2  0.82 mb 4.8 mb 4.7 12371376
JOW    49.48  83.6 a   P       2003/04/02 03:28:42.6   0.3 250.2  -45.3  29.7  22.1 T     8.3      15.2  0.60 mb 4.7 mb 4.3 12371390
MJAR   53.46  68.0 a   P       2003/04/02 03:29:11.6  -0.3 295.0   -0.9  10.3   0.1 T    15.0       7.7  0.77 mb 4.3 mb 4.6 12370099
MJAR   53.46  68.0 m   pP      2003/04/02 03:29:37.3  -0.1 289.5   -1.5  11.5   4.1 T     3.0       8.1  1.02               12384327
ESDC   57.39 298.0 a   P       2003/04/02 03:29:39.5  -0.5  62.1    3.2   7.3   0.3 T    58.1      23.9  0.82 mb 4.8 mb 5.1 12370083
ESDC   57.39 298.0 a   pP      2003/04/02 03:30:05.6  -0.3  60.6    1.6   7.1  -0.1 T     4.3       7.2  0.78               12370085
ATTU   69.01  39.3 m   P       2003/04/02 03:30:56.4  -0.1  17.0   74.9  12.9   6.7 T     3.5      28.0  0.70 mb 5.1 mb 5.1 12384385
INK    74.47   9.1 a   P       2003/04/02 03:31:28.2  -0.7   6.8    3.3   6.4  -0.8 T    42.1      18.5  0.75 mb 4.9 mb 5.0 12371395
ILAR   75.37  15.6 a   P       2003/04/02 03:31:33.3  -0.9 321.8    1.9   4.7  -0.1 T    63.6       5.9  0.66 mb 4.4 mb 4.8 12370218
ILAR   75.37  15.6 a   pP      2003/04/02 03:32:01.2  -0.0 326.0   -3.3   3.9  -1.9 T     3.8       4.1  0.72               12370220
YKA    81.77   2.4 a   P       2003/04/02 03:32:08.7  -0.6 351.4   -1.0   5.4   0.0 T    71.0       3.4  0.55 mb 4.3 mb 4.6 12370189
YKA    81.77   2.4 a   pP      2003/04/02 03:32:36.5  -0.3 349.0   -3.4   5.4  -0.1 T     7.3       8.3  0.73               12370191
YKA    81.77   2.4 a   sP      2003/04/02 03:32:47.6  -0.8 349.5   -2.9   5.5   0.1 T     5.3       8.9  0.60               12370192
YKA    81.77   2.4 a   PKKPbc  2003/04/02 03:50:37.5  -2.5 169.6  173.9   2.2   4.6      10.4       0.4  0.64               12370354
WRA    82.01 121.6 a   P       2003/04/02 03:32:10.4  -0.8 324.5    2.9   4.9   0.1 T   109.9       8.2  0.67 mb 4.6 mb 5.0 12370232
WRA    82.01 121.6 a   pP      2003/04/02 03:32:37.7  -1.0 322.9    1.3   5.0   0.2 T     5.0       8.1  0.68               12370234
ASAR   84.24 124.6 a   P       2003/04/02 03:32:22.0  -0.6 310.3   -2.4   5.1   0.1 T    76.3       8.3  0.66 mb 4.6 mb 4.8 12370241
ASAR   84.24 124.6 m   pP      2003/04/02 03:32:49.6  -0.6 314.8    2.2   5.1  -0.1 T     7.1       8.2  0.60               12384328
DLBC   84.36  10.7 a   P       2003/04/02 03:32:23.4   0.6 345.2   30.8   8.5   3.4 T     7.2       3.6  0.69 mb 4.3 mb 4.5 12371402
DLBC   84.36  10.7 a   pP      2003/04/02 03:32:50.6   0.2 313.3   -1.1   2.4  -2.7 T     2.6       2.1  0.58               12371404
STKA   94.76 126.2 a   P       2003/04/02 03:33:12.4   0.4 327.1   16.3   6.9   3.0 T     4.1       0.6  0.45 mb 4.2 mb 4.2 12370162
TXAR  114.80 354.5 m   PKP     2003/04/02 03:38:31.8   0.7  66.1   28.6   3.0   2.1 T     2.3       0.4  0.95               12384384
TXAR  114.80 354.5 a   PKKPbc  2003/04/02 03:49:09.0   2.5 189.5 -165.8   7.0   8.5       4.9       0.6  0.95               12370310
TXAR  114.80 354.5 a   PKKP    2003/04/02 03:49:36.4   6.9 176.5  175.0   8.0   7.1       6.2       0.6  0.70               12370312



