EVENT  15761705 OFF COAST OF PAKISTAN
   Date       Time        Err   RMS Latitude Longitude  Smaj  Smin  Az Depth   Err Ndef Nsta Gap  mdist  Mdist Qual   Author      OrigID
2018/05/03 07:58:05.65   0.89  0.82  24.9197   63.2758  20.6  16.7 148   0.0f        21   21  97   4.56 116.97 m i uk IDC_REB   15781324

Magnitude  Err Nsta Author      OrigID
ML     3.9 0.0    3 IDC_REB   15781324
mb     4.0 0.1   17 IDC_REB   15781324
mbtmp  4.0 0.1   20 IDC_REB   15781324
Ms     3.4 0.0   10 IDC_REB   15781324

Sta     Dist  EvAz Phase        Time      TRes  Azim AzRes   Slow   SRes Def   SNR       Amp   Per Qual Magnitude    ArrID
WSAR    4.56 249.4 Pn       07:59:15.500  -0.5 111.2  43.6    8.4   -5.4 T__  50.8       5.9  0.33 a__ ML     3.9 132079756
                                                                                        14.9  0.36     mbtmp  4.1 
WSAR    4.56 249.4 Sn       08:00:02.575  -8.3  62.7  -4.9   23.4   -1.3 ___   3.6       9.6  0.33 a__            132079760
WSAR    4.56 249.4 LR       08:01:33.581  19.9 110.5  42.9   45.6    4.4 ___           342.8 20.08 a__ Ms     3.3 132226363
GEYT   13.69 342.5 Pn       08:01:22.768   1.6 173.5  13.6   13.9    0.3 T__   1.6       0.5  0.33 ___ ML     3.8 132176471
                                                                                         0.8  0.43     mbtmp  3.7 
GEYT   13.69 342.5 LR       08:07:23.598  36.7 177.0  17.2   40.7    2.7 ___           116.6 20.58 a__ Ms     3.3 132226357
AAK    19.95  24.9 P        08:02:40.094   0.7 211.5   0.3    7.2   -3.7 T__  15.2       0.3  0.33 a__ ML     3.9 132079738
                                                                                         5.6  0.73     mbtmp  4.2 
AAK    19.95  24.9 LR       08:11:47.196  21.3 205.0  -6.2   41.2    1.1 ___           131.2 20.21 a__ Ms     3.5 132226354
GNI    21.72 318.8 P        08:02:59.495   0.8 121.2  -7.5    9.2   -1.5 T__   8.1      12.1  0.52 a__ mbtmp  4.6 132079770
                                                                                        12.1  0.52     mb     4.5 
PALK   24.20 133.5 LR       08:12:45.473  18.4  55.7  97.3   36.4    0.8 ___           112.8 18.80 a__ Ms     3.5 132226359
KBZ    25.09 323.5 P        08:03:33.100   1.1 124.4  -7.4    8.9   -0.1 T__  22.0       7.8  0.74 a__ mbtmp  4.5 132078761
                                                                                         7.8  0.74     mb     4.5 
EIL    25.58 287.0 LR       08:16:13.482  44.9  67.5 -26.4   42.5    1.8 ___            85.5 20.66 a__ Ms     3.4 132226356
MMAI   25.63 294.8 P        08:03:38.751   1.7  96.1  -5.0   13.6    4.5 T__   1.7       0.4  0.25 ___ mbtmp  3.7 132176460
                                                                                         0.4  0.25     mb     3.7 
MMAI   25.63 294.8 LR       08:16:31.505  59.3  42.5 -58.6   43.1    2.3 ___            64.7 21.13 a__ Ms     3.3 132226358
AKTO   25.80 352.3 P        08:03:38.150  -0.1 167.7  -1.2    7.0   -2.1 T__  10.6       4.1  0.57 ___ mbtmp  4.4 132176458
                                                                                         4.1  0.57     mb     4.4 
MKAR   26.59  30.0 P        08:03:45.400  -0.1 213.3  -8.1    9.3    0.3 T__  59.5       7.6  0.70 a__ mbtmp  4.7 132078794
                                                                                         7.6  0.70     mb     4.7 
BVAR   28.58   9.0 P        08:04:03.127  -0.1 169.6 -24.0    8.8   -0.1 T__   4.2       0.7  0.47 a__ mbtmp  3.9 132079784
                                                                                         0.7  0.47     mb     3.9 
BRTR   28.91 307.9 P        08:04:06.430  -0.1 101.9  -9.9   11.9    3.0 T__   1.9       0.4  0.56 ___ mbtmp  3.6 132176461
                                                                                         0.4  0.56     mb     3.6 
AKASG  36.70 323.4 P        08:05:13.214  -0.9 125.7   4.0    8.3   -0.3 T__  10.2       1.5  0.51 a__ mbtmp  4.1 132078912
                                                                                         1.5  0.51     mb     4.1 
SONM   40.87  44.7 P        08:05:50.460   1.1 250.4  -1.1    7.8   -0.4 T__   8.4       2.1  0.84 a__ mbtmp  4.0 132078820
                                                                                         2.1  0.84     mb     4.0 
GERES  45.29 315.0 P        08:06:24.199  -0.9  90.1 -13.4   10.5    2.6 T__   2.0       0.5  0.25 ___ mbtmp  3.9 132176459
                                                                                         0.5  0.25     mb     3.9 
ARCES  49.86 343.6 P        08:06:59.650  -0.5 133.9  -4.5    8.8    0.8 T__  10.3       3.3  0.59 a__ mbtmp  4.4 132078785
                                                                                         3.3  0.59     mb     4.4 
YAK    57.26  30.9 LR       08:35:05.983  27.9 269.5   7.9   38.8    0.5 ___            26.1 20.41 a__ Ms     3.3 132226364
TORD   58.96 270.7 P        08:08:06.508  -0.8  59.2  -9.5    6.4   -0.6 T__   5.5       0.5  0.72 a__ mbtmp  3.6 132078829
                                                                                         0.5  0.72     mb     3.6 
TORD   58.96 270.7 LR       08:37:15.398  59.2 146.5  77.8   39.9    1.0 ___            63.5 19.29 a__ Ms     3.7 132226361
TSUM   62.46 229.7 LR       08:38:18.553 126.3 327.0 -80.1   38.6    2.0 ___            31.9 18.35 a__ Ms     3.5 132226362
BOSA   64.58 216.8 P        08:08:45.725   0.7  36.6  -1.7    9.0    2.5 T__   5.6       1.7  0.49 a__ mbtmp  4.3 132078746
                                                                                         1.7  0.49     mb     4.3 
SEY    67.72  29.6 P        08:09:04.350  -0.3 267.1 -14.0    8.5    2.2 T__   6.7       2.3  0.70 a__ mbtmp  4.3 132079752
                                                                                         2.3  0.70     mb     4.3 
PETK   73.02  38.9 LR       08:46:49.071  79.3 229.1 -59.7   40.0    1.1 ___            26.4 18.86 a__ Ms     3.5 132226360
ASAR   83.75 119.5 P        08:10:37.000  -0.1 312.0  12.1    5.3    0.2 T__   4.4       0.4  0.70 a__ mbtmp  3.7 132079017
                                                                                         0.4  0.70     mb     3.7 
ILAR   87.58  12.4 P        08:10:54.100  -1.3 310.5 -11.0    5.0    1.0 T__   4.8       0.3  0.60 a__ mbtmp  3.7 132078790
                                                                                         0.3  0.60     mb     3.7 
YKA    92.88 359.0 P        08:11:19.733  -0.3 345.5 -13.1    4.3   -0.4 T__   4.2       0.2  0.84 a__ mbtmp  3.5 132079116
                                                                                         0.2  0.84     mb     3.6 
NVAR  116.97   1.4 PKP      08:16:53.212   0.4 323.1  -6.5    0.5    0.9 T__   4.9       0.1  0.46 a__            132079092



EVENT  15760721 TONGA ISLANDS
   Date       Time        Err   RMS Latitude Longitude  Smaj  Smin  Az Depth   Err Ndef Nsta Gap  mdist  Mdist Qual   Author      OrigID
2018/05/03 08:06:18.78   0.90  1.01 -16.0969 -173.3856  49.3  24.5 135   0.0f         8    8 124  49.91 146.70 m i uk IDC_REB   15775204

Magnitude  Err Nsta Author      OrigID
mb     3.9 0.1    7 IDC_REB   15775204
mbtmp  3.9 0.1    7 IDC_REB   15775204
Ms     3.3 0.1    6 IDC_REB   15775204

Sta     Dist  EvAz Phase        Time      TRes  Azim AzRes   Slow   SRes Def   SNR       Amp   Per Qual Magnitude    ArrID
RAR    13.86 113.6 LR       08:13:31.207 -14.3 308.0  18.8   31.2   -1.0 ___           133.9 19.02 a__ Ms     3.4 132184149
DZM    19.96 249.6 LR       08:17:11.046   7.6  27.5 -48.7   32.7    0.4 ___           117.0 20.26 a__ Ms     3.4 132184147
PPT    22.83  97.1 LR       08:17:26.201  -6.4 305.0  34.8   29.2   -0.3 ___            55.9 21.75 a__ Ms     3.1 132184152
H11N3  40.52 330.7 T        08:57:15.418  16.6 146.5  -3.6               ___                       ___            132180460
H11N1  40.53 330.7 T        08:57:26.122  27.3 146.5  -3.5               ___                       ___            132180459
H11N2  40.54 330.7 T        08:57:26.409  27.6 146.5  -3.6               ___                       ___            132180461
ASAR   49.91 252.5 P        08:15:13.900  -0.6  87.3   0.7    8.4    0.2 T__  35.3       4.2  0.71 a__ mbtmp  4.4 132079018
                                                                                         4.2  0.71     mb     4.4 
NWAO   64.29 240.9 LR       08:44:19.570  61.3 144.5  51.4   35.5    1.0 ___            30.6 18.79 a__ Ms     3.5 132184148
MJAR   69.48 320.0 LR       08:41:19.940 -10.0 207.0  77.1   30.2   -0.1 ___            32.1 21.90 a__ Ms     3.5 132184150
QSPA   73.95 180.1 P        08:17:56.069   0.1  32.7  -9.0    7.6    1.7 T__   5.8       1.9  0.86 a__ mbtmp  4.2 132080717
                                                                                         1.9  0.86     mb     4.2 
YBH    74.14  37.0 P        08:17:55.658  -1.7 206.6 -24.1    2.3   -3.6 T__   1.9       0.8  0.63 ___ mbtmp  3.9 132179923
                                                                                         0.8  0.63     mb     3.9 
NVAR   74.84  41.9 P        08:18:02.075   0.5 219.7  19.1    6.9   -1.1 T__   5.6       0.6  0.70 a__ mbtmp  3.7 132079093
                                                                                         0.6  0.70     mb     3.7 
KSRS   76.68 315.6 LR       08:45:48.677 -14.2 110.0 -12.4   30.9   -0.2 ___             9.4 21.20 a__ Ms     3.0 132184151
TXAR   80.99  56.0 P        08:18:36.231   0.4 237.2   9.7    6.3   -0.6 T__   3.0       0.6  1.03 ___ mbtmp  3.6 132179934
                                                                                         0.6  1.03     mb     3.6 
PDAR   82.77  41.8 P        08:18:44.800  -0.3 189.0 -16.0    3.5   -0.5 T__   7.4       0.8  0.79 a__ mbtmp  3.9 132079085
                                                                                         0.8  0.79     mb     3.9 
ILAR   83.12  11.1 P        08:18:46.250   0.1 222.1  -1.5    6.5    0.1 T__   4.4       0.1  0.51 a__ mbtmp  3.3 132079069
                                                                                         0.1  0.51     mb     3.3 
BRTR  146.70 320.3 PKPbc    08:26:04.432   2.1 132.1  79.4    4.1    1.1 T__   1.9       0.2  0.34 ___            132180075



EVENT  15760728 SOUTHWESTERN SIBERIA, RUSSIA
   Date       Time        Err   RMS Latitude Longitude  Smaj  Smin  Az Depth   Err Ndef Nsta Gap  mdist  Mdist Qual   Author      OrigID
2018/05/03 08:09:51.38   3.17 21.19  53.5395   87.6345  27.1  15.2  64   0.0f         8    4 284   1.72   7.57 m i uk IDC_REB   15779073

Magnitude  Err Nsta Author      OrigID
ML     2.4 0.4    2 IDC_REB   15779073
mbtmp  2.7 0.1    2 IDC_REB   15779073

Sta     Dist  EvAz Phase        Time      TRes  Azim AzRes   Slow   SRes Def   SNR       Amp   Per Qual Magnitude    ArrID
ZALV    1.72 284.9 Pg       08:10:23.500   0.8 105.1   2.5   16.6   -2.7 TA_   4.2       0.7  0.33 a__            132078846
ZALV    1.72 284.9 Lg       08:10:45.399  -0.5 106.0   3.4   30.8   -1.2 TA_   3.3       1.1  0.33 ___            132209232
I46RU   1.72 284.9 I        08:21:30.000  59.7 101.0  -1.6  334.4  -85.4 TA_   5.1       0.1  0.67 a__            132079362
KURK    6.33 246.2 Pn       08:11:26.345   0.1  61.7   2.7   14.8    1.1 TA_   2.2       0.0  0.33 ___ ML     2.0 132180690
                                                                                         0.2  0.37     mbtmp  2.5 
KURK    6.33 246.2 Lg       08:13:10.190  -2.2  62.3   3.3   33.9    2.1 TA_   4.3       0.0  0.33 ___            132182699
MKAR    7.57 209.0 Pn       08:11:43.700  -0.5  31.5   6.5   14.5    0.8 TA_   5.6       0.2  0.33 a__ ML     2.8 132079079
                                                                                         0.3  0.35     mbtmp  2.8 
MKAR    7.57 209.0 Sn       08:13:11.200   1.9  29.6   4.7   25.8    1.2 TA_   3.5       0.1  0.33 ___            132182707
MKAR    7.57 209.0 Lg       08:13:48.283  -3.7  21.3  -3.6   32.5    0.7 TA_   2.4       0.0  0.33 ___            132182703



EVENT  15775431 SOUTHWESTERN SIBERIA, RUSSIA
   Date       Time        Err   RMS Latitude Longitude  Smaj  Smin  Az Depth   Err Ndef Nsta Gap  mdist  Mdist Qual   Author      OrigID
2018/05/03 08:20:08.46   3.15  8.78  53.7566   88.1155  27.6  18.8  55   0.0f         7    4 294   1.96   7.90 m i uk IDC_REB   15779076

Magnitude  Err Nsta Author      OrigID
ML     2.7 0.1    2 IDC_REB   15779076
mbtmp  3.1 0.2    2 IDC_REB   15779076

Sta     Dist  EvAz Phase        Time      TRes  Azim AzRes   Slow   SRes Def   SNR       Amp   Per Qual Magnitude    ArrID
ZALV    1.96 276.9 Pn       08:20:43.100   0.1  90.4  -3.9   13.0   -0.8 TA_  31.4       1.6  0.33 a__            132079108
ZALV    1.96 276.9 Lg       08:21:11.175   0.4  93.4  -0.9   26.1   -6.3 TA_  23.5       5.2  0.33 a__            132079110
I46RU   1.96 277.0 I        08:32:50.000  23.0  92.3  -2.0  338.3  -68.6 TA_   6.1       0.1  0.67 a__            132079363
KURK    6.68 245.8 Pn       08:21:47.914  -0.2  62.1   3.8   14.1    0.4 TA_   2.7       0.1  0.33 ___ ML     2.7 132182112
                                                                                         0.8  0.30     mbtmp  3.3 
KURK    6.68 245.8 Lg       08:23:39.200  -1.4  58.9   0.7   30.5   -1.3 TA_   4.3       0.1  0.33 a__            132080191
MKAR    7.90 210.5 Pn       08:22:06.050   0.3  27.9   1.9   13.4   -0.3 TA_   4.2       0.1  0.33 a__ ML     2.8 132079229
                                                                                         0.4  0.54     mbtmp  2.9 
MKAR    7.90 210.5 Lg       08:24:16.452  -3.2  29.6   3.6   26.9   -4.9 TA_   1.6       0.1  0.33 ___            132182127



