EVENT  1642045
   Date       Time       Latitude Longitude    Depth    Ndef Nsta Gap    Mag1  N    Mag2  N    Mag3  N  Author          ID
       rms   OT_Error      Smajor Sminor Az        Err   mdist  Mdist     Err        Err        Err     Quality

2003/04/02 16:09:23.2    -20.6462 -179.1014    595.7       9    8 186  mb 3.2  8                        IDC_REB    1643478
      0.75   +-  3.07      75.8   17.7  153    +- 35.0   36.79  89.78   +-0.3                           m i uk

FIJI ISLANDS REGION
Sta    Dist   EvAz     Phase       Date      Time     TRes  Azim  AzRes  Slow  SRes Def  SNR        Amp   Per   Mag1   Mag2 Arr ID
STKA   36.79 244.1 a   P       2003/04/02 16:15:42.0  -0.0 103.2   15.2   5.4  -2.8 T    10.0       1.6  0.59 mb 3.0 mb 3.0 12376933
ASAR   43.48 257.0 a   P       2003/04/02 16:16:35.3  -0.0  97.5    5.9   7.6   0.1 T    80.9       6.3  0.53 mb 3.7 mb 3.9 12377018
ASAR   43.48 257.0 a   ScP     2003/04/02 16:21:04.0  -0.8 111.7    7.1   4.1  -0.2 T     6.2       0.5  0.60               12377022
WRA    43.56 262.4 a   P       2003/04/02 16:16:35.6  -0.3  97.2   -1.8   7.8   0.6 T    70.0       5.8  0.63 mb 3.6 mb 3.9 12376981
NVAR   81.84  43.8 a   P       2003/04/02 16:20:41.2  -0.3 204.0   -7.5   7.8  -0.2 T     6.2       0.7  0.51 mb 3.1 mb 3.6 12376969
TXAR   88.00  57.7 a   P       2003/04/02 16:21:12.1   0.7 211.4  -11.1   5.7  -0.0 T     6.4       2.3  1.13 mb 3.4 mb 4.0 12376954
ILAR   88.69  13.2 m   P       2003/04/02 16:21:12.7  -0.8 199.4  -10.6   8.8   4.1 T     3.7       0.7  1.11 mb 3.0 mb 3.4 12386499
CMAR   89.19 290.0 a   P       2003/04/02 16:21:18.7   1.7 118.0    0.5   2.7  -0.3 T     6.0       0.4  0.66 mb 2.9 mb 3.2 12377104
PDAR   89.78  43.6 a   P       2003/04/02 16:21:19.3  -0.1 248.6   31.5   3.3   0.9 T     4.3       0.5  0.73 mb 3.1 mb 3.5 12377024



EVENT  1642048
   Date       Time       Latitude Longitude    Depth    Ndef Nsta Gap    Mag1  N    Mag2  N    Mag3  N  Author          ID
       rms   OT_Error      Smajor Sminor Az        Err   mdist  Mdist     Err        Err        Err     Quality

2003/04/02 16:11:04.6     42.9898   15.3426      0.0 f     6    6 261  mb 3.5  3  ML 3.7  2             IDC_REB    1643525
      0.53   +-  2.57      49.9   40.4   13               5.97  81.34   +-0.2      +-0.2                m i uk

ADRIATIC SEA
Sta    Dist   EvAz     Phase       Date      Time     TRes  Azim  AzRes  Slow  SRes Def  SNR        Amp   Per   Mag1   Mag2 Arr ID
GERES   5.97 349.5 a   Pn      2003/04/02 16:12:33.9  -0.3 169.6    1.3  13.2  -0.5 TA   63.3       1.7  0.33 ML 3.9        12376941
GERES   5.97 349.5 a   Sn      2003/04/02 16:13:38.8  -5.6 161.6   -6.7  23.9  -0.8      23.9       2.6  0.33               12376945
VRAC    6.38   7.4 m   Pn      2003/04/02 16:12:40.8   1.0 185.8   -2.4  12.3  -1.4 TA    1.8                               12386791
VRAC    6.38   7.4 a   Sn      2003/04/02 16:13:46.6  -7.9 277.3   89.0  19.7  -4.9       5.8       0.8  0.33               12377966
FINES  19.57  15.5 a   P       2003/04/02 16:15:33.0  -0.7 189.5  -14.6   9.9  -1.0 TAS   7.2                               12376936
MKAR   46.29  61.0 a   P       2003/04/02 16:19:31.6   0.0 271.3  -19.6   6.8  -1.1 TAS   6.7       0.5  0.65 mb 3.5 mb 3.5 12376938
YKA    67.48 337.3 a   P       2003/04/02 16:22:01.8   0.1  39.8    3.3   6.8   0.5 TAS   4.1       0.1  0.42 mb 3.2 mb 3.6 12377045
PDAR   81.34 322.3 a   P       2003/04/02 16:23:23.2   0.1  57.6   -1.0   7.8   1.8 TAS   3.8       0.4  0.70 mb 3.6 mb 4.1 12377025



EVENT  1642072
   Date       Time       Latitude Longitude    Depth    Ndef Nsta Gap    Mag1  N    Mag2  N    Mag3  N  Author          ID
       rms   OT_Error      Smajor Sminor Az        Err   mdist  Mdist     Err        Err        Err     Quality

2003/04/02 16:18:37.4     -7.5644  119.3329      0.0 f     4    4 190  mb 3.6  3  ML 3.4  1             IDC_REB    1643527
      0.23   +-  2.13     231.5   25.6   54              19.05  63.34   +-0.2      +-0.3                m i uk

FLORES SEA
Sta    Dist   EvAz     Phase       Date      Time     TRes  Azim  AzRes  Slow  SRes Def  SNR        Amp   Per   Mag1   Mag2 Arr ID
WRA    19.05 131.7 a   P       2003/04/02 16:23:01.1  -0.4 311.2    3.1   9.8  -1.3 TAS   8.8       0.1  0.33 ML 3.4        12377095
ASAR   21.26 140.5 a   P       2003/04/02 16:23:25.6   0.2 314.7   -1.5   9.0  -0.9 TAS  19.9       1.6  0.41 mb 3.7 mb 4.1 12377063
STKA   31.86 142.4 m   P       2003/04/02 16:25:04.3  -0.0 316.3   -4.4   5.2  -3.6 TA    3.3       1.1  0.88 mb 3.8 mb 3.8 12386802
MKAR   63.34 332.4 a   P       2003/04/02 16:29:08.5   0.1 145.6    7.5   7.4   0.7 TAS   3.9       0.2  0.55 mb 3.4 mb 3.4 12377035



EVENT  1642070
   Date       Time       Latitude Longitude    Depth    Ndef Nsta Gap    Mag1  N    Mag2  N    Mag3  N  Author          ID
       rms   OT_Error      Smajor Sminor Az        Err   mdist  Mdist     Err        Err        Err     Quality

2003/04/02 16:22:14.4    -30.3094 -178.8363      0.0 f     3    3 288  mb 4.0  2                        IDC_REB    1643535
      0.40   +-  4.43     223.6   69.4  167              42.39 144.81   +-0.2                           m i uk

KERMADEC ISLANDS, NEW ZEALAND
Sta    Dist   EvAz     Phase       Date      Time     TRes  Azim  AzRes  Slow  SRes Def  SNR        Amp   Per   Mag1   Mag2 Arr ID
ASAR   42.39 267.2 a   P       2003/04/02 16:30:10.1  -0.5 111.3    3.6   7.6   0.1 TAS   4.5       2.1  1.11 mb 3.9 mb 4.1 12377068
WRA    43.37 272.5 a   P       2003/04/02 16:30:19.1   0.4 112.6   -0.2   8.0   0.2 TAS  57.5       1.2  0.37 mb 4.1 mb 4.5 12377098
FINES 144.81 339.4 a   PKP     2003/04/02 16:41:51.8  -0.1  43.3    4.1   3.1   1.4 TAS   7.4       3.4  0.96               12377176



EVENT  1642087
   Date       Time       Latitude Longitude    Depth    Ndef Nsta Gap    Mag1  N    Mag2  N    Mag3  N  Author          ID
       rms   OT_Error      Smajor Sminor Az        Err   mdist  Mdist     Err        Err        Err     Quality

2003/04/02 16:44:12.8    -17.8527 -178.4726      0.0 f     3    3 342  mb 4.1  3                        IDC_REB    1643543
      0.62   +- 48.64     882.9  144.8   79              38.60  44.75   +-0.4                           m i uk

FIJI ISLANDS REGION
Sta    Dist   EvAz     Phase       Date      Time     TRes  Azim  AzRes  Slow  SRes Def  SNR        Amp   Per   Mag1   Mag2 Arr ID
STKA   38.60 241.1 a   P       2003/04/02 16:51:38.6   0.9  73.9   -5.5   8.3   0.3 TAS   8.8       2.1  0.76 mb 4.1 mb 4.1 12377264
WRA    44.58 259.5 a   P       2003/04/02 16:52:26.4  -0.5  97.5    2.2   7.7   0.2 TAS  39.4       0.3  0.30 mb 3.7 mb 4.1 12377285
ASAR   44.75 254.2 a   P       2003/04/02 16:52:28.0  -0.2  89.7    2.7   8.4  -0.2 TAS  58.1       2.5  0.40 mb 4.4 mb 4.6 12377303



EVENT  1642107
   Date       Time       Latitude Longitude    Depth    Ndef Nsta Gap    Mag1  N    Mag2  N    Mag3  N  Author          ID
       rms   OT_Error      Smajor Sminor Az        Err   mdist  Mdist     Err        Err        Err     Quality

2003/04/02 17:01:16.3     -0.3175  133.1288      0.0 f     6    6 146  mb 4.0  5  Ms 3.4  1  ML 3.7  1  IDC_REB    1643556
      0.41   +-  1.10      75.2   19.1   78              19.54  86.01   +-0.3      +-0.2      +-0.3     m i uk

IRIAN JAYA REGION, INDONESIA
Sta    Dist   EvAz     Phase       Date      Time     TRes  Azim  AzRes  Slow  SRes Def  SNR        Amp   Per   Mag1   Mag2 Arr ID
WRA    19.54 176.6 a   P       2003/04/02 17:05:45.8   0.1 353.9   -3.8  11.2  -0.0 T    20.1       0.2  0.33 ML 3.7        12377377
WRA    19.54 176.6 a   S       2003/04/02 17:09:13.4 -14.1 357.9    1.5  23.3   0.6       9.8       0.1  0.33               12377381
ASAR   23.22 178.2 a   P       2003/04/02 17:06:25.2   0.0   5.3   -1.7   9.3  -1.4 T    26.8       5.6  0.80 mb 4.1 mb 4.3 12377399
ASAR   23.22 178.2 m   S       2003/04/02 17:10:33.6  -6.1 355.7   -2.3  17.7   1.1       2.9       0.2  0.66               12386967
STKA   32.39 166.5 a   P       2003/04/02 17:07:47.5  -0.3   4.7   14.7  12.1   3.3 T     4.7       1.6  0.62 mb 4.1 mb 4.1 12377324
BJT    43.03 340.8 a   P       2003/04/02 17:09:16.7  -0.8 170.2   15.5  17.6   9.5 T     4.5       2.2  0.32 mb 4.5 mb 4.4 12378144
BJT    43.03 340.8 a   LR      2003/04/02 17:27:41.3  22.8 150.4   -4.2  36.8   0.5                45.1 18.40 Ms 3.4 Ms 3.4 12387854
MKAR   64.54 323.8 a   P       2003/04/02 17:11:55.6   0.4 109.7  -11.1   8.4   1.9 T    11.7       0.7  0.64 mb 3.8 mb 3.8 12377415
ILAR   86.01  25.0 a   P       2003/04/02 17:13:58.7   0.3 241.1   -5.6   6.1   1.1 T     4.7       0.4  0.96 mb 3.6 mb 4.0 12377422



EVENT  1642126
   Date       Time       Latitude Longitude    Depth    Ndef Nsta Gap    Mag1  N    Mag2  N    Mag3  N  Author          ID
       rms   OT_Error      Smajor Sminor Az        Err   mdist  Mdist     Err        Err        Err     Quality

2003/04/02 17:15:58.4    -10.1887  161.3055      0.0 f     3    3 227  mb 3.7  3                        IDC_REB    1643573
      0.06   +-  3.44     136.6   38.0  138              27.75  89.93   +-0.3                           m i uk

SOLOMON ISLANDS
Sta    Dist   EvAz     Phase       Date      Time     TRes  Azim  AzRes  Slow  SRes Def  SNR        Amp   Per   Mag1   Mag2 Arr ID
WRA    27.75 246.4 a   P       2003/04/02 17:21:48.9  -0.1  75.9   -0.1   8.8  -0.5 TAS   6.6       0.3  0.49 mb 3.6 mb 3.9 12377510
ILAR   84.14  19.8 a   P       2003/04/02 17:28:31.1   0.1 239.7    8.7   5.4   0.3 TAS   5.8       0.2  0.40 mb 3.5 mb 3.9 12377491
MKAR   89.93 317.6 m   P       2003/04/02 17:28:59.6   0.0  98.8   -6.1   4.8   0.1 TAS   4.2       1.4  1.20 mb 4.1 mb 4.1 12387029



EVENT  1642146
   Date       Time       Latitude Longitude    Depth    Ndef Nsta Gap    Mag1  N    Mag2  N    Mag3  N  Author          ID
       rms   OT_Error      Smajor Sminor Az        Err   mdist  Mdist     Err        Err        Err     Quality

2003/04/02 17:54:03.2     -5.5555  103.1203      0.0 f     7    6 212  mb 3.9  5  ML      0             IDC_REB    1643595
      0.61   +-  2.84     140.5   20.0   55              24.21 145.36   +-0.3                           m i uk

SOUTHERN SUMATERA, INDONESIA
Sta    Dist   EvAz     Phase       Date      Time     TRes  Azim  AzRes  Slow  SRes Def  SNR        Amp   Per   Mag1   Mag2 Arr ID
CMAR   24.21 350.3 a   P       2003/04/02 17:59:21.0  -0.8 180.3   -2.8   8.8   0.2 T    12.1       1.4  0.42 mb 3.9 mb 4.2 12377778
H08S2  30.49 264.4 a   T       2003/04/02 18:31:47.0 -15.8                                9.9                               12378042
H08S3  30.50 264.4 m   T       2003/04/02 18:31:46.9 -16.6                                                                  12387225
H08S1  30.51 264.4 m   T       2003/04/02 18:31:48.5 -15.8                                                                  12387224
WRA    33.55 118.1 a   P       2003/04/02 18:00:45.0  -0.1 292.2    2.2  11.9   1.7 T     7.1       0.5  0.67 mb 3.6 mb 3.9 12377754
ASAR   34.67 124.4 a   P       2003/04/02 18:00:54.7  -0.1 299.3    2.4   8.1  -0.0 T     8.1       0.5  0.50 mb 3.6 mb 3.8 12377767
ASAR   34.67 124.4 a   PcP     2003/04/02 18:03:28.8  -0.1 305.0    1.0   2.1  -0.6 T     4.1       0.4  0.75               12377807
STKA   44.48 130.9 a   P       2003/04/02 18:02:15.9  -0.5 293.1  -10.7   5.4  -2.6 T     4.2       1.1  0.71 mb 3.8 mb 3.8 12377782
MKAR   55.30 342.7 a   P       2003/04/02 18:03:38.5  -0.0 146.9   -7.6   8.5   1.3 T    39.2       4.2  0.80 mb 4.4 mb 4.4 12377788
TXAR  145.36  43.8 a   PKPbc   2003/04/02 18:13:44.3   1.3 295.0   15.3   1.8   0.4 T    19.1       2.1  0.60               12377872



EVENT  1642170
   Date       Time       Latitude Longitude    Depth    Ndef Nsta Gap    Mag1  N    Mag2  N    Mag3  N  Author          ID
       rms   OT_Error      Smajor Sminor Az        Err   mdist  Mdist     Err        Err        Err     Quality

2003/04/02 18:01:14.6     18.3271  145.9631      0.0 f     9    9 157  mb 3.9  9                        IDC_REB    1643602
      0.85   +-  0.86      31.2   18.1   99              33.57  78.20   +-0.5                           m i uk

MARIANA ISLANDS
Sta    Dist   EvAz     Phase       Date      Time     TRes  Azim  AzRes  Slow  SRes Def  SNR        Amp   Per   Mag1   Mag2 Arr ID
BJT    33.57 316.4 m   P       2003/04/02 18:07:55.0  -1.2 142.7   21.3  10.9   2.2 T     2.4       4.6  0.46 mb 4.7 mb 4.5 12387262
WRA    39.71 197.3 a   P       2003/04/02 18:08:48.9   0.2  17.2   -2.0   8.9  -0.1 T    74.8       3.5  0.48 mb 4.5 mb 4.9 12377826
ASAR   43.37 196.2 a   P       2003/04/02 18:09:18.5  -0.2  17.8   -0.7   7.0  -1.0 T    21.7       2.2  0.60 mb 4.2 mb 4.4 12377817
CMAR   44.52 277.9 a   P       2003/04/02 18:09:30.0   1.8  71.6    0.5   7.4   0.7 T     6.0       0.8  0.72 mb 3.7 mb 4.0 12377846
STKA   50.09 184.8 a   P       2003/04/02 18:10:10.6  -0.7 349.2  -23.6   7.1   0.1 T     4.3       1.4  0.85 mb 3.9 mb 3.9 12377786
MKAR   58.90 314.0 a   P       2003/04/02 18:11:14.5  -0.9  94.5   -1.6   7.6   0.6 T     3.8       0.3  0.58 mb 3.4 mb 3.4 12377849
ILAR   63.87  26.1 a   P       2003/04/02 18:11:48.8   0.1 259.7    3.4   4.2  -1.6 T     4.9       0.6  0.90 mb 3.6 mb 4.0 12377862
INK    69.62  23.0 a   P       2003/04/02 18:12:26.0   0.7 235.1  -33.1   6.3   0.1 T     3.5       0.7  0.57 mb 3.9 mb 4.0 12378801
YKA    78.20  27.9 a   P       2003/04/02 18:13:15.8   0.0 287.0   -2.8   5.3  -0.3 T     5.1       0.2  0.56 mb 3.4 mb 3.7 12377879



EVENT  1642486
   Date       Time       Latitude Longitude    Depth    Ndef Nsta Gap    Mag1  N    Mag2  N    Mag3  N  Author          ID
       rms   OT_Error      Smajor Sminor Az        Err   mdist  Mdist     Err        Err        Err     Quality

2003/04/02 18:21:52.7     53.6054 -163.5664    112.5      12   12 189  mb 3.5 11                        IDC_REB    1644691
      1.05   +-  7.42      33.0   18.6   19    +- 66.5   14.02  79.69   +-0.4                           m i uk

UNIMAK ISLAND REGION
Sta    Dist   EvAz     Phase       Date      Time     TRes  Azim  AzRes  Slow  SRes Def  SNR        Amp   Per   Mag1   Mag2 Arr ID
ILAR   14.02  30.5 m   P       2003/04/02 18:25:07.5   1.4 233.6   10.4  11.8   0.6 T     3.5       0.0  0.33               12387557
INK    20.40  32.3 m   P       2003/04/02 18:26:20.0  -0.3 253.6   14.7   5.8  -5.0 T     3.9       1.3  0.76 mb 3.0 mb 3.1 12387558
YKA    26.76  51.1 a   P       2003/04/02 18:27:23.0   1.6 267.7   -3.4   8.0  -0.1 T     9.8       0.4  0.64 mb 3.1 mb 3.5 12377911
NVAR   34.26  97.7 m   P       2003/04/02 18:28:26.8  -1.1 285.6  -16.3  13.1   5.4 T     4.6       0.9  0.56 mb 3.5 mb 4.0 12394844
HIA    45.84 297.3 a   P       2003/04/02 18:30:02.1  -1.0  75.5    9.5   9.4   1.3 T     6.1       1.8  0.52 mb 3.8 mb 3.9 12378788
FRB    45.89  38.1 m   P       2003/04/02 18:30:01.6  -1.5  91.6  147.4   6.7  -1.1 T     3.4       1.3  0.40 mb 3.8 mb 3.8 12394842
TXAR   49.28  94.6 m   P       2003/04/02 18:30:30.5   0.5 274.9  -16.7   3.1  -3.2 T     3.0       0.1  0.40 mb 2.8 mb 3.3 12394843
FINES  65.04 354.9 a   P       2003/04/02 18:32:19.0  -1.3  26.6   20.3   5.4  -1.1 T     4.5       3.0  0.90 mb 3.9 mb 3.9 12378009
MKAR   65.42 316.4 a   P       2003/04/02 18:32:22.9  -0.1  54.5   17.8   6.1  -0.3 T     9.2       0.6  0.58 mb 3.4 mb 3.4 12377992
NOA    65.63   2.8 a   P       2003/04/02 18:32:24.6   0.4 357.8    0.5   7.3   0.8 T     4.2       1.7  0.78 mb 3.7 mb 3.9 12378046
HFS    66.59   1.5 a   P       2003/04/02 18:32:31.0   0.8  50.2   52.0   5.7  -0.6 T     7.6       1.7  0.50 mb 4.0 mb 3.8 12379251
CMAR   79.69 287.0 a   P       2003/04/02 18:33:49.2   1.2  11.4   -6.5   6.8   1.0 T     6.2       0.9  0.65 mb 3.6 mb 3.9 12378064



EVENT  1642199
   Date       Time       Latitude Longitude    Depth    Ndef Nsta Gap    Mag1  N    Mag2  N    Mag3  N  Author          ID
       rms   OT_Error      Smajor Sminor Az        Err   mdist  Mdist     Err        Err        Err     Quality

2003/04/02 18:27:16.9     83.8759   -3.1891      0.0 f     7    7 123  Ms 3.8 14  mb 3.7  6  ML 3.3  2  IDC_REB    1644736
      0.70   +-  1.02      32.9   19.8   30              15.46  62.13   +-0.3      +-0.3      +-0.3     m i uk

NORTH OF SVALBARD
Sta    Dist   EvAz     Phase       Date      Time     TRes  Azim  AzRes  Slow  SRes Def  SNR        Amp   Per   Mag1   Mag2 Arr ID
SPITS   6.42 142.0 a   LR      2003/04/02 18:30:58.5   7.6 281.9  -59.4  34.5   1.2               254.1 19.06 Ms 3.3 Ms 3.3 12423898
SPITS   6.43 141.9 a   Pn      2003/04/02 18:28:48.1  -4.5 359.7   18.5   9.8  -4.0      15.1       0.8  0.33 ML 3.1        12379111
ARCES  15.46 140.7 a   Pn      2003/04/02 18:30:52.0   1.4 349.0    0.2   9.1  -4.1 T     6.3       0.3  0.33 ML 3.5        12377950
ARCES  15.46 140.7 a   LR      2003/04/02 18:36:43.8 -23.3  11.8   23.0  36.7  -1.5               429.8 18.76 Ms 3.9 Ms 3.9 12423878
NOA    23.20 162.1 a   LR      2003/04/02 18:41:00.5  54.7 300.0  -56.1  35.5   2.4               101.8 20.39 Ms 3.4 Ms 3.5 12423883
FINES  23.52 143.9 a   LR      2003/04/02 18:41:48.4 -14.6 350.1   -2.4  37.1  -0.6              1169.9 18.08 Ms 4.5 Ms 4.5 12423879
FRB    24.44 257.7 a   LR      2003/04/02 18:42:18.3  12.6 315.2  -58.4  36.9   0.5               209.1 18.43 Ms 3.8 Ms 3.8 12423891
INK    26.22 320.1 a   P       2003/04/02 18:32:53.2   0.4  22.8   12.1  11.1   2.1 T    11.0       2.4  0.60 mb 4.2 mb 4.3 12379086
INK    26.22 320.1 a   LR      2003/04/02 18:43:04.7  16.3 324.0  -46.7  36.1   0.6               150.4 20.92 Ms 3.6 Ms 3.6 12423892
YKA    30.42 301.4 m   P       2003/04/02 18:33:30.2  -0.1   7.0   -4.4   8.7  -0.2 T     3.0       0.5  1.07 mb 3.4 mb 3.8 12395021
YKA    30.42 301.4 a   LR      2003/04/02 18:46:43.9  26.2 340.0  -31.4  38.4   0.9               169.4 18.58 Ms 3.8 Ms 3.8 12423889
ILAR   30.55 330.1 a   LR      2003/04/02 18:44:49.1 -43.4  42.0   34.8  34.4  -1.4               117.8 19.13 Ms 3.6 Ms 3.8 12423881
GERES  35.48 160.7 a   P       2003/04/02 18:34:14.8   0.2  13.5   11.1   8.5  -1.0 T     4.5       0.2  0.45 mb 3.4 mb 3.8 12377998
MKAR   43.26  88.0 a   P       2003/04/02 18:35:18.5  -0.9 349.2   -1.8   7.6  -0.5 T     6.3       0.9  0.76 mb 3.7 mb 3.7 12377995
MKAR   43.26  88.0 a   LR      2003/04/02 18:56:29.5 -33.2 347.6   -3.5  40.5  -0.8                88.2 18.61 Ms 3.7 Ms 3.7 12423882
HIA    44.52  51.6 m   P       2003/04/02 18:35:30.0   0.5  13.4   20.8   8.1   0.1 T     2.9       1.1  0.40 mb 4.1 mb 4.1 12395020
HIA    44.52  51.6 a   LR      2003/04/02 18:52:16.2 -90.3 176.2 -176.4  33.7  -2.0                64.6 22.00 Ms 3.5 Ms 3.6 12423880
PDAR   49.43 291.5 a   LR      2003/04/02 18:57:17.6   8.8 189.9 -177.9  36.4   0.2               230.9 20.64 Ms 4.2 Ms 4.1 12423885
NVAR   54.58 299.2 a   LR      2003/04/02 19:03:13.3 120.7  40.0   33.1  39.5   2.2                83.2 18.97 Ms 3.8 Ms 3.8 12423884
TXAR   62.13 283.8 a   P       2003/04/02 18:37:38.9  -0.4  30.5   14.2   7.6   2.6 T     4.8       0.4  0.75 mb 3.5 mb 4.0 12378004
TXAR   62.13 283.8 a   LR      2003/04/02 19:05:18.5   8.3 330.0  -36.9  36.7   0.1               142.4 18.93 Ms 4.1 Ms 4.1 12423887
CMAR   73.06  76.0 a   LR      2003/04/02 19:13:30.2 -67.9  35.0   41.3  38.0  -0.9                54.9 19.02 Ms 3.8 Ms 4.0 12423874



