EVENT  15760220 HALMAHERA, INDONESIA
   Date       Time        Err   RMS Latitude Longitude  Smaj  Smin  Az Depth   Err Ndef Nsta Gap  mdist  Mdist Qual   Author      OrigID
2018/05/03 04:54:46.06   1.15  0.84   1.8454  127.4756  46.7  23.8  78   0.0f         8    8 159  26.12  69.30 m i uk IDC_REB   15774437

Magnitude  Err Nsta Author      OrigID
mb     4.0 0.1    8 IDC_REB   15774437
mbtmp  4.0 0.1    8 IDC_REB   15774437
Ms     3.6 0.4    4 IDC_REB   15774437

Sta     Dist  EvAz Phase        Time      TRes  Azim AzRes   Slow   SRes Def   SNR       Amp   Per Qual Magnitude    ArrID
BATI   12.56 197.5 LR       05:03:21.388 -23.7 327.0 -50.8   41.0   -1.9 ___            96.5 18.26 a__ Ms     3.2 132182476
ASAR   26.12 166.5 P        05:00:22.100   0.1 348.1   2.0    7.2   -0.4 T__   8.5       0.6  0.47 a__ mbtmp  3.7 132075878
                                                                                         0.6  0.47     mb     3.7 
ASAR   26.12 166.5 LR       05:12:03.815  59.4 260.0 -85.3   39.7    2.3 ___            27.3 20.84 a__ Ms     2.9 132182475
MJAR   35.92  14.9 P        05:01:48.300   0.1 193.6  -5.0    9.0    0.5 T__   5.7       1.1  0.47 a__ mbtmp  4.0 132076073
                                                                                         1.1  0.47     mb     4.0 
USRK   42.36   4.8 P        05:02:43.625   1.7 186.8   0.1    7.3   -0.9 T__   2.1       1.9  0.74 ___ mbtmp  4.0 132174219
                                                                                         1.9  0.74     mb     4.0 
SONM   49.31 341.4 P        05:03:36.045  -0.9 154.4   2.7    8.0    0.3 T__   2.2       0.5  0.61 ___ mbtmp  3.6 132174218
                                                                                         0.5  0.61     mb     3.6 
PETK   56.89  21.2 P        05:04:31.505  -1.2 217.5   0.5    8.5    1.4 T__   2.5       3.0  0.99 ___ mbtmp  4.2 132174220
                                                                                         3.0  0.99     mb     4.2 
MKAR   59.52 325.6 P        05:04:51.653   0.4 116.8  -7.8    7.8    0.9 T__  27.8       2.3  0.48 a__ mbtmp  4.4 132076034
                                                                                         2.3  0.48     mb     4.4 
KURK   63.72 327.6 P        05:05:19.476  -0.0 127.5   4.7    6.2   -0.4 T__  21.4       1.7  0.43 a__ mbtmp  4.3 132076705
                                                                                         1.7  0.43     mb     4.3 
BVAR   69.30 327.2 P        05:05:54.676  -0.5 110.1  -6.1   11.2    5.0 T__   4.2       1.0  0.74 a__ mbtmp  3.9 132076702
                                                                                         1.0  0.74     mb     3.9 
GEYT   72.65 309.2 LR       05:40:24.990   0.1 254.5 153.0   37.7    0.0 ___           359.3 20.95 a__ Ms     4.5 132182497
BRTR   91.79 309.7 LR       05:55:23.613 -16.3 305.5  -141   39.6   -0.2 ___            24.0 18.20 a__ Ms     3.6 132182477



EVENT  15760748 SOUTHWESTERN SIBERIA, RUSSIA
   Date       Time        Err   RMS Latitude Longitude  Smaj  Smin  Az Depth   Err Ndef Nsta Gap  mdist  Mdist Qual   Author      OrigID
2018/05/03 05:06:23.26   3.05 35.46   54.079   86.4781  23.7  14.4  60   0.0f         5    4 299   0.99   7.77 m i uk IDC_REB   15782717

Magnitude  Err Nsta Author      OrigID
ML     2.4 0.2    2 IDC_REB   15782717
mbtmp  2.6 0.1    2 IDC_REB   15782717

Sta     Dist  EvAz Phase        Time      TRes  Azim AzRes   Slow   SRes Def   SNR       Amp   Per Qual Magnitude    ArrID
ZALV    0.99 263.0 Pg       05:06:40.689  -1.5  79.1  -2.6   18.8   -1.0 TA_   4.6       0.4  0.33 a__            132076082
ZALV    0.99 263.0 Lg       05:06:56.425   0.4  86.5   4.8   28.0   -2.9 TA_   8.8       1.3  0.33 a__            132076084
I46RU   0.99 263.1 I        05:13:20.000  79.3  80.8  -0.9  332.2  -50.4 TA_   2.4       0.0  0.39 a__            132076439
KURK    5.97 237.8 Pn       05:07:53.882   0.7  53.1   1.6   13.1   -0.6 TA_   2.9       0.1  0.33 ___ ML     2.2 132174226
                                                                                         0.4  0.46     mbtmp  2.7 
MKAR    7.77 201.8 Pn       05:08:18.731   0.1  25.1   6.5   13.8    0.1 TA_   1.4       0.1  0.33 ___ ML     2.6 132174225
                                                                                         0.1  0.33     mbtmp  2.5 



EVENT  15760276 SOUTHEAST OF RYUKYU ISLANDS
   Date       Time        Err   RMS Latitude Longitude  Smaj  Smin  Az Depth   Err Ndef Nsta Gap  mdist  Mdist Qual   Author      OrigID
2018/05/03 05:16:32.15   5.40  0.80  25.4384  129.1067  40.2  23.2   6  43.7  38.6   14   12 280   1.58  80.37 m i uk IDC_REB   15775427

Magnitude  Err Nsta Author      OrigID
ML     3.5 0.3    2 IDC_REB   15775427
mb     3.6 0.1    9 IDC_REB   15775427
mbtmp  3.8 0.1   11 IDC_REB   15775427
Ms     3.2 0.1    6 IDC_REB   15775427

Sta     Dist  EvAz Phase        Time      TRes  Azim AzRes   Slow   SRes Def   SNR       Amp   Per Qual Magnitude    ArrID
JOW     1.58 331.9 P        05:16:56.750  -0.7 157.6   6.1   13.7   -0.4 T__ 438.9     412.3  0.37 a__            132077000
JOW     1.58 331.9 S        05:17:17.050   0.0 272.7 121.1   28.5    3.3 T__  18.9     304.3  0.30 a__            132077002
JOW     1.58 331.9 LR       05:17:22.916  -3.1 130.5 -21.0   32.1   -1.9 ___           124.5 20.63 a__            132182601
JNU     7.81  11.0 P        05:18:24.475   1.3 219.6  27.7    9.4   -4.3 T__   7.2       1.0  0.33 a__ ML     3.7 132077004
                                                                                         4.7  0.33     mbtmp  4.1 
JNU     7.81  11.0 S        05:19:49.625  -1.4 190.5  -1.4   14.2  -10.4 T__   1.7      10.9  0.97 ___            132174580
USRK   18.86   6.4 P        05:20:49.738   1.2 177.5 -10.6    8.3   -2.5 T__   4.8       0.1  0.33 a__ ML     3.1 132076252
                                                                                         3.0  0.70     mbtmp  4.0 
SONM   28.64 327.1 LR       05:34:28.190 -48.7 243.5 110.2   37.6   -1.7 ___            25.5 19.06 a__ Ms     3.0 132182606
MKAR   42.65 312.3 P        05:24:24.504   0.3 100.9  -2.5   10.2    2.1 T__  15.0       1.4  0.58 a__ mbtmp  4.0 132076307
                                                                                         1.4  0.58     mb     3.8 
ZALV   43.35 323.0 P        05:24:29.830   0.1 116.0   2.9    8.0   -0.0 T__   7.5       1.5  0.65 a__ mbtmp  4.0 132076341
                                                                                         1.5  0.65     mb     3.8 
KURK   45.97 316.8 P        05:24:50.936   0.3 104.2   0.5    8.1    0.3 T__   7.2       0.8  0.52 a__ mbtmp  3.8 132077017
                                                                                         0.8  0.52     mb     3.6 
BVAR   51.39 318.7 P        05:25:33.417   1.1  80.7 -17.9    8.9    1.4 T__   3.2       0.5  0.36 ___ mbtmp  3.8 132174569
                                                                                         0.5  0.36     mb     3.6 
BVAR   51.39 318.7 LR       05:48:57.703   9.7 118.7  20.2   37.9    0.2 ___            28.4 18.53 a__ Ms     3.3 132182598
ARU    58.50 322.1 LR       05:53:42.717   0.3 116.0  25.1   38.1    0.0 ___            24.0 19.84 a__ Ms     3.3 132182597
ILAR   64.76  28.1 P        05:27:05.864   0.1 282.7   3.1    8.2    0.8 T__   2.9       0.3  0.68 ___ mbtmp  3.3 132174568
                                                                                         0.3  0.68     mb     3.1 
GNI    69.98 305.7 LR       06:05:27.176 208.8 267.0  -166   41.9    3.0 ___            11.9 18.19 a__ Ms     3.1 132182600
FINES  73.94 330.8 P        05:28:02.349  -0.2  32.5 -33.9   13.2    7.3 T__   3.2       1.8  0.84 ___ mbtmp  4.1 132174567
                                                                                         1.8  0.84     mb     3.9 
BRTR   78.14 308.3 P        05:28:26.450  -0.7  84.6  17.8    4.0   -1.6 T__   4.7       0.8  0.79 a__ mbtmp  3.8 132076297
                                                                                         0.8  0.79     mb     3.6 
YKA    78.91  25.1 P        05:28:30.650  -0.0 303.6  -3.0    5.9    0.5 T__   6.7       0.3  0.64 a__ mbtmp  3.4 132076354
                                                                                         0.3  0.64     mb     3.2 
YKA    78.96  25.1 LR       06:08:43.382  96.9 324.0  19.6   39.7    1.2 ___            19.3 18.17 a__ Ms     3.4 132182602
NOA    80.37 334.1 P        05:28:37.553  -1.1  49.0  -4.2    5.2   -0.1 T__   3.3       0.8  0.75 ___ mbtmp  3.9 132174579
                                                                                         0.8  0.75     mb     3.6 
GERES  86.30 323.3 LR       06:11:56.369  38.2 254.5  -160   38.5    0.4 ___            16.1 18.70 a__ Ms     3.3 132182604



EVENT  15775175 SOUTHWEST OF SUMATERA, INDONESIA
   Date       Time        Err   RMS Latitude Longitude  Smaj  Smin  Az Depth   Err Ndef Nsta Gap  mdist  Mdist Qual   Author      OrigID
2018/05/03 06:05:57.35   2.63  0.54   -0.466   97.3472 104.3  29.6  59   0.0f         7    7 215  18.87  57.86 m i uk IDC_REB   15781275

Magnitude  Err Nsta Author      OrigID
ML     4.5 0.3    1 IDC_REB   15781275
mb     3.5 0.1    6 IDC_REB   15781275
mbtmp  3.6 0.1    7 IDC_REB   15781275
Ms     2.9 0.3    2 IDC_REB   15781275

Sta     Dist  EvAz Phase        Time      TRes  Azim AzRes   Slow   SRes Def   SNR       Amp   Per Qual Magnitude    ArrID
CMAR   18.87   4.7 P        06:10:18.794  -0.5 187.2  -7.3   11.8    1.4 TAS   4.2       0.6  0.33 a__ ML     4.5 132076865
                                                                                         1.3  0.30     mbtmp  4.0 
CMAR   18.87   4.7 LR       06:17:38.055  -4.9 190.0   5.1   37.1   -0.3 ___            18.5 20.68 a__ Ms     2.6 132225821
H08S2  25.78 253.3 T        06:39:22.960  77.4  72.6  -2.5   75.4        ___  16.6                 a__            132077489
H08S3  25.79 253.4 T        06:39:20.860  75.3  72.6  -2.5   75.4        ___  35.5                 a__            132077490
H08S1  25.80 253.3 T        06:39:40.650  95.1  72.6  -2.5   75.4        ___  14.5                 a__            132077485
ASAR   42.29 125.8 P        06:13:52.878  -0.2 299.2   2.8    7.5    0.0 TAS   2.1       0.3  0.60 ___ mbtmp  3.4 132179955
                                                                                         0.3  0.60     mb     3.4 
WSAR   44.40 304.7 LR       06:33:27.641 118.4   7.0  -110   37.2    2.7 ___            24.6 19.19 a__ Ms     3.2 132225820
SONM   48.75   8.1 P        06:14:44.808   0.9 183.9  -8.1    8.4    0.7 TAS   2.8       0.6  0.57 ___ mbtmp  3.7 132179954
                                                                                         0.6  0.57     mb     3.7 
MKAR   48.88 346.3 P        06:14:44.200  -0.6 156.8  -3.0    7.4   -0.3 TAS   3.8       0.5  0.63 a__ mbtmp  3.6 132077089
                                                                                         0.5  0.63     mb     3.6 
KURK   53.37 345.2 P        06:15:18.357  -0.1 169.0  12.7    6.9   -0.5 TAS   2.3       0.3  0.65 ___ mbtmp  3.3 132225801
                                                                                         0.3  0.65     mb     3.3 
ZALV   55.22 351.0 P        06:15:32.465   0.6 163.6  -1.0    6.5   -0.7 TAS   1.7       0.8  0.52 ___ mbtmp  3.9 132180074
                                                                                         0.8  0.52     mb     3.9 
BVAR   57.86 341.1 P        06:15:50.434  -0.3 129.9 -17.7    8.1    1.0 TAS   1.9       0.3  0.40 ___ mbtmp  3.5 132180053
                                                                                         0.3  0.40     mb     3.5 
H04N3  60.61 214.8 T        07:22:52.030  90.2  56.3   1.0   74.6        ___  30.3                 a__            132078171
H04N2  60.62 214.8 T        07:22:51.124  89.3  56.3   1.0   74.6        ___  16.4                 a__            132078168
H04N1  60.63 214.8 T        07:22:52.515  90.7  56.3   1.0   74.6        ___  27.8                 a__            132078166



EVENT  15775209 EASTERN HONSHU, JAPAN
   Date       Time        Err   RMS Latitude Longitude  Smaj  Smin  Az Depth   Err Ndef Nsta Gap  mdist  Mdist Qual   Author      OrigID
2018/05/03 06:21:07.67   2.11  0.36  36.6821  138.7681  67.5  15.5  68 155.6   7.0    8    7 214   0.45  68.12 m i uk IDC_REB   15775209

Magnitude  Err Nsta Author      OrigID
mb     3.4 0.2    6 IDC_REB   15775209
mbtmp  3.9 0.2    6 IDC_REB   15775209

Sta     Dist  EvAz Phase        Time      TRes  Azim AzRes   Slow   SRes Def   SNR       Amp   Per Qual Magnitude    ArrID
MJAR    0.45 249.6 P        06:21:30.275   0.2  73.6   4.2    4.1    0.1 TAS  1629     398.2  0.36 a__            132077241
MJAR    0.45 249.6 S        06:21:47.200  -0.2  69.1  -0.2   13.5    6.4 TA_   6.4      99.0  0.39 ___            132180352
ZALV   40.59 312.7 P        06:28:32.193   0.6 108.5  15.8    7.0   -1.2 TAS   3.7       1.1  0.41 ___ mbtmp  4.1 132180406
                                                                                         1.1  0.41     mb     3.6 
MKAR   42.51 302.0 P        06:28:47.248  -0.1  71.8 -10.8    9.3    1.2 TAS   5.1       0.5  0.53 a__ mbtmp  3.6 132077225
                                                                                         0.5  0.53     mb     3.1 
KURK   44.54 308.0 P        06:29:03.500  -0.1  81.8  -2.4    7.6   -0.4 TAS  39.9       3.4  0.47 a__ mbtmp  4.5 132077896
                                                                                         3.4  0.47     mb     4.1 
BVAR   49.24 312.1 P        06:29:40.175   0.2  97.0  16.4    8.5    0.9 TAS   4.4       0.7  0.41 a__ mbtmp  3.9 132077893
                                                                                         0.7  0.41     mb     3.5 
ASAR   60.20 185.1 P        06:30:59.127  -0.0   1.0  -2.6    7.3    0.7 TAS   1.5       0.1  0.27 ___ mbtmp  3.4 132180465
                                                                                         0.1  0.27     mb     3.0 
FINES  68.12 331.5 P        06:31:49.636  -0.7  48.4  -6.2    8.4    0.3 TAS   2.1       0.8  0.76 ___ mbtmp  3.8 132180572
                                                                                         0.8  0.76     mb     3.4 



EVENT  15760465 NEW GUINEA, PAPUA NEW GUINEA
   Date       Time        Err   RMS Latitude Longitude  Smaj  Smin  Az Depth   Err Ndef Nsta Gap  mdist  Mdist Qual   Author      OrigID
2018/05/03 06:53:50.19   0.71  0.92  -6.2353  143.3492  30.2  17.3  62   0.0f        15   14  93   4.91  87.14 m i uk IDC_REB   15781311

Magnitude  Err Nsta Author      OrigID
ML     2.0 0.3    1 IDC_REB   15781311
mb     4.2 0.1   12 IDC_REB   15781311
mbtmp  4.2 0.1   14 IDC_REB   15781311
Ms     3.0 0.1    4 IDC_REB   15781311

Sta     Dist  EvAz Phase        Time      TRes  Azim AzRes   Slow   SRes Def   SNR       Amp   Per Qual Magnitude    ArrID
PMG     4.91 130.2 Pn       06:55:07.445   2.1 357.7  48.0    4.8   -8.9 T__   4.0       3.9  0.33 a__ ML     2.0 132078524
                                                                                        25.2  0.52     mbtmp  4.2 
PMG     4.91 130.2 Sn       06:56:04.745   0.6 221.4 -88.2   19.2   -5.5 T__   2.6       3.9  0.33 a__            132078526
ASAR   19.57 206.7 P        06:58:21.000   1.1  31.2  -4.5   10.6   -0.2 T__  94.6      15.4  0.60 a__ mbtmp  4.7 132077586
ASAR   19.57 206.7 Sn       07:01:48.175 -14.4  16.7 -12.4   27.9    3.8 ___   2.0       0.1  0.33 ___            132225973
ASAR   19.57 206.7 Lg       07:04:10.150  -1.7  24.3  -4.9   27.7   -4.1 ___   5.2       0.1  0.33 a__            132077714
ASAR   19.57 206.7 LR       07:05:22.174 -21.0  11.0 -18.1   35.4   -1.1 ___            56.0 21.73 a__ Ms     3.1 132225974
STKA   25.56 183.5 LR       07:11:45.121  82.1  25.2  21.2   42.1    3.2 ___            48.2 18.84 a__ Ms     3.2 132225977
KSRS   45.79 342.8 P        07:02:13.598   0.0 160.6   2.3    9.9    2.0 T__   1.6       0.5  0.31 ___ mbtmp  3.9 132175275
                                                                                         0.5  0.31     mb     3.9 
JKA    50.13 359.3 LR       07:27:58.151  53.8 343.0 164.0   40.9    1.1 ___             7.2 18.76 a__ Ms     2.7 132225975
CMAR   50.19 300.2 P        07:02:47.563  -0.5 139.7  12.3    6.1   -0.2 T__   2.4       0.8  0.30 a__ mbtmp  4.1 132077731
                                                                                         0.8  0.30     mb     4.1 
KLR    56.16 350.9 LR       07:26:04.557 -23.7 360.0  -166   34.4   -0.4 ___            12.7 18.11 a__ Ms     3.0 132225976
PETK   60.36   9.9 P        07:04:02.185   1.3 178.1  21.7    4.3   -0.2 T__   3.0       3.9  1.05 ___ mbtmp  4.3 132175276
                                                                                         3.9  1.05     mb     4.3 
SONM   62.90 332.9 P        07:04:17.397  -1.0 106.4 -31.4    5.1   -1.6 T__   2.1       0.3  0.42 ___ mbtmp  3.6 132175277
                                                                                         0.3  0.42     mb     3.6 
PPT    66.31 106.4 P        07:04:39.740  -1.5 258.1 -12.7   19.6   13.2 T__   1.3       3.9  0.40 ___ mbtmp  4.8 132175273
                                                                                         3.9  0.40     mb     4.8 
VNDA   71.92 175.8 P        07:05:14.850  -0.1 307.9 -32.8    5.3   -0.7 T__   2.5       0.5  0.69 a__ mbtmp  3.6 132077765
                                                                                         0.5  0.69     mb     3.6 
MKAR   75.40 321.6 P        07:05:36.469   0.5 102.4 -13.6    7.8    2.0 T__  14.4       3.7  0.84 a__ mbtmp  4.5 132077754
                                                                                         3.7  0.84     mb     4.5 
ZALV   77.31 328.9 P        07:05:45.747  -0.8  76.5 -43.1    3.0   -2.6 T__   3.7       1.0  0.43 a__ mbtmp  4.2 132077784
                                                                                         1.0  0.43     mb     4.2 
KURK   79.27 324.1 P        07:05:57.549   0.1 119.3   5.6    4.5   -1.0 T__   6.2       1.2  0.53 a__ mbtmp  4.2 132078557
                                                                                         1.2  0.53     mb     4.2 
QSPA   83.73 180.0 P        07:06:20.394  -0.7 175.3 176.9    0.2   -4.9 T__   4.5       2.0  0.81 a__ mbtmp  4.3 132083312
                                                                                         2.0  0.81     mb     4.3 
BVAR   84.84 324.6 P        07:06:27.101   0.4 112.5   5.2    6.6    1.6 T__  20.5       5.4  0.67 a__ mbtmp  4.8 132078550
                                                                                         5.4  0.67     mb     4.8 
ILAR   87.14  23.7 P        07:06:38.050   0.2 256.5   8.3    5.0    1.0 T__   8.3       0.9  0.78 a__ mbtmp  4.0 132077741
                                                                                         0.9  0.78     mb     4.0 



