EVENT  1642037
   Date       Time       Latitude Longitude    Depth    Ndef Nsta Gap    Mag1  N    Mag2  N    Mag3  N  Author          ID
       rms   OT_Error      Smajor Sminor Az        Err   mdist  Mdist     Err        Err        Err     Quality

2003/04/02 05:37:03.6      2.0753  126.7991     40.1      30   24 106  mb 4.9 18  Ms 4.0  3  ML 5.7  1  IDC_REB    1643609
      1.04   +-  2.86      23.0   10.5   78    +- 24.3   13.28 122.54   +-0.4      +-0.2      +-0.3     m i uk

NORTHERN MOLUCCA SEA
Sta    Dist   EvAz     Phase       Date      Time     TRes  Azim  AzRes  Slow  SRes Def  SNR        Amp   Per   Mag1   Mag2 Arr ID
TGY    13.28 334.4 m   P       2003/04/02 05:40:11.4   1.8 250.7   97.1  16.7   3.0 T     1.7                               12385831
WRA    23.10 161.7 a   P       2003/04/02 05:42:05.3  -0.8 340.8    0.3  11.0   0.5 T   219.0      40.0  0.49 mb 5.0 mb 5.5 12371444
WRA    23.10 161.7 a   S       2003/04/02 05:46:15.1  -0.3 344.2    3.7  17.2   0.5 T     4.7       6.8  0.86               12371448
JOW    24.66   3.2 a   P       2003/04/02 05:42:21.4   0.8 202.1   18.6   8.6  -0.4 T    29.9      91.5  0.66 mb 5.4 mb 5.0 12372564
ASAR   26.50 165.3 a   P       2003/04/02 05:42:37.2  -0.3 345.0    0.2   6.4  -1.2 T    35.1      10.3  0.70 mb 4.6 mb 4.7 12371454
ASAR   26.50 165.3 a   PcP     2003/04/02 05:46:02.2   0.8 350.6    2.7   2.1  -0.1 T     7.2       5.4  0.55               12371459
ASAR   26.50 165.3 m   S       2003/04/02 05:47:10.3   0.4 195.8 -148.1  27.0  11.2 T     2.5       1.3  0.86               12385827
JCJ    28.92  29.3 m   P       2003/04/02 05:42:57.1  -1.9 278.9   65.7  17.3   8.4 T     4.3      58.8  0.49 mb 5.6 mb 4.9 12385833
JNU    31.12   6.6 a   P       2003/04/02 05:43:18.5   0.1  23.3 -156.6   9.6   0.8 T    11.8      30.4  0.69 mb 5.1 mb 5.0 12372579
CMAR   31.79 302.7 a   P       2003/04/02 05:43:25.3   0.8 112.8   -7.1   6.6  -0.6 T    52.2      13.2  0.87 mb 4.7 mb 5.0 12371465
CMAR   31.79 302.7 a   LR      2003/04/02 05:56:45.1  38.7 315.7 -161.9  37.2   1.2               188.8 20.63 Ms 3.8 Ms 4.0 12394482
MJAR   35.88  15.8 a   P       2003/04/02 05:43:59.3  -0.4 186.0   -2.6   8.9  -0.3 T    39.6      29.8  0.71 mb 5.1 mb 5.3 12371284
MJAR   35.88  15.8 m   PcP     2003/04/02 05:46:28.4   2.3 148.5  -51.2   1.9  -1.1 T     3.1       1.7  0.28               12385829
STKA   36.57 158.6 a   P       2003/04/02 05:44:05.8   0.2 343.4    1.4   6.1  -1.7 T    20.9       8.8  0.58 mb 4.6 mb 4.6 12371414
BJT    38.98 347.0 a   P       2003/04/02 05:44:26.2   0.3 130.4  -32.6   5.0  -3.3 T    19.4      42.9  0.92 mb 5.1 mb 5.0 12372267
BJT    38.98 347.0 a   LR      2003/04/02 06:03:05.0  73.3 162.8   -0.2  40.1   1.9               268.8 19.67 Ms 4.1 Ms 4.1 12394481
JKA    44.15  16.4 a   P       2003/04/02 05:45:09.0   0.9 206.5  -21.5  16.1   8.1 T    12.5      17.8  0.63 mb 4.9 mb 4.6 12372620
HIA    47.40 353.7 a   P       2003/04/02 05:45:34.2   0.4 170.0   -0.4   4.9  -2.8 T    15.5       5.0  0.40 mb 4.5 mb 4.6 12372273
MKAR   58.95 325.8 a   P       2003/04/02 05:46:57.7  -1.2 120.7   -4.4   8.0   1.0 T   176.9      18.1  0.66 mb 4.9 mb 4.9 12371272
MKAR   58.95 325.8 a   PcP     2003/04/02 05:47:48.1   0.6 119.9   -5.2   4.9   1.0 T     4.9       9.1  0.84               12371275
MKAR   58.95 325.8 a   ScP     2003/04/02 05:51:45.2   0.3 105.0  -20.1   6.3   1.9       3.8       0.9  0.81               12371494
MKAR   58.95 325.8 a   LR      2003/04/02 06:13:19.2   9.8 121.0   -4.2  36.9   0.2               162.5 21.21 Ms 4.1 Ms 4.1 12394483
ATTU   63.48  29.4 a   P       2003/04/02 05:47:30.5   1.1 124.3 -109.7   6.0  -0.6 T     8.2      45.0  0.90 mb 5.2 mb 5.2 12384352
ILAR   86.56  25.4 a   P       2003/04/02 05:49:40.6  -1.6 252.9  -10.1   4.2  -0.6 T    24.0       3.2  0.99 mb 4.2 mb 4.6 12371442
ILAR   86.56  25.4 m   PP      2003/04/02 05:53:01.7  -2.2 253.5   -1.1   7.2   0.3       3.0       0.5  0.89               12385835
KMBO   89.59 268.9 a   P       2003/04/02 05:49:58.3   0.3  31.2  -56.7   9.0   4.3 T     5.7       1.4  0.55 mb 4.2 mb 4.2 12371509
ARCES  92.01 339.8 a   P       2003/04/02 05:50:06.7  -1.1  85.9    4.9   4.8  -0.5 T    14.1       6.9  0.77 mb 4.9 mb 4.9 12371428
FINES  93.31 331.8 a   P       2003/04/02 05:50:12.3  -1.6  57.3  -22.3   4.9   0.3 T    13.0       2.7  0.67 mb 4.6 mb 4.5 12371421
HFS    99.51 332.2 a   P       2003/04/02 05:50:40.7  -1.2  97.3   28.5   2.2  -2.3 T     5.0       1.4  0.49 mb 4.9 mb 4.6 12372723
NOA   100.29 333.5 m   P       2003/04/02 05:50:43.6  -1.9  68.0    1.7   3.0  -1.4 T     3.4       0.7  0.76               12385832
YKA   100.97  24.5 a   P       2003/04/02 05:50:48.4   0.1 298.2   -1.4   4.5   0.0 T    15.7       0.7  0.66               12371512
YKA   100.97  24.5 m   PP      2003/04/02 05:54:52.1  -4.4 290.2   -7.2   6.2  -1.1       2.7       0.1  0.70               12385834
YKA   100.97  24.5 a   PKiKP   2003/04/02 05:55:13.8   0.2 297.4   -6.2   1.9   0.4 T    11.0       0.3  0.42               12371520
YKA   100.97  24.5 a   PKKPbc  2003/04/02 06:06:58.6  -2.9 120.1 -176.6   2.9   5.8       7.4       0.2  0.53               12371614
PDAR  112.54  41.6 m   PKiKP   2003/04/02 05:55:37.0   0.9 263.7   -5.3   1.2   2.0 T     3.5       0.3  0.60               12385828
PDAR  112.54  41.6 a   PKKPbc  2003/04/02 06:06:25.1  -0.2 111.4  160.7   4.7   5.3       6.1       0.6  0.63               12371585
PDAR  112.54  41.6 a   PKKP    2003/04/02 06:06:33.5 -12.7 121.9 -173.6   6.3   5.3       4.5       1.2  1.08               12371586
ESDC  118.73 318.2 m   PKP     2003/04/02 05:55:48.3   0.6 276.5 -143.1  34.2  32.3 T     6.5       0.7  0.32               12385830
TXAR  122.54  53.0 a   PKP     2003/04/02 05:55:56.1   0.7 309.2   42.1   0.8   1.0 T    11.0       0.7  0.60               12371497
TXAR  122.54  53.0 a   PKKPbc  2003/04/02 06:05:50.3   1.0 124.7  176.0   7.1   9.4       6.0       0.2  0.55               12371599



EVENT  1641174
   Date       Time       Latitude Longitude    Depth    Ndef Nsta Gap    Mag1  N    Mag2  N    Mag3  N  Author          ID
       rms   OT_Error      Smajor Sminor Az        Err   mdist  Mdist     Err        Err        Err     Quality

2003/04/02 05:37:11.7    -16.9154 -179.2443    499.4       8    8 182  mb 3.5  7                        IDC_REB    1643212
      0.24   +- 11.42      92.8   33.5  161    +-141.8   38.42 146.45   +-0.4                           m i uk

FIJI ISLANDS REGION
Sta    Dist   EvAz     Phase       Date      Time     TRes  Azim  AzRes  Slow  SRes Def  SNR        Amp   Per   Mag1   Mag2 Arr ID
STKA   38.42 239.8 a   P       2003/04/02 05:43:49.8  -0.1  94.9    5.7   8.6  -0.3 T    18.4       3.2  0.49 mb 3.5 mb 3.5 12371412
ASAR   44.30 253.3 a   P       2003/04/02 05:44:36.8   0.1  89.3    3.9   8.1  -0.2 T    17.8      17.8  0.60 mb 4.2 mb 4.4 12371458
NVAR   79.27  44.3 a   P       2003/04/02 05:48:25.5   0.2 214.6    8.9   7.1  -0.7 T     9.1       2.3  0.70 mb 3.5 mb 4.0 12371426
ILAR   85.11  13.3 a   P       2003/04/02 05:48:53.8  -0.1 225.4   14.4   5.2   0.3 T    13.3       0.5  0.51 mb 3.1 mb 3.4 12371441
TXAR   86.14  57.9 a   P       2003/04/02 05:49:00.1   0.2 216.1   -1.7   6.6   0.2 T    21.2       1.4  0.77 mb 3.4 mb 3.9 12371283
PDAR   87.19  43.7 a   P       2003/04/02 05:49:04.1  -0.6 214.0   -3.2   3.6  -0.1 T     8.7       0.7  0.50 mb 3.3 mb 3.8 12371271
YKA    93.77  24.9 a   P       2003/04/02 05:49:34.5   0.2 247.6    1.2   4.5   0.0 T     9.2       0.3  0.60 mb 3.3 mb 3.7 12371303
GERES 146.45 344.5 m   PKPbc   2003/04/02 05:55:55.9   0.0  60.0   37.6   4.7   2.1 T     2.7       0.8  0.50               12384863



EVENT  1641178
   Date       Time       Latitude Longitude    Depth    Ndef Nsta Gap    Mag1  N    Mag2  N    Mag3  N  Author          ID
       rms   OT_Error      Smajor Sminor Az        Err   mdist  Mdist     Err        Err        Err     Quality

2003/04/02 05:42:02.8     39.4310   15.2473    281.7       6    6 297  mb 3.2  5                        IDC_REB    1643394
      0.63   +- 19.29     211.8   31.3   32    +- 98.7    9.95  48.15   +-0.4                           m i uk

SOUTHERN ITALY
Sta    Dist   EvAz     Phase       Date      Time     TRes  Azim  AzRes  Slow  SRes Def  SNR        Amp   Per   Mag1   Mag2 Arr ID
MLR     9.95  49.1 m   P       2003/04/02 05:44:20.7   0.2  90.0 -146.3  20.2   7.8 T     6.0       0.1  0.33               12385893
HFS    20.75 357.8 a   P       2003/04/02 05:46:21.0  -1.2 174.8   -1.8  10.3   0.4 TAS   6.8       2.9  0.74 mb 3.2 mb 3.0 12372722
NOA    21.78 354.7 m   P       2003/04/02 05:46:32.6   0.6 170.2   -1.4  10.2   1.2 TAS   3.1       0.4  0.50 mb 2.6 mb 2.8 12385892
FINES  23.03  13.3 a   P       2003/04/02 05:46:43.8   0.7 189.5  -12.3   8.4  -0.7 TAS   8.1       0.5  0.30 mb 3.0 mb 3.0 12371420
ARCES  30.66   7.1 a   P       2003/04/02 05:47:51.0  -0.0 197.1    1.4   8.6  -0.2 TAS   9.2       5.1  1.00 mb 3.7 mb 3.8 12371427
MKAR   48.15  58.1 a   P       2003/04/02 05:50:14.5  -0.2 284.1   -2.7   7.2  -0.4 TAS   7.4       1.3  0.70 mb 3.3 mb 3.3 12371493



EVENT  1641231
   Date       Time       Latitude Longitude    Depth    Ndef Nsta Gap    Mag1  N    Mag2  N    Mag3  N  Author          ID
       rms   OT_Error      Smajor Sminor Az        Err   mdist  Mdist     Err        Err        Err     Quality

2003/04/02 06:20:05.0     -0.9826  146.8344      0.0 f    10   10 157  mb 4.4 10  Ms 3.6  4  ML      0  IDC_REB    1643397
      0.70   +-  0.84      33.5   17.8  109              22.46  94.83   +-0.2      +-0.4                m i uk

ADMIRALTY ISLANDS REGION, P.N.G.
Sta    Dist   EvAz     Phase       Date      Time     TRes  Azim  AzRes  Slow  SRes Def  SNR        Amp   Per   Mag1   Mag2 Arr ID
WRA    22.46 212.2 a   P       2003/04/02 06:25:05.3  -0.6  34.0    0.2  10.7   0.1 T    89.6       8.9  0.53 mb 4.4 mb 4.9 12371806
WRA    22.46 212.2 a   LR      2003/04/02 06:34:05.8  47.6  35.0    0.5  37.4   2.1               331.2 20.61 Ms 3.9 Ms 3.9 12394484
ASAR   25.80 208.1 a   P       2003/04/02 06:25:38.5   0.5  36.0   -1.4   7.4   0.1 T    51.2      10.6  0.89 mb 4.6 mb 4.8 12371801
STKA   31.12 188.6 a   P       2003/04/02 06:26:25.1  -0.3 288.2  -88.0   5.6  -3.2 T     4.0       2.6  1.05 mb 4.1 mb 4.1 12371745
STKA   31.12 188.6 a   LR      2003/04/02 06:39:44.4  71.8   4.2   -6.0  37.9   2.3               199.6 21.51 Ms 3.8 Ms 3.7 12394480
JKA    45.06 355.7 a   LR      2003/04/02 06:44:43.9 -91.1 358.4 -175.6  32.8  -2.0                78.2 19.06 Ms 3.7 Ms 3.7 12394479
CMAR   50.87 294.8 a   P       2003/04/02 06:29:08.3   0.3 113.1    3.7   6.7   0.7 T    19.1       3.9  0.55 mb 4.5 mb 4.8 12371812
HIA    55.23 338.7 a   P       2003/04/02 06:29:39.7  -0.1 157.2   10.9   4.0  -3.3 T     8.3       2.5  0.38 mb 4.5 mb 4.6 12372633
ATTU   58.03  18.5 a   LR      2003/04/02 06:52:16.5 -101.  47.4 -164.1  33.3  -1.7                11.4 18.48 Ms 3.0 Ms 3.0 12394474
MKAR   73.57 319.7 a   P       2003/04/02 06:31:40.0  -0.1  99.9   -9.8   7.6   1.7 T    28.6       2.7  0.70 mb 4.4 mb 4.4 12371841
ILAR   80.97  23.4 a   P       2003/04/02 06:32:20.0  -1.2 250.9    7.5   5.7   0.4 T    87.7       4.2  0.60 mb 4.7 mb 5.1 12371855
INK    87.08  21.5 a   P       2003/04/02 06:32:52.3   0.1 282.7   22.7   5.6   0.8 T    17.6       1.2  0.55 mb 4.3 mb 4.4 12373135
DLBC   87.23  31.5 m   P       2003/04/02 06:32:54.9   1.6 175.8  -58.8  18.7  13.8 T     2.3       5.4  1.29 mb 4.6 mb 4.8 12385899
YKA    94.83  27.4 a   P       2003/04/02 06:33:28.5   0.1 275.6   -4.1   4.8   0.0 T    12.5       0.6  0.70 mb 4.3 mb 4.4 12371861



EVENT  1641253
   Date       Time       Latitude Longitude    Depth    Ndef Nsta Gap    Mag1  N    Mag2  N    Mag3  N  Author          ID
       rms   OT_Error      Smajor Sminor Az        Err   mdist  Mdist     Err        Err        Err     Quality

2003/04/02 06:39:38.6     65.4113 -149.7602      0.0 f    18   15 141  mb 4.2 11  Ms 3.9  5  ML 4.7  3  IDC_REB    1643572
      1.20   +-  0.70      22.9    9.2   31               1.38  81.86   +-0.4      +-0.3      +-0.3     m i uk

NORTHERN ALASKA
Sta    Dist   EvAz     Phase       Date      Time     TRes  Azim  AzRes  Slow  SRes Def  SNR        Amp   Per   Mag1   Mag2 Arr ID
ILAR    1.38 116.5 m   Pn      2003/04/02 06:40:04.1  -2.0 291.5   -7.6  16.5   2.7 T   5433.    1104.8  0.33               12386148
ILAR    1.38 116.5 m   Pg      2003/04/02 06:40:06.3   0.5 291.2   -7.9  17.1   4.5 T   1022.    1104.8  0.33               12386282
ILAR    1.38 116.5 m   Lg      2003/04/02 06:40:22.8   0.1 300.5    1.3  31.8   3.0 T    30.4    1741.0  0.33               12386255
INK     7.02  58.3 a   Pn      2003/04/02 06:41:23.5   1.4 242.8  -10.4  15.1   1.4 T   467.3      12.7  0.33 ML 4.9        12373144
INK     7.02  58.3 a   Sn      2003/04/02 06:42:43.8   2.7 314.7   61.4  31.5   6.9 T     4.6      11.9  0.33               12373150
INK     7.02  58.3 a   Lg      2003/04/02 06:43:26.5   5.4 195.6  -57.7  21.0 -10.8       4.8      13.2  0.33               12373154
INK     7.02  58.3 a   LR      2003/04/02 06:44:05.2 -24.3 255.4    2.2  38.0  -3.5               732.2 18.86 Ms 3.8 Ms 3.8 12394489
DLBC   11.59 117.8 a   Pn      2003/04/02 06:42:25.0  -1.5 352.6   66.3   9.0  -4.7 T    56.4       3.0  0.33 ML 4.8        12373165
DLBC   11.59 117.8 a   Lg      2003/04/02 06:45:39.7  -7.1  62.6  136.3  18.1 -13.6       8.0       3.6  0.33               12373177
YKA    15.58  84.5 a   Pn      2003/04/02 06:43:16.1   0.8 297.8    1.5  13.1   0.0 T    53.5       0.9  0.33 ML 4.4        12371950
YKA    15.58  84.5 a   Sn      2003/04/02 06:46:17.4  15.9 298.2    2.0  23.3  -0.9       3.8       0.6  0.33               12371954
YKA    15.58  84.5 m   Lg      2003/04/02 06:47:56.8   7.9 303.8    7.6  23.9  -7.9       2.3                               12386143
YKA    15.58  84.5 a   LR      2003/04/02 06:49:49.3   4.0 290.0   -6.2  39.2   0.3               249.3 20.62 Ms 3.6 Ms 3.6 12394487
BBB    17.23 129.9 m   Lg      2003/04/02 06:49:02.3  17.0 248.1  -80.5  19.2 -12.6       2.3       0.2  0.33               12386142
BBB    17.23 129.9 a   LR      2003/04/02 06:49:43.0 -31.1 299.7  -28.9  35.1  -1.8               282.6 20.87 Ms 3.7 Ms 3.7 12394488
NEW    24.33 119.0 a   P       2003/04/02 06:44:58.7   1.0 347.9   21.1   9.0  -0.1 T     8.3       8.0  1.02 mb 4.3 mb 4.6 12373019
NEW    24.33 119.0 m   Lg      2003/04/02 06:52:28.3  -3.5 139.3  172.5  18.5 -13.3       3.7       0.9  0.51               12386141
PDAR   31.81 115.6 a   P       2003/04/02 06:46:05.9   1.1 331.9   -6.5   6.4   0.2 T    75.1      12.0  0.93 mb 4.8 mb 5.2 12371917
NVAR   32.59 130.5 a   P       2003/04/02 06:46:12.8   1.1 334.1    3.9   7.0   0.5 T    45.3      10.4  0.65 mb 4.9 mb 5.4 12371965
TXAR   45.89 118.8 a   P       2003/04/02 06:48:03.5   1.0 332.5   -4.3   6.3  -0.1 T    55.2       5.2  0.86 mb 4.4 mb 4.9 12371932
HIA    46.85 296.1 a   P       2003/04/02 06:48:09.4  -0.4  27.5   -7.5   4.6  -3.2 T     7.2       4.5  0.64 mb 4.5 mb 4.5 12372823
MJAR   50.03 271.7 m   P       2003/04/02 06:48:35.1   0.8  25.9    6.0   8.0   1.3 T     3.7       1.9  0.45 mb 4.3 mb 4.5 12386146
NOA    53.07  11.4 m   P       2003/04/02 06:48:57.0   0.2 322.4  -27.8   9.1   1.7 T     2.0       0.5  0.65 mb 3.6 mb 3.8 12386145
FINES  53.42   2.5 a   P       2003/04/02 06:49:00.2   1.0 339.0  -18.8   4.0  -3.3 T     3.9       1.7  0.58 mb 4.1 mb 4.2 12371911
MKAR   61.11 321.8 a   P       2003/04/02 06:49:52.6  -1.4  46.4   24.3   7.4   0.6 T     7.9       0.5  0.53 mb 3.7 mb 3.7 12371921
MKAR   61.11 321.8 a   LR      2003/04/02 07:19:09.8 -17.9   9.4  -12.7  38.8  -0.3                99.3 18.66 Ms 3.9 Ms 3.9 12394486
GERES  65.36  11.9 m   P       2003/04/02 06:50:21.1  -1.2 279.8  -72.7   8.7   2.3 T     3.4       0.3  0.28 mb 3.8 mb 4.1 12386144
CMAR   81.86 296.7 m   P       2003/04/02 06:51:59.8   0.2 359.6  -16.9   7.1   0.7 T     3.4       2.0  0.76 mb 4.3 mb 4.6 12386147
CMAR   81.86 296.7 a   LR      2003/04/02 07:31:25.3 -49.9 205.0 -178.2  38.0  -0.6               144.7 18.03 Ms 4.3 Ms 4.5 12394485



EVENT  1641254
   Date       Time       Latitude Longitude    Depth    Ndef Nsta Gap    Mag1  N    Mag2  N    Mag3  N  Author          ID
       rms   OT_Error      Smajor Sminor Az        Err   mdist  Mdist     Err        Err        Err     Quality

2003/04/02 06:47:37.0     65.3079 -149.8923      0.0 f    11    8 192  mb 3.9  4  ML 4.0  3  Ms 3.0  1  IDC_REB    1643571
      1.28   +-  1.28      26.5   14.6   26               1.38  61.16   +-0.5      +-0.3      +-0.2     m i uk

NORTHERN ALASKA
Sta    Dist   EvAz     Phase       Date      Time     TRes  Azim  AzRes  Slow  SRes Def  SNR        Amp   Per   Mag1   Mag2 Arr ID
ILAR    1.38 111.5 a   Pn      2003/04/02 06:48:02.5  -2.2 285.8   -8.5  13.4  -0.4 T   106.2     166.8  0.33               12371979
ILAR    1.38 111.5 m   Lg      2003/04/02 06:48:21.8   0.4 289.3   -4.9  28.4  -0.4 T    87.9    1245.2  0.33               12386214
INK     7.12  57.7 a   Pn      2003/04/02 06:49:22.5   0.4 243.9   -8.8  13.9   0.2 T    41.7       3.8  0.33 ML 4.4        12373158
INK     7.12  57.7 m   Sn      2003/04/02 06:50:42.6   0.4 188.6  -64.1  18.3  -6.4 T     2.6       2.9  0.33               12386213
INK     7.12  57.7 m   Lg      2003/04/02 06:51:24.0   1.2 336.7   83.9  16.6 -15.1 T     2.9       1.8  0.33               12386212
INK     7.12  57.7 a   LR      2003/04/02 06:52:27.1  -6.3 357.5  104.8  40.7  -0.9               119.8 18.47 Ms 3.0 Ms 3.0 12394505
DLBC   11.59 117.2 a   Pn      2003/04/02 06:50:23.8  -1.2 161.6 -124.1  22.7   9.0 T     6.1       0.4  0.33 ML 3.9        12373181
DLBC   11.59 117.2 a   Lg      2003/04/02 06:53:39.5  -5.8  69.8  144.0  24.4  -7.3       5.9       0.7  0.33               12373271
YKA    15.64  84.0 a   Pn      2003/04/02 06:51:16.0   1.2 293.2   -2.6  13.2   0.1 T     9.3       0.2  0.33 ML 3.9        12372021
YKA    15.64  84.0 m   Lg      2003/04/02 06:56:01.7  12.3 284.4  -11.5  26.9  -4.9       2.7                               12386211
PDAR   31.81 115.3 a   P       2003/04/02 06:54:04.8   1.6 335.8   -3.4   6.4   0.1 T    15.1       2.8  0.96 mb 4.1 mb 4.6 12372000
NVAR   32.57 130.2 a   P       2003/04/02 06:54:11.4   1.6 335.7    5.3   6.9   0.4 T    10.3       5.3  0.98 mb 4.4 mb 4.9 12372048
TXAR   45.89 118.6 a   P       2003/04/02 06:56:02.5   1.6 333.8   -3.2   6.2  -0.1 T    11.6       1.1  0.83 mb 3.8 mb 4.3 12372012
MKAR   61.16 321.7 m   P       2003/04/02 06:57:51.7  -1.0  32.5   10.2   7.6   0.8 T     2.9       0.3  0.70 mb 3.3 mb 3.3 12386215



EVENT  1641286
   Date       Time       Latitude Longitude    Depth    Ndef Nsta Gap    Mag1  N    Mag2  N    Mag3  N  Author          ID
       rms   OT_Error      Smajor Sminor Az        Err   mdist  Mdist     Err        Err        Err     Quality

2003/04/02 07:03:31.6     -5.9913  147.1125    147.2       4    3 330  mb 4.0  2  Ms 2.9  1             IDC_REB    1643052
      0.12   +-  5.05     108.6   47.1  174    +-101.9   18.61  26.26   +-0.2      +-0.2                m i uk

EASTERN NEW GUINEA REG., P.N.G.
Sta    Dist   EvAz     Phase       Date      Time     TRes  Azim  AzRes  Slow  SRes Def  SNR        Amp   Per   Mag1   Mag2 Arr ID
WRA    18.61 220.7 a   P       2003/04/02 07:07:37.7  -0.2  43.5   -1.9  11.7   0.6 TAS  76.7       1.9  0.33               12372137
WRA    18.61 220.7 m   S       2003/04/02 07:11:03.1  -0.0  42.8    1.0  19.2  -0.8 TAS   3.7       0.2  0.33               12384335
WRA    18.61 220.7 a   LR      2003/04/02 07:13:59.7 -25.2 170.0  126.5  33.7  -1.4                40.4 21.87 Ms 2.9 Ms 2.9 12387422
ASAR   21.69 214.5 a   P       2003/04/02 07:08:11.1   0.1  50.0    2.4   9.2  -0.1 TAS  43.3       7.3  0.38 mb 4.1 mb 4.2 12372152
STKA   26.26 190.7 a   P       2003/04/02 07:08:53.2   0.0  12.6   -5.9   7.6  -1.4 TAS   8.0       3.3  0.81 mb 3.8 mb 3.8 12372084



